{"type": "FeatureCollection", "features": [{"type": "Feature", "properties": {"entity_id": "cf-p-vakaga-v1", "name_fr": "Vakaga"}, "geometry": {"type": "Polygon", "coordinates": [[[22.387776, 8.658880000000124], [22.391106, 8.591657], [22.514990000000182, 8.583604], [22.671384, 8.699997], [22.814997, 8.701110000000142], [22.938325000000134, 8.751385], [23.065823000000137, 8.759163], [23.092497, 8.903605], [23.320278, 9.027494], [23.372496000000183, 9.214715], [23.46972000000011, 9.235000000000127], [23.448881, 9.179993], [23.474882256, 9.142529102000026], [23.48166042100013, 9.173167116000172], [23.639007986000138, 9.250801059000025], [23.65972621399999, 9.290397455000118], [23.63885239300015, 9.378697920999969], [23.67180845000013, 9.450066495000101], [23.64013603, 9.448203411000122], [23.64738490900004, 9.537837463000187], [23.625231362000136, 9.544548386000088], [23.6989619740001, 9.67792703400005], [23.672276234000094, 9.899666272000104], [23.317658519000133, 10.465293909000025], [23.008434072000114, 10.707941562000087], [22.875510141000177, 10.931368940000027], [22.52068, 11.0075700000001], [22.15180000000015, 10.87602], [22.074160000000177, 10.895830000000103], [21.832620000000134, 10.83948], [21.788490000000138, 10.79461], [21.78859, 10.66940000000011], [21.73363000000012, 10.65398], [21.71754, 10.50787], [21.77099, 10.41169], [21.723140000000114, 10.347060000000113], [21.72826, 10.30177], [21.67647, 10.2781], [21.66832, 10.23183], [21.53675, 10.22694], [21.38508000000013, 9.99172], [21.34061, 9.96370000000013], [21.25405000000012, 9.99038000000013], [21.11531, 9.79194], [21.03047, 9.774000000000171], [21.03053000000017, 9.72850000000011], [20.994990000000143, 9.747050000000172], [21.00439, 9.70568], [20.96782, 9.70227000000017], [20.99861, 9.684940000000154], [20.96715, 9.64253], [20.98802, 9.62071], [20.95148, 9.616380000000106], [20.951590000000124, 9.5679], [20.8745, 9.52310000000017], [20.820358043, 9.428719180000087], [20.84489800000017, 9.383714000000168], [20.88888, 9.376380000000154], [20.93583200000012, 9.434439000000168], [21.006389, 9.45944], [21.045272, 9.52638700000017], [21.258882, 9.583332], [21.45138500000013, 9.773049000000185], [21.497217, 9.768883], [21.521935000000155, 9.6013880000001], [21.615555000000143, 9.596386000000109], [21.706388000000118, 9.496103], [21.77722, 9.404996], [21.849996, 9.181943000000103], [22.089436, 8.969994], [22.122498, 8.763606], [22.210833, 8.701937], [22.387776, 8.658880000000124]]]}}]}