{"type": "FeatureCollection", "features": [{"type": "Feature", "properties": {"entity_id": "cf-p-haute-kotto-v1", "name_fr": "Haute-Kotto"}, "geometry": {"type": "Polygon", "coordinates": [[[21.887768, 6.037217], [21.940271, 5.820826], [21.901105, 5.671664000000135], [21.853605, 5.614991], [21.752768000000174, 5.672497000000135], [21.661941000000127, 5.597213], [21.662769, 5.549161], [21.900368000000185, 5.477056107000067], [21.934715, 5.503887], [22.0408240000001, 5.600273000000129], [22.031387000000166, 5.636665000000107], [22.082223000000113, 5.637491], [22.047492, 5.72833], [22.071108, 5.873328000000186], [22.122777, 5.943883000000142], [22.10638900000015, 5.973886000000107], [22.240553000000148, 6.063608], [22.37999500000018, 6.035829000000149], [22.467213000000186, 6.081939], [22.54471000000018, 6.246098], [22.812491, 6.273883], [22.873883, 6.187218], [23.271935000000155, 6.082221000000118], [23.319441, 6.212776], [23.39305000000013, 6.209439], [23.440276, 6.294992], [23.50555000000014, 6.337498], [24.268326000000116, 6.777221000000111], [24.303054, 6.769997000000103], [24.284164, 6.822775], [24.34943600000014, 6.880274], [24.318882, 6.934160000000134], [24.354442, 6.965831], [24.492221, 6.97527], [24.555274, 7.031662000000154], [24.562214, 7.200554], [24.542213000000118, 7.248052], [24.51111, 7.249165000000175], [24.50916400000017, 7.316101000000117], [24.596104, 7.487493], [24.55527700000016, 7.507219], [24.496109, 7.633324000000187], [24.449165, 7.934165000000178], [24.484166, 8.058323], [24.42027, 8.113048], [24.414718, 8.162212], [24.202909607000038, 8.305398310999976], [24.153941957000143, 8.373931129000141], [24.16228793700003, 8.480458367000097], [24.256104652000033, 8.576209448000156], [24.223220442000013, 8.641977867000037], [24.26465506600016, 8.69121468100002], [24.051874671, 8.693748803000119], [23.969310816000075, 8.637558893000175], [23.94660620999997, 8.715483747000064], [23.854723860000036, 8.729991486000074], [23.779283614000065, 8.706779102999974], [23.6255339060001, 8.754841899000155], [23.517993016000105, 8.70381522100007], [23.497833468000067, 8.809300462000067], [23.589715818, 8.97468869200003], [23.577142444000117, 9.034654016000047], [23.539589679000073, 8.956644643000175], [23.451408702000094, 8.978557423000098], [23.46972000000011, 9.235000000000127], [23.364721, 9.20527200000015], [23.303884, 9.012215], [23.200828, 8.982217000000162], [23.092497, 8.903605], [23.05693700000012, 8.753879000000154], [22.671384, 8.699997], [22.514990000000182, 8.583604], [22.434712000000104, 8.599992], [22.353604, 8.565276], [22.149439, 8.585828000000163], [22.075277, 8.623329], [22.002218, 8.604719], [21.956108, 8.52415800000017], [22.001665000000173, 8.405828], [21.958329000000106, 8.289713], [21.989715000000103, 8.218328], [21.87666300000012, 8.195277], [21.770832000000155, 8.333047], [21.72515200000015, 8.329879], [21.618886, 8.281381000000124], [21.597771, 8.2330520000001], [21.479992, 8.252492], [21.46527600000013, 8.208327000000168], [21.384438000000102, 8.162495], [21.452774, 8.000547000000154], [21.121941000000163, 7.999714000000154], [21.12943600000017, 7.902499], [21.10166, 7.847497], [21.130826, 7.703324], [21.213881, 7.619714000000158], [21.321661000000177, 7.595549000000176], [21.392493000000115, 7.540828000000147], [21.423886, 7.477491], [21.420553, 7.313047], [21.553602000000183, 7.311664], [21.581941, 7.284715000000119], [21.60444200000012, 6.991659], [21.635271, 6.980547], [21.653884000000176, 6.879998000000114], [21.607221, 6.768884], [21.701105000000155, 6.593047000000126], [21.794442, 6.561106], [21.773886, 6.441385], [21.811657, 6.342496], [21.736939000000177, 6.220269], [21.789713, 6.179996000000187], [21.818604, 6.049996000000135], [21.887768, 6.037217]]]}}]}