{"type": "FeatureCollection", "features": [{"type": "Feature", "properties": {"entity_id": "cf-p-lim-pende-v1", "name_fr": "Lim-pendé"}, "geometry": {"type": "Polygon", "coordinates": [[[15.9914, 7.091873], [16.141655000000185, 6.575621000000183], [16.286368, 6.587293000000102], [16.292684, 6.615939], [16.25985700000018, 6.629447], [16.301637, 6.654803000000129], [16.328838, 6.599737000000175], [16.462096, 6.589441], [16.499038, 6.544487], [16.654637, 6.670955], [16.75443500000017, 6.667495], [16.724719000000107, 6.881665], [16.676384000000155, 6.990549000000158], [16.762218, 7.095832], [16.75360600000016, 7.20388400000013], [16.791939000000127, 7.390826000000118], [16.832776, 7.432216], [16.82416200000017, 7.528051], [16.726780000000133, 7.650230000000136], [16.66723000000019, 7.66866], [16.6680300000001, 7.73822], [16.59448, 7.76888], [16.59592000000015, 7.88019], [16.51883, 7.845680000000129], [16.4891, 7.79028], [16.438960000000122, 7.805200000000127], [16.41254000000015, 7.76791], [16.430520000000115, 7.718710000000158], [16.39277, 7.67114], [16.23546, 7.606650000000116], [16.06614, 7.58191], [15.974810000000161, 7.483340000000112], [15.80959, 7.441070000000138], [15.727950000000135, 7.519130000000189], [15.495788798000035, 7.532341709000093], [15.421757000000184, 7.416386], [15.31213471100017, 7.326953239000034], [15.315217000000189, 7.275796], [15.397335000000112, 7.24218], [15.406901, 7.039793], [15.595884000000183, 7.040202000000136], [15.665449, 7.11537600000014], [15.725559, 7.092784000000108], [15.715041000000156, 7.135074000000145], [15.770109000000161, 7.152530000000127], [15.8243030000001, 7.123855], [15.896149, 7.166824], [16.0311798030001, 7.150935301000061], [15.9914, 7.091873]]]}}]}