{"type": "FeatureCollection", "features": [{"type": "Feature", "properties": {"entity_id": "cf-pays-centrafrique-v1", "name_fr": "République centrafricaine"}, "geometry": {"type": "Polygon", "coordinates": [[[16.58811986300003, 3.441395021], [16.67202, 3.541810000000112], [16.75453, 3.55707], [16.8518, 3.510620000000131], [16.87365000000011, 3.55751], [16.95728, 3.559870000000103], [17.0353, 3.51343], [17.05806, 3.54813], [17.23934, 3.57921], [17.29882, 3.63015], [17.36267000000015, 3.606960000000129], [17.394210000000157, 3.66165], [17.474060000000122, 3.70308000000017], [17.606320000000153, 3.64125], [17.82897, 3.626740000000154], [17.85914, 3.532980000000123], [17.937720000000127, 3.602450000000147], [17.99574, 3.55116], [18.000000000000114, 3.578870000000109], [18.123520000000156, 3.56607], [18.18899000000016, 3.48117], [18.24155000000013, 3.50044], [18.26768, 3.59157], [18.34594, 3.60758], [18.41053, 3.57790000000017], [18.48676, 3.65327], [18.595, 3.47702], [18.62508316600008, 3.471646950000093], [18.587884250000116, 3.743564342000184], [18.650752288000092, 3.979211794000094], [18.643202471999984, 4.107558667000092], [18.54436851700018, 4.307285618000037], [18.552604680000115, 4.341602964000117], [18.599962617000187, 4.370429534000095], [18.709851878999984, 4.366733296000177], [18.772173969000164, 4.413556759000073], [18.828516139000044, 4.573588220000033], [19.001734180000085, 4.747806517000072], [19.093810528000063, 4.924391295000078], [19.201888859000064, 4.947647288000041], [19.23483351100009, 5.005986775000054], [19.396527290000165, 5.118634550000138], [19.550553091000097, 5.152178668000033], [19.830421316000184, 5.093408153000041], [19.898532587000147, 4.997547845000099], [20.009719175000043, 4.975787511000021], [20.24033173800018, 4.800769048], [20.35220628400009, 4.754783805000045], [20.452412934000108, 4.632614055000033], [20.460649096000168, 4.514562385999966], [20.584877888000165, 4.414355737000051], [20.940382777000025, 4.436260516000175], [21.080420358000026, 4.395824370000071], [21.21357166000007, 4.293558680000046], [21.27740192200008, 4.343662005000056], [21.356331817000125, 4.283949823], [21.545816301000173, 4.250846498999977], [21.637734051, 4.308658312000091], [21.731230317000097, 4.311389852000161], [21.856100981999987, 4.247062540000172], [21.996007140000074, 4.247573437000085], [22.10101821700016, 4.211197051000113], [22.250894092000067, 4.124714515000051], [22.371438901000033, 4.115794830000027], [22.457512608000116, 4.135950578000063], [22.547143711000047, 4.220119560000057], [22.570479506000027, 4.339543923000178], [22.62126917700016, 4.370429534000095], [22.58214740300008, 4.406119574000115], [22.59901836800003, 4.475361431000181], [22.702944460000083, 4.487108509000109], [22.775603146000037, 4.706182962000014], [22.86286329000012, 4.71360299100013], [22.906789493000076, 4.820673109000154], [22.96993340900019, 4.839204475999964], [23.007685997000124, 4.757897075000074], [23.074535949000108, 4.72005748000015], [23.175441536000108, 4.741499918000045], [23.273298744000044, 4.633300402000089], [23.41674524900003, 4.593492281000181], [23.459985104000054, 4.677912951000167], [23.537440331000084, 4.697353723000049], [23.59450909900005, 4.763019968000037], [23.78119545900006, 4.786355763000017], [23.88689288400002, 4.835772740999971], [23.95745983800009, 4.809611189000066], [23.959982478000086, 4.875199821000081], [24.04475267400005, 4.86597200500006], [24.106523896000112, 4.916761677000068], [24.14976375100008, 4.892739535000032], [24.22594825800013, 4.957256144000155], [24.27026715900007, 4.937004493000074], [24.276573758000097, 4.989979926000046], [24.398921783, 5.031603481000047], [24.34090107000003, 5.058091198000056], [24.374956705999978, 5.113589271000023], [24.44180665700003, 5.055568558000061], [24.466169678000142, 5.104820731000189], [24.54304053200002, 5.0746214670001], [24.672760099000072, 4.96411961400014], [24.663151242000026, 4.916075330000069], [24.722471346000134, 4.894842376000042], [24.781461460000116, 4.896071336000148], [24.955728088000114, 4.987506013000029], [25.062376019000055, 4.925652614000057], [25.149903879000135, 5.030273845000181], [25.19144275100018, 4.999058244000139], [25.326628429000095, 5.043055037000045], [25.348258137000073, 5.151940955000157], [25.307948226, 5.192005074000122], [25.376770024999985, 5.291796682999973], [25.355877694000185, 5.308756341000105], [25.39028859300015, 5.339234567000176], [25.421258403000024, 5.310968470000091], [25.478611567000087, 5.36459191900002], [25.540467591000038, 5.358652146000168], [25.531619074000048, 5.392325669000172], [25.62231637400015, 5.351032589000056], [25.59429607000004, 5.325224415000037], [25.63141068300007, 5.304086290000157], [25.64787875700017, 5.332106594000038], [25.705639910000116, 5.302365745000145], [25.739805018000084, 5.240426126000102], [25.783893621000118, 5.279474155000059], [25.828290188000096, 5.19077611300014], [25.878923369000063, 5.225678597000183], [25.899569909000036, 5.168900613000119], [25.90669788100007, 5.206998394999971], [25.961509529000182, 5.198149877999981], [25.975853991000065, 5.247737194000024], [26.008624471000076, 5.21062304700007], [26.048441098000183, 5.225916530000063], [26.06046472899999, 5.194744153000045], [26.09275040500006, 5.211888960000067], [26.087406569000052, 5.243729317000145], [26.157544417000054, 5.261987423000051], [26.29603883400017, 5.141973772000142], [26.349922514000014, 5.159341239000184], [26.413249570000175, 5.135031708000042], [26.48062383700011, 5.049569941000129], [26.754844009000124, 5.107971266000163], [26.801916996000045, 5.049979965000148], [26.865204462000122, 5.041177416000039], [26.92786806500004, 5.142599627000152], [27.092440596000074, 5.208909325000036], [27.425804265000068, 5.082900378000033], [27.443611000000146, 5.019444], [27.454997476000074, 5.073292365999976], [27.30088849800012, 5.22913941500002], [27.249325719000126, 5.327919794000024], [27.232524365000188, 5.424382745000116], [27.283797465000077, 5.582836901000121], [27.23860761400016, 5.589499506999971], [27.218909474000156, 5.686252137], [27.14764855500016, 5.747084628000096], [27.15894601800011, 5.769389875000115], [27.105355490000136, 5.801254513000117], [27.0526339970001, 5.790246729000046], [27.0172932160001, 5.848472114000117], [26.86463002200003, 5.903507470000022], [26.84391396800015, 5.985724310000137], [26.805071366999982, 6.00514561000017], [26.670417015000112, 5.992198076000022], [26.574722969000106, 6.026970460000143], [26.515972523000073, 6.11469947300003], [26.451398768000104, 6.070725934000052], [26.52959409500005, 6.181263380000075], [26.53291790500009, 6.23396950800003], [26.475721639000028, 6.216320110000026], [26.4783375130001, 6.277520413], [26.393559699000036, 6.304459158000043], [26.308385728000133, 6.380521495000096], [26.31512041400015, 6.434002825999983], [26.284616248000077, 6.458960780000041], [26.35434005700006, 6.583750552000083], [26.3959366470001, 6.590089079999984], [26.41217912600007, 6.653870519000179], [26.362659375000078, 6.694278636000035], [26.26005445100003, 6.708144166000068], [26.171315058, 6.812927959000149], [26.06995867000012, 6.829881140000168], [26.08495261200011, 6.900478878000058], [26.036225178, 6.927021465000053], [26.038619891000167, 7.005093404000093], [25.94222940399999, 7.040230823000115], [25.897120555000072, 7.09246212100004], [25.8681559260001, 7.080116542000042], [25.821147758000166, 7.154664849000085], [25.355791305000082, 7.347887505000188], [25.33349736300005, 7.427692090999983], [25.20244428700005, 7.492743799000039], [25.165882378000163, 7.578688026000066], [25.295985794000046, 7.679351983000174], [25.283640214000172, 7.795210499000063], [25.218588507, 7.881629557], [25.168256528000086, 7.914392826000039], [25.08472101500007, 7.894860844000107], [25.038153112000032, 7.947156095000082], [24.97899761000008, 7.957619538000131], [24.939863305000074, 8.0383234520001], [24.90121546800009, 8.051029279000034], [24.85865943200008, 8.174828656000159], [24.750406141000155, 8.166527548000033], [24.729038792000154, 8.209262246000094], [24.644993884000144, 8.221607826000024], [24.559524487000147, 8.201664967000056], [24.49542243900015, 8.234903066000129], [24.482127200000093, 8.283810554000013], [24.360095893000107, 8.251047285000027], [24.202909607000038, 8.305398310999976], [24.15069587000005, 8.396345260999965], [24.16228793700003, 8.480458367000097], [24.256104652000033, 8.576209448000156], [24.223220442000013, 8.641977867000037], [24.253203104000136, 8.699041642000054], [24.051874671, 8.693748803000119], [23.969310816000075, 8.637558893000175], [23.94660620999997, 8.715483747000064], [23.854723860000036, 8.729991486000074], [23.779283614000065, 8.706779102999974], [23.6255339060001, 8.754841899000155], [23.517993016000105, 8.70381522100007], [23.497833468000067, 8.809300462000067], [23.589715818, 8.97468869200003], [23.582324378000067, 9.028818801000114], [23.509439660000112, 8.949541944000032], [23.451408702000094, 8.978557423000098], [23.461666666999974, 9.082777800000144], [23.48166042100013, 9.173167116000172], [23.594373783000037, 9.20922893400018], [23.65972621399999, 9.290397455000118], [23.63885239300015, 9.378697920999969], [23.67180845000013, 9.450066495000101], [23.64013603, 9.448203411000122], [23.64738490900004, 9.537837463000187], [23.625231362000136, 9.544548386000088], [23.6989619740001, 9.67792703400005], [23.672276234000094, 9.899666272000104], [23.317658519000133, 10.465293909000025], [23.008434072000114, 10.707941562000087], [22.875510141000177, 10.931368940000027], [22.50904, 11.007270000000176], [22.15180000000015, 10.87602], [22.074160000000177, 10.895830000000103], [21.832620000000134, 10.83948], [21.788490000000138, 10.79461], [21.78859, 10.66940000000011], [21.73363000000012, 10.65398], [21.71754, 10.50787], [21.77099, 10.41169], [21.672710000000166, 10.233710000000144], [21.53675, 10.22694], [21.347550000000126, 9.965600000000109], [21.25405000000012, 9.99038000000013], [21.11531, 9.79194], [21.03047, 9.774000000000171], [21.03053000000017, 9.72850000000011], [20.994990000000143, 9.747050000000172], [21.00439, 9.70568], [20.96782, 9.70227000000017], [20.99861, 9.684940000000154], [20.96715, 9.64253], [20.98802, 9.62071], [20.95148, 9.616380000000106], [20.951590000000124, 9.5679], [20.8745, 9.52310000000017], [20.827330000000188, 9.43042000000014], [20.66689, 9.39835], [20.63786, 9.3178], [20.52864, 9.33707], [20.43423, 9.15388], [20.30336000000011, 9.12154], [20.10146, 9.156550000000152], [19.92714, 9.060800000000143], [19.78003, 9.05862], [19.671990000000164, 9.02076000000011], [19.09167, 9.02045], [18.88899, 8.90097], [18.86357, 8.850520000000188], [18.90078, 8.850590000000125], [18.90972, 8.80694], [18.9523, 8.80918], [19.12222, 8.6712500000001], [19.06584, 8.63738], [19.02906, 8.532460000000128], [18.89957, 8.36407], [18.8505, 8.34726], [18.83718, 8.28897], [18.657700000000148, 8.19495], [18.61805, 8.052470000000142], [18.03198, 8.009300000000167], [17.92164000000014, 7.95861], [17.671670000000177, 7.98277], [17.61652000000015, 7.92688], [17.547160000000133, 7.92134], [17.51507000000015, 7.86875], [17.46777, 7.894050000000163], [17.40299, 7.843020000000138], [17.3087, 7.827730000000145], [17.26266, 7.74697], [17.23258, 7.76344], [17.16045, 7.66675], [17.09127, 7.69215], [17.09064000000012, 7.660480000000177], [17.04032, 7.63504], [16.900920000000156, 7.616500000000144], [16.908, 7.558150000000182], [16.84385, 7.52979], [16.726780000000133, 7.650230000000136], [16.66723000000019, 7.66866], [16.6680300000001, 7.73822], [16.59448, 7.76888], [16.59592000000015, 7.88019], [16.51883, 7.845680000000129], [16.4891, 7.79028], [16.438960000000122, 7.805200000000127], [16.41254000000015, 7.76791], [16.430520000000115, 7.718710000000158], [16.39277, 7.67114], [16.23546, 7.606650000000116], [16.06614, 7.58191], [15.974810000000161, 7.483340000000112], [15.80959, 7.441070000000138], [15.727950000000135, 7.519130000000189], [15.495788798000035, 7.532341709000093], [15.42038100000019, 7.414850000000115], [15.219863, 7.244759000000101], [15.220307, 7.108524], [15.143856, 7.027292], [15.14038, 6.94698], [15.056543, 6.770138], [14.95989900000012, 6.751579000000163], [14.800485, 6.401351], [14.812094000000172, 6.365630000000181], [14.73852, 6.250436], [14.562169, 6.194398], [14.421435, 6.082459], [14.417285, 6.032043000000101], [14.497691, 5.905458000000124], [14.594887000000142, 5.923693], [14.619158, 5.889539000000184], [14.626865000000123, 5.707168], [14.590004, 5.589598], [14.627787, 5.509760000000142], [14.525669000000164, 5.282669000000169], [14.66410500000012, 5.19985400000013], [14.73065, 4.611269000000107], [14.889573, 4.468790000000126], [15.00813200000016, 4.424023000000147], [15.085491000000104, 4.301925], [15.10167500000017, 4.134525], [15.178864, 4.058126000000129], [15.073453, 4.019521], [15.24727, 3.713886], [15.802358, 3.098342000000173], [15.88670900000011, 3.102888], [15.96854100000013, 2.995213000000149], [15.999293000000137, 3.01095], [16.032045, 2.980812000000185], [16.089256, 2.831444], [16.04705300000012, 2.79254], [16.05638800000014, 2.715547000000186], [16.083750000000123, 2.704238], [16.072474, 2.463333], [16.19179702800011, 2.220334896000168], [16.52013000000011, 2.8423], [16.493380000000172, 3.004340000000184], [16.54454, 3.065690000000188], [16.50577, 3.159870000000183], [16.558360000000164, 3.25343], [16.58811986300003, 3.441395021]]]}}]}