{"type": "FeatureCollection", "features": [{"type": "Feature", "properties": {"entity_id": "cf-p-ouham-fafa-v1", "name_fr": "Ouham-Fafa"}, "geometry": {"type": "Polygon", "coordinates": [[[18.708051000000125, 6.888604], [18.651383, 6.961108000000138], [18.747776, 7.08443700000015], [18.709718, 7.122218], [18.846384, 7.251110000000153], [18.71729, 7.602477], [19.021662000000106, 7.759999000000107], [18.979992, 7.773884], [18.975828, 7.853885000000105], [19.05860900000016, 8.064719], [19.06555, 8.21055100000018], [19.016108, 8.27082700000011], [19.076939000000152, 8.413329], [19.074716, 8.569158], [19.046334941000055, 8.575067489000048], [18.98955, 8.51297000000011], [18.923940000000187, 8.39039], [18.8505, 8.34726], [18.83718, 8.28897], [18.666620000000137, 8.20585], [18.61341, 8.05024], [18.03198, 8.009300000000167], [17.92164000000014, 7.95861], [17.722535347000132, 7.978512759000182], [17.737941, 7.960520000000145], [17.665934, 7.919884], [17.647335, 7.835989000000154], [17.58213, 7.786636000000158], [17.57820000000015, 7.470311000000152], [17.52675, 7.407118], [17.500539, 7.415843], [17.464055, 7.246944], [17.410433, 7.212294000000156], [17.401331, 7.169614], [17.605052, 6.945121], [17.676798, 6.928713], [17.749813000000188, 6.850619], [17.774565, 6.873395], [17.811463000000117, 6.84788], [17.911637, 6.904779], [17.921848000000125, 6.857607], [17.963417000000163, 6.837437], [17.871484000000123, 6.781762000000128], [17.871536000000162, 6.687607], [17.74515200000019, 6.613299000000154], [17.71937200000019, 6.55592], [17.741591, 6.467421000000115], [17.723150000000146, 6.349080000000185], [17.62210000000016, 6.240903000000117], [17.610013, 6.162443], [17.754074000000116, 6.050333000000137], [17.754591, 6.104017000000169], [17.803978, 6.058028000000149], [17.875164000000154, 6.078064], [17.861865, 5.918500000000108], [18.003606, 5.853608000000122], [18.019721000000118, 5.80027200000012], [18.239159, 5.804721000000143], [18.275552, 5.745828], [18.398881, 5.738325], [18.370269, 5.686662], [18.406935000000146, 5.559991000000139], [18.60888400000016, 5.66194], [18.6125, 5.734161], [18.633878000000152, 5.730964000000142], [18.621384, 5.996103000000176], [18.914163, 6.194159000000184], [18.864436000000126, 6.236380000000167], [18.863883, 6.356663], [18.739714000000163, 6.486937000000182], [18.77444400000013, 6.586938], [18.874997000000178, 6.672496], [18.745833000000175, 6.752497], [18.757222000000127, 6.814438000000109], [18.727221000000156, 6.816936], [18.708051000000125, 6.888604]]]}}]}