{"type": "FeatureCollection", "features": [{"type": "Feature", "properties": {"entity_id": "cf-p-ombella-mpoko-v1", "name_fr": "Ombella M'Poko"}, "geometry": {"type": "Polygon", "coordinates": [[[18.078333, 4.441381], [18.288056, 4.557021], [18.281278, 4.632461], [18.328072, 4.672934], [18.489704, 4.656490000000133], [18.615474, 4.519691000000137], [18.69516, 4.497909000000163], [18.707256, 4.572321], [18.825616528000012, 4.568203254000025], [18.87518772900006, 4.611337301000162], [19.001734180000085, 4.747806517000072], [19.093810528000063, 4.924391295000078], [19.141815706000102, 4.947819013000128], [18.988887, 5.16666], [19.018034000000114, 5.310098000000153], [18.99416300000013, 5.409436], [18.88166, 5.509162], [18.865549, 5.632219000000134], [18.690827000000183, 5.656666000000143], [18.623326000000134, 5.738607000000115], [18.596387, 5.644998000000157], [18.406935000000146, 5.559991000000139], [18.370269, 5.686662], [18.398881, 5.738325], [18.275552, 5.745828], [18.239159, 5.804721000000143], [18.027769, 5.797221], [18.003606, 5.853608000000122], [17.893604000000153, 5.907497], [17.59888500000011, 5.716386000000114], [17.014443, 5.738880000000165], [16.973048000000176, 5.806385000000148], [16.978395, 5.858645], [16.763328, 5.797493], [16.548692, 5.567579], [16.514715, 5.568327000000124], [16.489437, 5.391381], [16.524818, 5.274177903000066], [16.711107, 5.390554], [16.788606, 5.346664000000146], [16.919160000000147, 5.370547], [17.035828, 5.289438000000132], [17.122217, 5.165269], [16.993886, 5.090548], [17.037945, 5.023006], [17.13150800000011, 5.022356], [17.304716, 4.874721], [17.451665000000105, 4.807493], [17.511106, 4.739161], [17.561663, 4.54471500000011], [17.645832, 4.508603], [17.769996000000162, 4.537772000000132], [17.839441, 4.464995], [17.901111000000128, 4.449717000000135], [17.94999900000016, 4.478608000000122], [18.078333, 4.441381]]]}}]}