{"type": "FeatureCollection", "features": [{"type": "Feature", "properties": {"entity_id": "cf-p-kemo-v1", "name_fr": "Kémo"}, "geometry": {"type": "Polygon", "coordinates": [[[18.988887, 5.16666], [19.141815706000102, 4.947819013000128], [19.201888859000064, 4.947647288000041], [19.23483351100009, 5.005986775000054], [19.396527290000165, 5.118634550000138], [19.550553091000097, 5.152178668000033], [19.687892174000126, 5.142599627000152], [19.856918483000072, 5.059560797000074], [19.937770000000114, 5.125831000000119], [19.953887000000122, 5.322213], [20.015272, 5.491102], [19.5111050000001, 5.483326], [19.464999, 5.544999000000132], [19.55665800000014, 5.578047], [19.671381, 5.687770000000114], [19.668884, 5.743888], [19.604438000000187, 5.772215000000188], [19.623326000000134, 5.797492], [19.593329, 5.923325], [19.719995000000154, 6.036383000000171], [19.784713000000124, 6.03972], [19.844722, 6.121937000000173], [19.827218000000187, 6.160275], [19.864161, 6.192491000000189], [19.840826, 6.236103000000185], [19.87554900000015, 6.335277000000133], [19.752769000000114, 6.42027], [19.74305, 6.476108000000181], [19.507769000000167, 6.505828], [19.16305100000011, 6.433328000000131], [19.084437, 6.464438], [19.002771, 6.554166], [18.741662, 6.495274], [18.863883, 6.356663], [18.864436000000126, 6.236380000000167], [18.914163, 6.194159000000184], [18.621384, 5.996103000000176], [18.633878000000152, 5.730964000000142], [18.690827000000183, 5.656666000000143], [18.870828000000188, 5.628050000000144], [18.88166, 5.509162], [18.99416300000013, 5.409436], [19.018034000000114, 5.310098000000153], [18.988887, 5.16666]]]}}]}