{"type": "FeatureCollection", "features": [{"type": "Feature", "properties": {"entity_id": "cf-p-bangui-v1", "name_fr": "Bangui"}, "geometry": {"type": "Polygon", "coordinates": [[[18.475826, 3.926941000000113], [18.612426710000022, 3.866750238000066], [18.652124982000032, 3.992938732000084], [18.643202471999984, 4.107558667000092], [18.543682170000125, 4.32307159700008], [18.599962617000187, 4.370429534000095], [18.696494778000158, 4.364365285000076], [18.75549272700016, 4.396685102000049], [18.825616528000012, 4.568203254000025], [18.724706, 4.582322], [18.691268, 4.554010000000176], [18.696738, 4.499142], [18.643790000000138, 4.502584], [18.489704, 4.656490000000133], [18.31568, 4.670374000000152], [18.279352, 4.626003], [18.288056, 4.557021], [18.120274000000165, 4.462497], [18.197491, 4.343602000000146], [18.267335000000173, 4.324989000000187], [18.322773, 4.268047], [18.350551000000166, 4.05916], [18.475826, 3.926941000000113]]]}}]}