{"type": "FeatureCollection", "features": [{"type": "Feature", "properties": {"entity_id": "cf-p-ouham-v1", "name_fr": "Ouham"}, "geometry": {"type": "Polygon", "coordinates": [[[16.970899, 6.122516], [16.904721, 6.103332], [16.973048000000176, 5.806385000000148], [17.014443, 5.738880000000165], [17.59888500000011, 5.716386000000114], [17.873332, 5.901106000000141], [17.854836, 6.016808], [17.877414000000158, 6.075945], [17.803978, 6.058028000000149], [17.754591, 6.104017000000169], [17.754074000000116, 6.050333000000137], [17.607495, 6.175323], [17.62210000000016, 6.240903000000117], [17.723150000000146, 6.349080000000185], [17.741591, 6.467421000000115], [17.71937200000019, 6.55592], [17.74515200000019, 6.613299000000154], [17.871536000000162, 6.687607], [17.871484000000123, 6.781762000000128], [17.963417000000163, 6.837437], [17.921848000000125, 6.857607], [17.911637, 6.904779], [17.811463000000117, 6.84788], [17.774565, 6.873395], [17.749813000000188, 6.850619], [17.676798, 6.928713], [17.605052, 6.945121], [17.401331, 7.169614], [17.42225900000011, 7.237434000000121], [17.464055, 7.246944], [17.500539, 7.415843], [17.52675, 7.407118], [17.57820000000015, 7.470311000000152], [17.58213, 7.786636000000158], [17.647335, 7.835989000000154], [17.665934, 7.919884], [17.737941, 7.960520000000145], [17.722535347000132, 7.978512759000182], [17.671670000000177, 7.98277], [17.5745, 7.90901], [17.547160000000133, 7.92134], [17.51507000000015, 7.86875], [17.46777, 7.894050000000163], [17.40299, 7.843020000000138], [17.3087, 7.827730000000145], [17.26266, 7.74697], [17.23258, 7.76344], [17.16045, 7.66675], [17.09127, 7.69215], [17.09064000000012, 7.660480000000177], [17.04032, 7.63504], [16.900920000000156, 7.616500000000144], [16.908, 7.558150000000182], [16.822261, 7.532679], [16.832776, 7.432216], [16.791939000000127, 7.390826000000118], [16.752776, 7.197775], [16.76971900000018, 7.123609000000101], [16.676384000000155, 6.990549000000158], [16.792770000000132, 6.557493], [16.913604000000134, 6.453328], [17.039993, 6.488884], [17.12730900000014, 6.440661], [17.126995, 6.39980700000018], [17.082059000000186, 6.394727000000159], [17.027052, 6.301528000000189], [16.979362589000118, 6.291718201000037], [16.954282, 6.191279], [16.970899, 6.122516]]]}}]}