{"type": "FeatureCollection", "features": [{"type": "Feature", "properties": {"entity_id": "cf-p-sangha-mbaere-v1", "name_fr": "Sangha-Mbaéré"}, "geometry": {"type": "Polygon", "coordinates": [[[16.596540000000118, 3.47728], [16.662850000000162, 3.53768], [16.74513000000013, 3.55616], [16.8518, 3.510620000000131], [16.87365000000011, 3.55751], [16.95728, 3.559870000000103], [17.0353, 3.51343], [17.05806, 3.54813], [17.23934, 3.57921], [17.29882, 3.63015], [17.36267000000015, 3.606960000000129], [17.348839000000112, 3.690780000000132], [17.3733, 3.748161], [17.323330000000112, 3.814713], [17.23333, 3.860824], [16.96665800000011, 3.948607], [16.763607, 4.227213], [16.665555000000154, 4.25971600000014], [16.611939, 4.171662], [16.616787, 4.075591000000145], [16.443139, 4.029342], [16.393942, 4.057036], [16.251672, 3.950215], [16.29799400000013, 3.903622000000155], [16.217101000000127, 3.853945000000181], [16.11968, 3.856543], [16.09388600000017, 3.988881], [15.896951, 4.002398], [15.737031000000115, 3.932907], [15.799862, 3.703797000000179], [15.694545426000047, 3.766223972000091], [15.586553000000151, 3.784039000000121], [15.559997, 3.747493], [15.499998000000119, 3.739161], [15.469017417000146, 3.784725433000176], [15.282430587000022, 3.677149063000059], [15.802358, 3.098342000000173], [15.88670900000011, 3.102888], [15.96854100000013, 2.995213000000149], [15.999293000000137, 3.01095], [16.032045, 2.980812000000185], [16.089256, 2.831444], [16.04705300000012, 2.79254], [16.05638800000014, 2.715547000000186], [16.083750000000123, 2.704238], [16.072474, 2.463333], [16.19179702800011, 2.220334896000168], [16.52013000000011, 2.8423], [16.493380000000172, 3.004340000000184], [16.54454, 3.065690000000188], [16.50577, 3.159870000000183], [16.558360000000164, 3.25343], [16.596540000000118, 3.47728]]]}}]}