{"type": "FeatureCollection", "features": [{"type": "Feature", "properties": {"entity_id": "cf-p-haut-mbomou-v1", "name_fr": "Haut-Mbomou"}, "geometry": {"type": "Polygon", "coordinates": [[[26.15687643700005, 5.254416989000163], [26.18604487600004, 5.223689932000013], [26.204080322000152, 5.245065276000105], [26.29603883400017, 5.141973772000142], [26.349922514000014, 5.159341239000184], [26.413249570000175, 5.135031708000042], [26.48062383700011, 5.049569941000129], [26.754844009000124, 5.107971266000163], [26.801916996000045, 5.049979965000148], [26.865204462000122, 5.041177416000039], [26.92786806500004, 5.142599627000152], [27.094117447000144, 5.208941213000173], [27.422023997000053, 5.0847205070001], [27.443611000000146, 5.019444], [27.454418119000024, 5.039110299000185], [27.44920390599998, 5.081693043000087], [27.30088849800012, 5.22913941500002], [27.249325719000126, 5.327919794000024], [27.232524365000188, 5.424382745000116], [27.283797465000077, 5.582836901000121], [27.23860761400016, 5.589499506999971], [27.218909474000156, 5.686252137], [27.14764855500016, 5.747084628000096], [27.15894601800011, 5.769389875000115], [27.105355490000136, 5.801254513000117], [27.0526339970001, 5.790246729000046], [27.0172932160001, 5.848472114000117], [26.86463002200003, 5.903507470000022], [26.84391396800015, 5.985724310000137], [26.805071366999982, 6.00514561000017], [26.670417015000112, 5.992198076000022], [26.574722969000106, 6.026970460000143], [26.515972523000073, 6.11469947300003], [26.451398768000104, 6.070725934000052], [26.52959409500005, 6.181263380000075], [26.53291790500009, 6.23396950800003], [26.475721639000028, 6.216320110000026], [26.4783375130001, 6.277520413], [26.393559699000036, 6.304459158000043], [26.308385728000133, 6.380521495000096], [26.31512041400015, 6.434002825999983], [26.284616248000077, 6.458960780000041], [26.35434005700006, 6.583750552000083], [26.3959366470001, 6.590089079999984], [26.41217912600007, 6.653870519000179], [26.362659375000078, 6.694278636000035], [26.26005445100003, 6.708144166000068], [26.171315058, 6.812927959000149], [26.06995867000012, 6.829881140000168], [26.08495261200011, 6.900478878000058], [26.036225178, 6.927021465000053], [26.038619891000167, 7.005093404000093], [25.94222940399999, 7.040230823000115], [25.897120555000072, 7.09246212100004], [25.8681559260001, 7.080116542000042], [25.821147758000166, 7.154664849000085], [25.355791305000082, 7.347887505000188], [25.33349736300005, 7.427692090999983], [25.20244428700005, 7.492743799000039], [25.165882378000163, 7.578688026000066], [25.295985794000046, 7.679351983000174], [25.283640214000172, 7.795210499000063], [25.218588507, 7.881629557], [25.168256528000086, 7.914392826000039], [25.08472101500007, 7.894860844000107], [25.038153112000032, 7.947156095000082], [24.97899761000008, 7.957619538000131], [24.939863305000074, 8.0383234520001], [24.90121546800009, 8.051029279000034], [24.85865943200008, 8.174828656000159], [24.750406141000155, 8.166527548000033], [24.729038792000154, 8.209262246000094], [24.644993884000144, 8.221607826000024], [24.559524487000147, 8.201664967000056], [24.49542243900015, 8.234903066000129], [24.482127200000093, 8.283810554000013], [24.360095893000107, 8.251047285000027], [24.27466930700018, 8.275983550000092], [24.361663000000192, 8.178607000000113], [24.414718, 8.162212], [24.42027, 8.113048], [24.484166, 8.058323], [24.449165, 7.934165000000178], [24.496109, 7.633324000000187], [24.55527700000016, 7.507219], [24.596104, 7.487493], [24.50916400000017, 7.316101000000117], [24.51111, 7.249165000000175], [24.542213000000118, 7.248052], [24.562214, 7.200554], [24.555274, 7.031662000000154], [24.492221, 6.97527], [24.349721000000102, 6.963881], [24.318882, 6.934160000000134], [24.34943600000014, 6.880274], [24.28249, 6.818047000000149], [24.310277, 6.775831], [24.260706, 6.752611000000115], [24.59694400000012, 6.383328], [24.700556000000176, 6.396381], [24.781108000000188, 6.485827], [24.879161000000124, 6.496664000000123], [25.063328, 6.366663000000187], [25.073604000000103, 6.298880000000111], [25.012222000000122, 6.289157000000159], [24.993327000000136, 6.235552], [24.92721300000011, 6.204716], [24.844717, 6.217221000000166], [25.005555, 6.059717], [25.046108, 6.059716], [25.097773, 5.958049000000187], [25.154443, 5.966661], [25.189722000000188, 5.916385000000105], [25.144715, 5.769719], [25.117500000000177, 5.807214], [25.033883, 5.759712], [25.045275, 5.592775], [25.018054, 5.573606], [25.047776, 5.564442], [24.958331, 5.47555100000011], [24.973608000000183, 5.448879], [24.906939, 5.438885], [24.891945, 5.38638], [24.87082900000013, 5.394999], [24.870548000000156, 5.332218], [24.836389, 5.348328], [24.779438, 5.283887], [24.752495, 5.297495], [24.69555200000019, 5.259163], [24.606942000000117, 5.274439], [24.573051000000135, 5.179158000000143], [24.53527000000014, 5.173603], [24.557771, 5.118886000000145], [24.483957767000106, 5.099260381000022], [24.62343671400015, 5.018990283000051], [24.631579284000054, 4.97647385800002], [24.672760099000072, 4.96411961400014], [24.663151242000026, 4.916075330000069], [24.77138398200009, 4.893613415000061], [24.946387987000094, 4.985785468000074], [25.062376019000055, 4.925652614000057], [25.149903879000135, 5.030273845000181], [25.19144275100018, 4.999058244000139], [25.31360144500013, 5.031257014000062], [25.348258137000073, 5.151940955000157], [25.307948226, 5.192005074000122], [25.376770024999985, 5.291796682999973], [25.355877694000185, 5.308756341000105], [25.39028859300015, 5.339234567000176], [25.421258403000024, 5.310968470000091], [25.478611567000087, 5.36459191900002], [25.540467591000038, 5.358652146000168], [25.531619074000048, 5.392325669000172], [25.62231637400015, 5.351032589000056], [25.59429607000004, 5.325224415000037], [25.63141068300007, 5.304086290000157], [25.64787875700017, 5.332106594000038], [25.705639910000116, 5.302365745000145], [25.739805018000084, 5.240426126000102], [25.783893621000118, 5.279474155000059], [25.828290188000096, 5.19077611300014], [25.878923369000063, 5.225678597000183], [25.899569909000036, 5.168900613000119], [25.90669788100007, 5.206998394999971], [25.961509529000182, 5.198149877999981], [25.975853991000065, 5.247737194000024], [26.008624471000076, 5.21062304700007], [26.048441098000183, 5.225916530000063], [26.06046472899999, 5.194744153000045], [26.09275040500006, 5.211888960000067], [26.087406569000052, 5.243729317000145], [26.15687643700005, 5.254416989000163]]]}}]}