{"type": "FeatureCollection", "features": [{"type": "Feature", "properties": {"entity_id": "cf-p-ouham-pende-v1", "name_fr": "Ouham Pendé"}, "geometry": {"type": "Polygon", "coordinates": [[[16.442491, 5.69027], [16.517391, 5.554724], [16.548692, 5.567579], [16.763328, 5.797493], [16.978395, 5.858645], [16.904435, 6.109436000000187], [16.970899, 6.122516], [16.954282, 6.191279], [16.979362589000118, 6.291718201000037], [17.027052, 6.301528000000189], [17.082059000000186, 6.394727000000159], [17.126995, 6.39980700000018], [17.12730900000014, 6.440661], [17.039993, 6.488884], [16.898604, 6.459442], [16.792770000000132, 6.557493], [16.75443500000017, 6.667495], [16.654637, 6.670955], [16.499038, 6.544487], [16.462096, 6.589441], [16.328838, 6.599737000000175], [16.301637, 6.654803000000129], [16.25985700000018, 6.629447], [16.292684, 6.615939], [16.286368, 6.587293000000102], [16.141655000000185, 6.575621000000183], [15.9914, 7.091873], [16.0311798030001, 7.150935301000061], [15.896149, 7.166824], [15.8243030000001, 7.123855], [15.770109000000161, 7.152530000000127], [15.715041000000156, 7.135074000000145], [15.725559, 7.092784000000108], [15.665449, 7.11537600000014], [15.595884000000183, 7.040202000000136], [15.406901, 7.039793], [15.397335000000112, 7.24218], [15.320537, 7.271674], [15.312582792, 7.326261954000131], [15.293945000000178, 7.315135000000168], [15.210714000000166, 7.225635000000182], [15.233630000000176, 7.215684000000181], [15.205845000000181, 7.177002], [15.220307, 7.108524], [15.143856, 7.027292], [15.14038, 6.94698], [15.056543, 6.770138], [14.95989900000012, 6.751579000000163], [14.941742722000129, 6.703775605000033], [15.187776000000156, 6.754992000000129], [15.191659, 6.687214], [15.313800000000185, 6.573567], [15.353325, 6.367492], [15.42582700000014, 6.295825], [15.474443, 6.321937], [15.540551000000107, 6.304992], [15.753331000000173, 6.426107], [15.794999, 6.380552], [15.70166, 6.27027100000015], [15.8088580000001, 6.118574], [15.81902, 5.947235], [15.895698, 5.913333], [15.901254, 5.854752000000133], [16.066661000000124, 5.786661000000151], [16.158883000000117, 5.831109], [16.192492, 5.90916], [16.253883, 5.904440000000136], [16.270553000000177, 5.831384000000185], [16.442491, 5.69027]]]}}]}