{"type": "FeatureCollection", "features": [{"type": "Feature", "properties": {"entity_id": "cf-p-mambere-kadei-v1", "name_fr": "Mambéré-Kadéï"}, "geometry": {"type": "Polygon", "coordinates": [[[15.753718, 3.83256], [15.737031000000115, 3.932907], [15.896951, 4.002398], [16.09388600000017, 3.988881], [16.11968, 3.856543], [16.217101000000127, 3.853945000000181], [16.29799400000013, 3.903622000000155], [16.251672, 3.950215], [16.393942, 4.057036], [16.443139, 4.029342], [16.616787, 4.075591000000145], [16.611939, 4.171662], [16.665162000000123, 4.26494], [16.473543, 4.31705], [16.434966, 4.407082000000173], [16.189401, 4.396681], [16.070624000000123, 4.660176000000149], [15.984140000000139, 4.689041000000145], [15.802591, 4.667524], [15.66735100000011, 4.764103], [15.601336109000044, 4.724757213999965], [15.564573000000166, 4.632211], [15.519625000000133, 4.607074000000125], [15.306984, 4.640496], [15.253837408000038, 4.60989470800007], [15.224708, 4.670321], [14.882225, 4.662341], [14.833725, 4.666789], [14.83707900000013, 4.706552], [14.718353054000147, 4.712184076000085], [14.751307, 4.585234000000128], [14.889573, 4.468790000000126], [15.00813200000016, 4.424023000000147], [15.085491000000104, 4.301925], [15.10167500000017, 4.134525], [15.178864, 4.058126000000129], [15.073453, 4.019521], [15.282430587000022, 3.677149063000059], [15.469017417000146, 3.784725433000176], [15.499998000000119, 3.739161], [15.559997, 3.747493], [15.586553000000151, 3.784039000000121], [15.694545426000047, 3.766223972000091], [15.799862, 3.703797000000179], [15.791162, 3.798218], [15.753718, 3.83256]]]}}]}