{"type": "FeatureCollection", "features": [{"type": "Feature", "properties": {"entity_id": "cf-p-lobaye-v1", "name_fr": "Lobaye"}, "geometry": {"type": "Polygon", "coordinates": [[[17.3733, 3.748161], [17.367190283000127, 3.612688263000052], [17.394210000000157, 3.66165], [17.4917, 3.70211], [17.606320000000153, 3.64125], [17.82897, 3.626740000000154], [17.85914, 3.532980000000123], [17.937720000000127, 3.602450000000147], [17.99574, 3.55116], [18.000000000000114, 3.578870000000109], [18.123520000000156, 3.56607], [18.18899000000016, 3.48117], [18.24155000000013, 3.50044], [18.26768, 3.59157], [18.34594, 3.60758], [18.41053, 3.57790000000017], [18.48676, 3.65327], [18.595, 3.47702], [18.62508316600008, 3.471646950000093], [18.587884250000116, 3.743564342000184], [18.612426710000022, 3.866750238000066], [18.497216, 3.90972], [18.350551000000166, 4.05916], [18.34444100000013, 4.223325], [18.307783, 4.287631], [18.197491, 4.343602000000146], [18.120274000000165, 4.462497], [18.061941, 4.436661], [17.94999900000016, 4.478608000000122], [17.901111000000128, 4.449717000000135], [17.8324980000001, 4.46944], [17.820271, 4.513603], [17.769996000000162, 4.537772000000132], [17.655915000000107, 4.509009], [17.58971600000018, 4.524722], [17.539721000000156, 4.584716], [17.511106, 4.739161], [17.451665000000105, 4.807493], [17.304716, 4.874721], [17.13150800000011, 5.022356], [17.037945, 5.023006], [17.0274950000001, 4.966944], [16.840398229000186, 4.876290404000031], [16.828885000000128, 4.727216], [16.929161, 4.512499000000162], [16.982498000000135, 4.479994], [17.07363700000019, 4.337438000000134], [16.987214, 4.346387000000163], [16.87000000000012, 4.418051], [16.778602, 4.336102], [16.735128, 4.247553], [16.96665800000011, 3.948607], [17.330548000000135, 3.808329000000128], [17.3733, 3.748161]]]}}]}