{"type": "FeatureCollection", "features": [{"type": "Feature", "properties": {"entity_id": "cf-p-basse-kotto-v1", "name_fr": "Basse-Kotto"}, "geometry": {"type": "Polygon", "coordinates": [[[21.962214000000188, 4.52472], [21.914164, 4.640277], [21.73722000000015, 4.708605], [21.777496415000087, 4.922499228999982], [21.831385000000125, 4.996941000000106], [21.79304400000018, 5.090755000000172], [21.88717774600002, 5.192402958], [21.900368000000185, 5.477056107000067], [21.662769, 5.549161], [21.636381, 5.482217000000105], [21.5619420000001, 5.467492000000163], [21.5127710000001, 5.505273000000159], [21.482223, 5.632221000000129], [21.398047, 5.730829], [21.369442000000106, 5.691387], [21.33776900000015, 5.716107], [21.23527200000018, 5.645550000000185], [21.17972, 5.671935000000133], [21.123332000000175, 5.651666000000148], [21.081109, 5.708881000000133], [21.034716000000117, 5.716110000000185], [21.058045, 5.65055400000017], [21.026379, 5.551937], [20.93833100000012, 5.518051000000128], [20.979162, 5.487495], [20.989163000000133, 5.424164], [20.953328, 5.380830000000174], [20.9541660000001, 5.213885], [20.90054600000019, 5.121380000000102], [20.93860800000016, 5.031388000000106], [20.893609, 4.939442], [20.907777, 4.850832000000139], [20.814853, 4.84702], [20.738378, 4.789873000000171], [20.577157647000092, 4.592997488000151], [20.460649096000168, 4.514562385999966], [20.584877888000165, 4.414355737000051], [20.865593775000036, 4.447300388000031], [21.04404397200011, 4.409551308], [21.21357166000007, 4.293558680000046], [21.27740192200008, 4.343662005000056], [21.356331817000125, 4.283949823], [21.545816301000173, 4.250846498999977], [21.637734051, 4.308658312000091], [21.731230317000097, 4.311389852000161], [21.856100981999987, 4.247062540000172], [22.037116535000052, 4.222382406000065], [22.074442, 4.29138], [22.063886, 4.358327], [22.151379000000134, 4.508054], [22.121665, 4.539159], [21.962214000000188, 4.52472]]]}}]}