{"type": "FeatureCollection", "features": [{"type": "Feature", "properties": {"entity_id": "cf-p-nana-mambere-v1", "name_fr": "Nana-Mambéré"}, "geometry": {"type": "Polygon", "coordinates": [[[15.694436, 5.016936000000157], [15.687067000000184, 5.079091000000176], [15.825884, 5.075637], [15.880667, 5.106767], [15.954061, 5.221809000000178], [15.984862000000192, 5.20375300000012], [15.976792, 5.12405], [16.011255, 5.078858], [16.079871, 5.070856], [16.524818, 5.274177903000066], [16.489437, 5.391381], [16.505552, 5.58916], [16.442491, 5.69027], [16.31722200000013, 5.772215000000188], [16.253883, 5.904440000000136], [16.192492, 5.90916], [16.158883000000117, 5.831109], [16.066661000000124, 5.786661000000151], [15.901254, 5.854752000000133], [15.895698, 5.913333], [15.81902, 5.947235], [15.8088580000001, 6.118574], [15.70166, 6.27027100000015], [15.789437, 6.367769], [15.77805300000017, 6.408602000000144], [15.753331000000173, 6.426107], [15.540551000000107, 6.304992], [15.474443, 6.321937], [15.42582700000014, 6.295825], [15.353325, 6.367492], [15.313800000000185, 6.573567], [15.191659, 6.687214], [15.187776000000156, 6.754992000000129], [14.941742722000129, 6.703775605000033], [14.800485, 6.401351], [14.812094000000172, 6.365630000000181], [14.73852, 6.250436], [14.562169, 6.194398], [14.421435, 6.082459], [14.417285, 6.032043000000101], [14.497691, 5.905458000000124], [14.594887000000142, 5.923693], [14.619502, 5.887753], [14.626865000000123, 5.707168], [14.590004, 5.589598], [14.627787, 5.509760000000142], [14.528246, 5.273025000000132], [14.66410500000012, 5.19985400000013], [14.693293, 5.101977000000147], [14.681550232000063, 5.011317198000143], [14.939993000000129, 5.010825], [15.022216000000185, 4.939716000000146], [15.078886, 4.998609000000101], [15.405551, 4.999719], [15.497304000000156, 5.054923000000144], [15.557492, 5.022776], [15.694436, 5.016936000000157]]]}}]}