{"type": "FeatureCollection", "features": [{"type": "Feature", "properties": {"entity_id": "cf-p-mambere-v1", "name_fr": "Mambéré"}, "geometry": {"type": "Polygon", "coordinates": [[[16.473543, 4.31705], [16.735128, 4.247553], [16.778602, 4.336102], [16.87000000000012, 4.418051], [16.987214, 4.346387000000163], [17.07363700000019, 4.337438000000134], [16.982498000000135, 4.479994], [16.929161, 4.512499000000162], [16.8302690000001, 4.715276000000131], [16.840398229000186, 4.876290404000031], [17.033324000000164, 4.971664000000146], [17.042775000000177, 5.010549], [16.993886, 5.090548], [17.12111, 5.154993], [17.056943, 5.26804900000019], [16.919160000000147, 5.370547], [16.788606, 5.346664000000146], [16.70083, 5.386938], [16.555550000000153, 5.287773], [16.079871, 5.070856], [16.011255, 5.078858], [15.976792, 5.12405], [15.984862000000192, 5.20375300000012], [15.954061, 5.221809000000178], [15.880667, 5.106767], [15.825884, 5.075637], [15.687067000000184, 5.079091000000176], [15.694436, 5.016936000000157], [15.557492, 5.022776], [15.497304000000156, 5.054923000000144], [15.405551, 4.999719], [15.078886, 4.998609000000101], [15.022216000000185, 4.939716000000146], [14.939993000000129, 5.010825], [14.676006, 5.0089660000001], [14.722654, 4.706364000000121], [14.83707900000013, 4.706552], [14.833725, 4.666789], [14.882225, 4.662341], [15.224708, 4.670321], [15.253837408000038, 4.60989470800007], [15.306984, 4.640496], [15.519625000000133, 4.607074000000125], [15.564573000000166, 4.632211], [15.601336109000044, 4.724757213999965], [15.66735100000011, 4.764103], [15.802591, 4.667524], [15.984140000000139, 4.689041000000145], [16.070624000000123, 4.660176000000149], [16.189401, 4.396681], [16.434966, 4.407082000000173], [16.473543, 4.31705]]]}}]}