{"type": "FeatureCollection", "features": [{"type": "Feature", "properties": {"entity_id": "cf-p-mbomou-v1", "name_fr": "Mbomou"}, "geometry": {"type": "Polygon", "coordinates": [[[22.694021950000092, 4.477499653], [22.790796864000185, 4.726643582000065], [22.855313474000184, 4.70742586800003], [22.89718063600003, 4.7554701520001], [22.89168986100003, 4.811064252000108], [22.963756286000034, 4.839204475999964], [23.007685997000124, 4.757897075000074], [23.074535949000108, 4.72005748000015], [23.175441536000108, 4.741499918000045], [23.273298744000044, 4.633300402000089], [23.42566775900019, 4.595551322000063], [23.459985104000054, 4.677912951000167], [23.537440331000084, 4.697353723000049], [23.59450909900005, 4.763019968000037], [23.78119545900006, 4.786355763000017], [23.88689288400002, 4.835772740999971], [23.95745983800009, 4.809611189000066], [23.959982478000086, 4.875199821000081], [24.04475267400005, 4.86597200500006], [24.106523896000112, 4.916761677000068], [24.14976375100008, 4.892739535000032], [24.22594825800013, 4.957256144000155], [24.27026715900007, 4.937004493000074], [24.276573758000097, 4.989979926000046], [24.398921783, 5.031603481000047], [24.34090107000003, 5.058091198000056], [24.374956705999978, 5.113589271000023], [24.44180665700003, 5.055568558000061], [24.44306797700017, 5.098453433000032], [24.557771, 5.118886000000145], [24.53527000000014, 5.173603], [24.573051000000135, 5.179158000000143], [24.606942000000117, 5.274439], [24.69555200000019, 5.259163], [24.783885, 5.286660000000154], [24.836389, 5.348328], [24.867497000000128, 5.32888], [24.87082900000013, 5.394999], [24.891945, 5.38638], [24.906939, 5.438885], [24.970271, 5.445548000000144], [24.958331, 5.47555100000011], [25.047776, 5.564442], [25.018054, 5.573606], [25.045275, 5.592775], [25.033883, 5.759712], [25.117500000000177, 5.807214], [25.144715, 5.769719], [25.18971500000015, 5.906383000000119], [25.154443, 5.966661], [25.097773, 5.958049000000187], [25.046108, 6.059716], [25.005555, 6.059717], [24.844717, 6.217221000000166], [24.92721300000011, 6.204716], [24.993327000000136, 6.235552], [25.012222000000122, 6.289157000000159], [25.073604000000103, 6.298880000000111], [25.063328, 6.366663000000187], [24.879161000000124, 6.496664000000123], [24.781108000000188, 6.485827], [24.700556000000176, 6.396381], [24.59694400000012, 6.383328], [24.260706, 6.752611000000115], [23.44332700000018, 6.298325], [23.39305000000013, 6.209439], [23.316105000000107, 6.209436000000153], [23.271935000000155, 6.082221000000118], [22.873883, 6.187218], [22.821658000000127, 6.271110000000135], [22.680824, 6.274443], [22.54471000000018, 6.246098], [22.467213000000186, 6.081939], [22.386107000000152, 6.037774000000127], [22.240553000000148, 6.063608], [22.148050000000183, 6.012495], [22.071108, 5.873328000000186], [22.047492, 5.72833], [22.082223000000113, 5.637491], [22.031387000000166, 5.636665000000107], [22.034998, 5.592773], [21.900673, 5.48455], [21.890555, 5.209436000000153], [21.79304400000018, 5.090755000000172], [21.831385000000125, 4.996941000000106], [21.77582800000016, 4.917217], [21.743332000000123, 4.687771], [21.914164, 4.640277], [21.955276, 4.565274000000102], [21.945807141000103, 4.522551305000093], [22.07555100000019, 4.543054000000154], [22.145552, 4.522215], [22.063886, 4.358327], [22.074442, 4.29138], [22.037116535000052, 4.222382406000065], [22.277381809000133, 4.118407916000081], [22.486745182000163, 4.156289298000161], [22.547143711000047, 4.220119560000057], [22.570479506000027, 4.339543923000178], [22.62126917700016, 4.370429534000095], [22.58214740300008, 4.406119574000115], [22.59901836800003, 4.475361431000181], [22.694021950000092, 4.477499653]]]}}]}