{"type": "FeatureCollection", "features": [{"type": "Feature", "properties": {"entity_id": "cf-p-bamingui-bangoran-v1", "name_fr": "Bamingui-Bangoran"}, "geometry": {"type": "Polygon", "coordinates": [[[20.888886000000184, 7.283880000000124], [21.080272, 7.513332], [21.055271000000175, 7.594996], [21.130826, 7.703324], [21.10166, 7.847497], [21.12943600000017, 7.902499], [21.121941000000163, 7.999714000000154], [21.452774, 8.000547000000154], [21.384438000000102, 8.162495], [21.46527600000013, 8.208327000000168], [21.479992, 8.252492], [21.597771, 8.2330520000001], [21.618886, 8.281381000000124], [21.72515200000015, 8.329879], [21.770832000000155, 8.333047], [21.87666300000012, 8.195277], [21.989715000000103, 8.218328], [21.958329000000106, 8.289713], [22.001665000000173, 8.405828], [21.956108, 8.52415800000017], [22.002218, 8.604719], [22.075277, 8.623329], [22.149439, 8.585828000000163], [22.353604, 8.565276], [22.391106, 8.591657], [22.379720000000134, 8.66694200000012], [22.210833, 8.701937], [22.122498, 8.763606], [22.089436, 8.969994], [21.849996, 9.181943000000103], [21.77722, 9.404996], [21.706388000000118, 9.496103], [21.615555000000143, 9.596386000000109], [21.521935000000155, 9.6013880000001], [21.497217, 9.768883], [21.45138500000013, 9.773049000000185], [21.258882, 9.583332], [21.045272, 9.52638700000017], [21.006389, 9.45944], [20.93583200000012, 9.434439000000168], [20.88888, 9.376380000000154], [20.84489800000017, 9.383714000000168], [20.79824, 9.44340000000011], [20.760810000000163, 9.40113], [20.66277, 9.3953], [20.63786, 9.3178], [20.52864, 9.33707], [20.43423, 9.15388], [20.30336000000011, 9.12154], [20.10146, 9.156550000000152], [19.92714, 9.060800000000143], [19.78003, 9.05862], [19.671990000000164, 9.02076000000011], [19.09167, 9.02045], [18.8683, 8.875700000000109], [18.90972, 8.80694], [18.946600000000103, 8.81276], [19.12145, 8.675360000000126], [19.06584, 8.63738], [19.046334941000055, 8.575067489000048], [19.08694, 8.564444], [19.105551000000162, 8.468606], [19.365553, 8.106382], [19.350832, 8.061381], [19.37916100000018, 8.040548000000115], [19.344162000000154, 8.014715], [19.329715, 7.787218000000166], [19.367775, 7.743609], [19.385554000000127, 7.768052000000125], [19.422771000000125, 7.72943800000013], [19.436382, 7.754715], [19.586667, 7.696386], [19.563886, 7.663325], [19.59472, 7.649992000000168], [19.581106, 7.571661], [19.731109000000117, 7.540553000000102], [19.761659, 7.438052], [19.799165, 7.436105], [19.838881, 7.366383], [19.871937, 7.370549], [19.93749600000018, 7.226943], [20.00499200000013, 7.20721600000013], [20.231382, 7.033049000000176], [20.345551000000114, 7.018055000000174], [20.407776, 7.040831000000139], [20.444999, 7.017773], [20.638328, 7.12722], [20.683051000000148, 7.242217], [20.795830000000137, 7.22555], [20.888886000000184, 7.283880000000124]]]}}]}