{"type": "FeatureCollection", "features": [{"type": "Feature", "properties": {"entity_id": "cf-p-nana-gribizi-v1", "name_fr": "Nana-Gribizi"}, "geometry": {"type": "Polygon", "coordinates": [[[18.65555300000011, 6.966384], [18.727221000000156, 6.816936], [18.757222000000127, 6.814438000000109], [18.745833000000175, 6.752497], [18.874997000000178, 6.672496], [18.77444400000013, 6.586938], [18.75249200000013, 6.514720000000182], [19.014719000000127, 6.553051], [19.084437, 6.464438], [19.16305100000011, 6.433328000000131], [19.507769000000167, 6.505828], [19.816379, 6.47971600000011], [19.871381, 6.445827000000122], [19.86444, 6.623331000000121], [20.101662, 6.873881], [20.153046, 7.008050000000139], [20.156388, 7.096382000000119], [19.93749600000018, 7.226943], [19.871937, 7.370549], [19.838881, 7.366383], [19.799165, 7.436105], [19.761659, 7.438052], [19.731109000000117, 7.540553000000102], [19.581106, 7.571661], [19.59472, 7.649992000000168], [19.563886, 7.663325], [19.586667, 7.696386], [19.436382, 7.754715], [19.422771000000125, 7.72943800000013], [19.385554000000127, 7.768052000000125], [19.367775, 7.743609], [19.329715, 7.787218000000166], [19.344162000000154, 8.014715], [19.37916100000018, 8.040548000000115], [19.350832, 8.061381], [19.365553, 8.106382], [19.105551000000162, 8.468606], [19.074716, 8.569158], [19.076939000000152, 8.413329], [19.016108, 8.27082700000011], [19.06555, 8.21055100000018], [19.05860900000016, 8.064719], [18.975828, 7.853885000000105], [18.979992, 7.773884], [19.021662000000106, 7.759999000000107], [18.720271, 7.60916600000013], [18.846384, 7.251110000000153], [18.709718, 7.122218], [18.745551, 7.077495], [18.65555300000011, 6.966384]]]}}]}