{"type": "FeatureCollection", "features": [{"type": "Feature", "properties": {"entity_id": "cf-p-ouaka-v1", "name_fr": "Ouaka"}, "geometry": {"type": "Polygon", "coordinates": [[[19.937770000000114, 5.125831000000119], [19.856918483000072, 5.059560797000074], [19.898532587000147, 4.997547845000099], [20.009719175000043, 4.975787511000021], [20.24033173800018, 4.800769048], [20.35220628400009, 4.754783805000045], [20.452412934000108, 4.632614055000033], [20.45833288000017, 4.520738959000084], [20.577157647000092, 4.592997488000151], [20.814853, 4.84702], [20.907777, 4.850832000000139], [20.893609, 4.939442], [20.93860800000016, 5.031388000000106], [20.90054600000019, 5.121380000000102], [20.9541660000001, 5.213885], [20.953328, 5.380830000000174], [20.989163000000133, 5.424164], [20.979162, 5.487495], [20.93833100000012, 5.518051000000128], [21.026379, 5.551937], [21.058045, 5.65055400000017], [21.034716000000117, 5.716110000000185], [21.081109, 5.708881000000133], [21.123332000000175, 5.651666000000148], [21.17972, 5.671935000000133], [21.23527200000018, 5.645550000000185], [21.33776900000015, 5.716107], [21.369442000000106, 5.691387], [21.398047, 5.730829], [21.482223, 5.632221000000129], [21.5127710000001, 5.505273000000159], [21.577221, 5.46304600000019], [21.640274, 5.485553], [21.661941000000127, 5.597213], [21.752768000000174, 5.672497000000135], [21.853605, 5.614991], [21.901105, 5.671664000000135], [21.94359100000014, 5.910542], [21.887768, 6.037217], [21.818604, 6.049996000000135], [21.789713, 6.179996000000187], [21.739436000000183, 6.210551], [21.811657, 6.342496], [21.773886, 6.441385], [21.794442, 6.561106], [21.701105000000155, 6.593047000000126], [21.607221, 6.768884], [21.653884000000176, 6.879998000000114], [21.635271, 6.980547], [21.60444200000012, 6.991659], [21.581941, 7.284715000000119], [21.553602000000183, 7.311664], [21.420553, 7.313047], [21.423886, 7.477491], [21.392493000000115, 7.540828000000147], [21.321661000000177, 7.595549000000176], [21.213881, 7.619714000000158], [21.141661, 7.70055], [21.055271000000175, 7.594996], [21.0752710000001, 7.504441], [20.881108, 7.270832], [20.790268, 7.224721], [20.683051000000148, 7.242217], [20.641381, 7.131388000000186], [20.567772, 7.067773000000159], [20.450547, 7.018889], [20.407776, 7.040831000000139], [20.345551000000114, 7.018055000000174], [20.231382, 7.033049000000176], [20.158609, 7.092492000000107], [20.107218, 6.881662000000119], [19.86444, 6.623331000000121], [19.879717, 6.452499], [19.74305, 6.476108000000181], [19.752769000000114, 6.42027], [19.87554900000015, 6.335277000000133], [19.840826, 6.236103000000185], [19.864161, 6.192491000000189], [19.827218000000187, 6.160275], [19.844722, 6.121937000000173], [19.784713000000124, 6.03972], [19.719995000000154, 6.036383000000171], [19.593329, 5.923325], [19.623326000000134, 5.797492], [19.604438000000187, 5.772215000000188], [19.668884, 5.743888], [19.671381, 5.687770000000114], [19.55665800000014, 5.578047], [19.464999, 5.544999000000132], [19.5111050000001, 5.483326], [20.015272, 5.491102], [19.953887000000122, 5.322213], [19.937770000000114, 5.125831000000119]]]}}]}