{"type": "FeatureCollection", "features": [{"type": "Feature", "properties": {"entity_id": "cf-p-mbomou-v1", "name_fr": "Mbomou"}, "geometry": {"type": "Polygon", "coordinates": [[[22.730195631000072, 4.563461606000089], [22.730195631000072, 4.563461607000022], [22.730195632000175, 4.564095028000111], [22.730195632000175, 4.570842833000029], [22.728924304000145, 4.578735823999978], [22.72765294800007, 4.586628812000072], [22.72868245799998, 4.593835456000022], [22.72971198900018, 4.601042097000061], [22.731427839000048, 4.608248742000114], [22.733143724000172, 4.615455382000107], [22.73348689400018, 4.622662025000125], [22.733830071000057, 4.629868667000096], [22.738977625000132, 4.636388982000028], [22.744125274, 4.642909259000135], [22.753734131000044, 4.656636197000068], [22.766774723000083, 4.679971992000105], [22.767804234000096, 4.685805942000172], [22.76883376300009, 4.691639889000157], [22.772218419000183, 4.698911434000024], [22.775603146000037, 4.706182962000014], [22.77908190000005, 4.710922506000145], [22.78256070100008, 4.715662030999965], [22.786678750000192, 4.72115281900011], [22.790796864000185, 4.726643582000065], [22.79560128800017, 4.727329946000054], [22.80040572100006, 4.728016276000176], [22.806239673000107, 4.727673127000116], [22.81207361899999, 4.727329929000121], [22.81780347900019, 4.724955048000027], [22.823533300000065, 4.722580120000146], [22.827102692000153, 4.716739355000129], [22.83067202400008, 4.71089857100003], [22.83678210800008, 4.70262144000003], [22.845018271000015, 4.701248745999976], [22.855313474000184, 4.70742586800003], [22.86286329000012, 4.71360299100013], [22.865608678000058, 4.724584541000183], [22.86664407800015, 4.730519591000075], [22.867679495000118, 4.736454638000055], [22.870886134000102, 4.739661300000023], [22.87409280300011, 4.742867946000104], [22.87843005899998, 4.745737328000189], [22.88276735100004, 4.748606683000048], [22.89031716700015, 4.7506657240001], [22.89718063600003, 4.7554701520001], [22.899212491000014, 4.761681034999981], [22.89306255400004, 4.765765355999974], [22.885512738000102, 4.772628825000083], [22.883453698000096, 4.780864988000189], [22.884826391000047, 4.788414804000126], [22.8851695620001, 4.793219233], [22.885512738000102, 4.798023661000173], [22.889121932000137, 4.803304590000039], [22.89168986100003, 4.811064252000108], [22.89546475200018, 4.814152824000018], [22.89923967700014, 4.817241374000162], [22.906789493000076, 4.820673109000154], [22.915609649000146, 4.819701748000114], [22.919778919000123, 4.817785227000115], [22.923948165000127, 4.815868681000154], [22.932870675000117, 4.816555027000106], [22.940420491000054, 4.81792772100016], [22.947970307000162, 4.820673109000154], [22.953232360000072, 4.827755369000101], [22.958494523000184, 4.834837586000162], [22.963756286000034, 4.839204475999964], [22.96993340900019, 4.839204475999964], [22.974737837000134, 4.834400047000088], [22.980914959000188, 4.828909272000089], [22.983317199, 4.821702635000065], [22.985719388000064, 4.8144959870001], [22.987435270000105, 4.808318867000025], [22.98915112200018, 4.802141742000117], [22.99258287400005, 4.79871001600003], [22.996014591000062, 4.795278273], [22.998416834000125, 4.787042115000133], [23.000819020000108, 4.77880594700008], [23.007685997000124, 4.757897075000074], [23.013859611000044, 4.754783805000045], [23.024841162000143, 4.754097458000047], [23.03239097800008, 4.754097458000047], [23.039254447000133, 4.749979377000102], [23.043715728000052, 4.74586131000018], [23.04817695700018, 4.74174321400011], [23.053324569000097, 4.740370539000139], [23.05847216000012, 4.738997826000173], [23.06382685300008, 4.732684420000055], [23.069181449999974, 4.726370971], [23.074535949000108, 4.72005748000015], [23.0896717870001, 4.715012201000036], [23.101023665000014, 4.713750881000124], [23.11237554400003, 4.712489561000041], [23.117841211000098, 4.715853124000091], [23.123306930000183, 4.719216644000028], [23.128772702000163, 4.722580120000146], [23.134394493000173, 4.725536129000034], [23.140016332000187, 4.72849209300017], [23.1456382180001, 4.731448010000065], [23.151472130000172, 4.735909290000052], [23.15730611600003, 4.740370520000056], [23.164855931999966, 4.743115908], [23.17014874000006, 4.742307933000063], [23.175441536000108, 4.741499918000045], [23.17907126300014, 4.737846668000145], [23.182700951000072, 4.734193398], [23.189221282000176, 4.730418521000047], [23.19574154300011, 4.726643582000065], [23.198549875000083, 4.719636466000111], [23.201358150000033, 4.71262933800017], [23.20416636900012, 4.705622197000082], [23.20697453200006, 4.698615043000132], [23.213681944000086, 4.694731858000068], [23.220389281, 4.690848609000057], [23.22419458600018, 4.686783005000109], [23.22799984800008, 4.68271737900011], [23.231361734000075, 4.677422361000083], [23.234723569000153, 4.672127326000123], [23.24060970700009, 4.673388695000085], [23.246495866000146, 4.674650015], [23.252382046000093, 4.67591128600003], [23.25837916900008, 4.672450889000118], [23.264376234000054, 4.668990441000176], [23.266684810000072, 4.662888599000155], [23.26899334700005, 4.656786748], [23.271301844, 4.650684889000104], [23.270927598000128, 4.646110727000178], [23.27055335600005, 4.641536565000024], [23.273298744000044, 4.633300402000089], [23.282221254000035, 4.633300402000089], [23.288960322000037, 4.634287731000143], [23.294005615000117, 4.632395769000084], [23.29905088100014, 4.630503771000065], [23.302990333000082, 4.626754496000103], [23.30692974300007, 4.623005198000044], [23.310558250000042, 4.619186575000185], [23.314186719000134, 4.615367933000073], [23.331845196000074, 4.605277375000014], [23.33850170100004, 4.610650954000107], [23.34698103500017, 4.612845294000124], [23.353287641000065, 4.612424910000186], [23.359594240000092, 4.612004470000045], [23.365900832000023, 4.611583974000041], [23.370389484000157, 4.607685744000094], [23.374878087000184, 4.603787485000055], [23.377280315000178, 4.599669408000125], [23.379682515000127, 4.595551322000063], [23.390664066000056, 4.594864975000064], [23.397202245000074, 4.595025925000016], [23.403740427000116, 4.595186816000137], [23.410242846000187, 4.594339578000188], [23.41674524900003, 4.593492281000181], [23.42566775900019, 4.595551322000063], [23.429785840000136, 4.601042097000061], [23.43115853400002, 4.612709994000113], [23.432531228000073, 4.629182320000041], [23.431844886000135, 4.634673096000142], [23.43115853400002, 4.64016387099997], [23.432585308000114, 4.645424382000101], [23.434012104000033, 4.650684889000104], [23.437046558000134, 4.654346897000039], [23.44008104400001, 4.658008891000179], [23.444542277000096, 4.661440640000137], [23.449003554, 4.664872360000061], [23.45307257899998, 4.671005219000051], [23.456528825000134, 4.674459094000099], [23.459985104000054, 4.677912951000167], [23.466391005000105, 4.67814179200019], [23.472796909000067, 4.678370574000098], [23.47920281800009, 4.678599298], [23.48537994900005, 4.677569805000189], [23.491557062000027, 4.676540257000113], [23.502123375000053, 4.678433925000093], [23.508429884, 4.683479262000048], [23.514736483000036, 4.688524542000039], [23.521043173000123, 4.693569764000017], [23.529241730000024, 4.69546179200006], [23.537440331000084, 4.697353723000049], [23.53886400199997, 4.702389796999967], [23.540287693000096, 4.70742586800003], [23.543376237000018, 4.711200782999981], [23.54646481500015, 4.714975684000137], [23.551698083000076, 4.716787225000189], [23.556931379, 4.718598726000039], [23.56019175300014, 4.723211847000073], [23.562250794000022, 4.730075316000182], [23.564996182000186, 4.738311479000117], [23.573918692000177, 4.738311479000117], [23.58078216100006, 4.747233989000108], [23.58421386700013, 4.753067947000034], [23.587645630000168, 4.758901887000093], [23.59450909900005, 4.763019968000037], [23.59473016900006, 4.762941944000147], [23.600343065000118, 4.760960952], [23.6061769960001, 4.758901887000093], [23.613726813000085, 4.756842846000154], [23.619217561000028, 4.760274602999971], [23.62470836300014, 4.763706315000036], [23.63225817900002, 4.765079009000146], [23.63980799900014, 4.764735876999964], [23.647357811000063, 4.764392662000091], [23.65216223500005, 4.765079026000024], [23.65696666800011, 4.765765355999974], [23.6658966170001, 4.765648752000118], [23.670697328000017, 4.7653638970001], [23.675498035000146, 4.765079009000146], [23.679272924000088, 4.768510754000147], [23.683047851000083, 4.771942478000028], [23.68819544000013, 4.773658365000131], [23.693343054000024, 4.775374213000021], [23.699900078999974, 4.779879534000031], [23.706457189000048, 4.784384792000083], [23.712597528000117, 4.78571347899998], [23.71873789000017, 4.787042110000073], [23.72584139899999, 4.786974808000025], [23.732944906000057, 4.786907432000135], [23.73991152000002, 4.785945286000072], [23.746878114000026, 4.784983069000134], [23.753055245000155, 4.783953577000034], [23.759232358000133, 4.782924029000128], [23.78119545900006, 4.786355763000017], [23.78359765700003, 4.791160196000078], [23.785999888000106, 4.795964620000063], [23.790461109000034, 4.801112237000098], [23.794922397, 4.806259824000108], [23.800511888000187, 4.811088829000084], [23.80610145700001, 4.815917788000036], [23.811755133000077, 4.818646854000065], [23.817408855000167, 4.82137587200009], [23.823062621000076, 4.824104843000043], [23.830269260000136, 4.824448055000175], [23.837475906000066, 4.824791190000042], [23.84299452199997, 4.821833434000098], [23.848513090000097, 4.818875634000165], [23.854031611000096, 4.815917788000036], [23.864243436000095, 4.817241374000162], [23.87247959900003, 4.818614068000045], [23.879258008000193, 4.824747027000058], [23.88307541500012, 4.83025989500004], [23.88689288400002, 4.835772740999971], [23.89204049799997, 4.834056893000138], [23.902678874, 4.830968335000023], [23.908169638000118, 4.829595619000145], [23.911944573000085, 4.824791201000153], [23.915719454000055, 4.819986762000099], [23.922582930000033, 4.819300450000128], [23.929446392000045, 4.818614068000045], [23.936449823000146, 4.81636345700008], [23.94345320700012, 4.814112772999977], [23.950456546000055, 4.811862017000124], [23.95745983800009, 4.809611189000066], [23.961018350000188, 4.819986762000099], [23.959988843000133, 4.828566100000103], [23.958959310000125, 4.837145435000082], [23.95484126600013, 4.84332257], [23.95072314700019, 4.849499679000132], [23.95415488100008, 4.855676801000186], [23.95415488100008, 4.860481230000062], [23.95415488100008, 4.865285658], [23.957068658000026, 4.870242746000031], [23.959982478000086, 4.875199821000081], [23.96461848900003, 4.876076705000173], [23.969254513000124, 4.87695355600016], [23.974402125000097, 4.875580882000122], [23.979549717, 4.874208168000052], [23.986413224000103, 4.870433295000055], [23.99327665500016, 4.866658352000115], [24.01661244999997, 4.863912964000122], [24.04475267400005, 4.86597200500006], [24.049557102, 4.872835474000112], [24.050586613, 4.879012597999974], [24.051616143000103, 4.885189719000152], [24.05642054900011, 4.888278297000056], [24.061224999000046, 4.891366840999979], [24.067173282000113, 4.894569847000128], [24.07312162200003, 4.897772799000109], [24.079070019000085, 4.900975698000025], [24.08456077500017, 4.903377935000094], [24.090051570000185, 4.905780125999968], [24.094512804000146, 4.90886870200012], [24.098974080000175, 4.911957248000022], [24.106523896000112, 4.916761677000068], [24.114760059000048, 4.917448024000123], [24.119221337000056, 4.914016304000029], [24.12368256900004, 4.910584554000138], [24.12760230200007, 4.905505398000173], [24.131521976000045, 4.900426218], [24.13946854800014, 4.894798575000095], [24.14976375100008, 4.892739535000032], [24.15662722000019, 4.896857615999977], [24.16110240800009, 4.898011272000076], [24.165577612000163, 4.899164898000095], [24.168415490000143, 4.906417507000072], [24.171253428000114, 4.913670103000072], [24.17409142800011, 4.920922685000107], [24.176929490000077, 4.928175254000053], [24.18343135900011, 4.932378173000075], [24.189933309000025, 4.936581028000091], [24.196435341000097, 4.940783819000103], [24.205357851000088, 4.940783819000103], [24.210162279000087, 4.94833363500004], [24.214966708000134, 4.953824410000038], [24.22045746900011, 4.955540300000109], [24.22594825800013, 4.957256144000155], [24.23075269100019, 4.956569815000137], [24.240361548000067, 4.955197121000026], [24.245165972000052, 4.954510757000094], [24.243450089000078, 4.948333637000076], [24.24173423700006, 4.942156512000111], [24.24585231900005, 4.936665737000112], [24.252608681000083, 4.93195921400013], [24.27026715900007, 4.937004493000074], [24.27783507800018, 4.952140331000066], [24.27447162200008, 4.958446949000177], [24.271108103000017, 4.964753547999976], [24.267744519000075, 4.971060129000023], [24.270687543000065, 4.977366742000186], [24.2736306220001, 4.983673341000042], [24.276573758000097, 4.989979926000046], [24.283300728000142, 4.993343515000049], [24.29002776700014, 4.996707034999986], [24.296754875000033, 5.000070485000094], [24.303061458, 5.00091142600013], [24.309368058000132, 5.001752306000071], [24.315674673000103, 5.002593125000146], [24.321981208000125, 5.005956706000177], [24.32828780700015, 5.009320225000181], [24.33459447100006, 5.012683684000024], [24.340480660000082, 5.011001977000092], [24.34636681900014, 5.009320217000038], [24.35225294800017, 5.007638404000033], [24.368650106000075, 5.010161044000029], [24.371424624000156, 5.015966905000028], [24.37419919200005, 5.021772754000153], [24.379003607000072, 5.023488639000107], [24.383808048000162, 5.025204489000146], [24.398921783, 5.031603481000047], [24.40096672100009, 5.04030412100019], [24.396399143, 5.045477999000184], [24.390092586000037, 5.049892649000014], [24.383785944000067, 5.054307237999978], [24.37761986600009, 5.053482831000053], [24.371453804000055, 5.05265836500007], [24.3648661470001, 5.046739319000096], [24.34846898900014, 5.046739319000096], [24.34090107000003, 5.058091198000056], [24.34279365900005, 5.062581427000055], [24.344686274000082, 5.067071650000059], [24.35036157500008, 5.068888048000076], [24.35603690800008, 5.07070439600011], [24.362531294000064, 5.071876079000162], [24.363903988000118, 5.081484935999981], [24.36375440900008, 5.089969186000133], [24.363604827000188, 5.098453433000032], [24.36738872800015, 5.103498735000016], [24.371172687000183, 5.108544015000064], [24.374956705999978, 5.113589271000023], [24.380881343, 5.112496737000072], [24.386805961000107, 5.111404149000066], [24.392730558000153, 5.110311506000187], [24.39856452900011, 5.1079093190001], [24.40439845600008, 5.105507078000016], [24.410918810000112, 5.099673163000034], [24.417439047000016, 5.093839180000089], [24.418901647999974, 5.087317070000097], [24.42036422000001, 5.080794954999988], [24.429193459000032, 5.069443076000027], [24.44180665700003, 5.055568558000061], [24.453158536000046, 5.060613837000176], [24.45441985600013, 5.07701099500008], [24.448743961000105, 5.082056300000033], [24.44306797700017, 5.087101554000185], [24.44306797700017, 5.092777494000131], [24.44306797700017, 5.098453433000032], [24.450500725000154, 5.100264431000141], [24.45793351499998, 5.102075343000024], [24.466169678000142, 5.104820731000189], [24.474600973000065, 5.102237392], [24.48153830300015, 5.100030195000102], [24.483957767000106, 5.099260381000022], [24.485684, 5.099406], [24.49332600000014, 5.112491], [24.496387, 5.116658], [24.49805, 5.121380000000102], [24.502217, 5.123879000000102], [24.508054000000186, 5.124996000000124], [24.513609, 5.123325], [24.516937, 5.120276], [24.520549000000187, 5.11666200000019], [24.524712, 5.11416300000019], [24.528049, 5.110552], [24.531381, 5.1072190000001], [24.536935, 5.106109000000117], [24.542777, 5.106387], [24.546385, 5.110268000000133], [24.550551, 5.112775], [24.55443700000012, 5.115546], [24.557771, 5.118886000000145], [24.559719000000143, 5.123603000000173], [24.560549, 5.129721000000131], [24.557497000000126, 5.133880000000147], [24.553602000000126, 5.136384], [24.547774000000175, 5.13583], [24.542213000000118, 5.13416500000011], [24.537219000000107, 5.136382], [24.53527000000014, 5.141105], [24.53444500000012, 5.147221000000172], [24.53249600000015, 5.151944000000128], [24.53444, 5.156385], [24.539992, 5.158050000000173], [24.54416500000019, 5.159164000000146], [24.545829, 5.163886], [24.543329, 5.168047], [24.53860600000013, 5.169992], [24.53527000000014, 5.173603], [24.536934000000144, 5.178325000000143], [24.539159, 5.183048], [24.54110900000012, 5.187774], [24.543325000000152, 5.192496], [24.547217000000103, 5.194998000000169], [24.553327, 5.194164], [24.557214, 5.191660000000184], [24.56083, 5.188330000000178], [24.563333, 5.184437000000116], [24.564993, 5.17888], [24.568889000000183, 5.176384], [24.573051000000135, 5.179158000000143], [24.573607, 5.185270000000116], [24.57222300000018, 5.190270000000112], [24.571662000000117, 5.196658000000184], [24.57055400000013, 5.202769000000103], [24.57222300000018, 5.207776000000138], [24.574721000000125, 5.212217], [24.578331, 5.215552000000116], [24.582499, 5.218048], [24.584992000000113, 5.222221000000161], [24.587218, 5.226942000000179], [24.586942000000192, 5.233888], [24.584439, 5.237772], [24.584716000000185, 5.242496000000131], [24.586943, 5.247217000000148], [24.591387, 5.249165], [24.596387, 5.251380000000154], [24.599437, 5.254714000000149], [24.602492000000154, 5.258887], [24.603049, 5.264998000000162], [24.603050000000167, 5.271386], [24.606942000000117, 5.274439], [24.611109000000113, 5.271662000000163], [24.614439000000118, 5.268327000000113], [24.618053, 5.264996000000167], [24.621388, 5.261385000000189], [24.626104, 5.260829], [24.630824000000132, 5.262772], [24.63499600000017, 5.265553], [24.641385000000128, 5.265551], [24.646938, 5.264438], [24.65304700000013, 5.263602000000105], [24.65944, 5.264439], [24.664435, 5.265823], [24.670833, 5.265268000000106], [24.67694200000011, 5.264441], [24.682218, 5.263324], [24.68721900000014, 5.261104], [24.691940000000102, 5.259157], [24.69555200000019, 5.259163], [24.701112000000137, 5.260824000000127], [24.706111, 5.262493], [24.709998000000155, 5.265268000000106], [24.71472100000011, 5.267495000000167], [24.718047000000183, 5.270832], [24.721382, 5.274159000000168], [24.723886000000107, 5.278329], [24.726104000000134, 5.283048], [24.728603000000135, 5.286941000000127], [24.732223, 5.290273000000127], [24.737774000000115, 5.291941000000122], [24.742217, 5.2938860000001], [24.74722, 5.295831], [24.752495, 5.297495], [24.75777100000016, 5.295824], [24.762499, 5.293885], [24.766663000000108, 5.291108000000122], [24.769995000000108, 5.28805], [24.774158000000114, 5.285272], [24.779438, 5.283887], [24.783885, 5.286660000000154], [24.78637900000018, 5.290829000000144], [24.78638700000016, 5.297499], [24.78555000000017, 5.303602], [24.786942, 5.308886], [24.790273000000127, 5.312497], [24.796384, 5.31305], [24.802499000000125, 5.313879], [24.807773, 5.314999000000114], [24.812777000000153, 5.316942000000154], [24.816659000000186, 5.319991000000186], [24.819439, 5.32416400000011], [24.821938, 5.328047], [24.824994, 5.332776], [24.827498000000162, 5.336935], [24.829717, 5.34166], [24.832217000000128, 5.345552000000168], [24.836389, 5.348328], [24.841387, 5.347213000000124], [24.844993000000102, 5.343606], [24.849715, 5.336941], [24.854438000000187, 5.334716000000128], [24.860828, 5.335549000000128], [24.864163000000133, 5.332214], [24.867497000000128, 5.32888], [24.870548000000156, 5.332218], [24.873603000000173, 5.336385000000178], [24.874716, 5.341938], [24.875553, 5.348049000000174], [24.876661, 5.353326], [24.878325, 5.358879], [24.879438000000107, 5.363880000000165], [24.87916, 5.370829000000128], [24.876666000000114, 5.374997000000178], [24.873884000000146, 5.378885], [24.87166600000012, 5.383601000000112], [24.870275000000106, 5.388884], [24.87082900000013, 5.394999], [24.874997, 5.397498], [24.87916300000012, 5.394996], [24.881104000000107, 5.390275], [24.884163000000115, 5.386383], [24.888048, 5.383609], [24.891945, 5.38638], [24.891386000000182, 5.392495], [24.890552, 5.398606000000143], [24.88999900000016, 5.404436], [24.89333100000016, 5.408054000000106], [24.897494000000165, 5.410829], [24.902769, 5.411936000000139], [24.908328, 5.413609000000179], [24.913887000000102, 5.414721000000156], [24.914992, 5.420274], [24.913051, 5.424994], [24.909442, 5.428325], [24.90749200000016, 5.433046000000104], [24.906939, 5.438885], [24.911387, 5.441102000000171], [24.916104, 5.439161000000126], [24.92083, 5.437219], [24.925552, 5.434993], [24.929717, 5.43249], [24.933886, 5.42972], [24.93999600000018, 5.429164], [24.942492, 5.433329], [24.946105, 5.436665], [24.949157000000184, 5.439992000000132], [24.95472, 5.441388000000188], [24.960278000000187, 5.441384], [24.96555300000017, 5.443604], [24.970271, 5.445548000000144], [24.973608000000183, 5.448879], [24.97444300000012, 5.453606], [24.972775000000183, 5.45916], [24.967778, 5.460268], [24.962777000000187, 5.462215000000185], [24.95916, 5.465546], [24.95721600000013, 5.470552], [24.958331, 5.47555100000011], [24.961389, 5.479715], [24.965548000000126, 5.482773000000122], [24.969996, 5.484436], [24.976106, 5.485545000000172], [24.98166300000014, 5.483883000000105], [24.986106, 5.484717], [24.990270000000123, 5.487498], [24.993047, 5.491381], [24.994439000000114, 5.496936000000119], [25.001109, 5.502215], [25.005552, 5.504162], [25.011102, 5.505824], [25.013605, 5.50972], [25.016663, 5.513883], [25.019719000000123, 5.519997], [25.020551, 5.526104000000146], [25.019717000000128, 5.531937], [25.01972, 5.538887000000159], [25.02110800000014, 5.544166000000132], [25.023606, 5.548329000000138], [25.027775, 5.550832000000128], [25.032491000000164, 5.553050000000155], [25.037219, 5.554992], [25.041108, 5.557776], [25.045277, 5.560271], [25.047776, 5.564442], [25.044436000000132, 5.56777], [25.0397210000001, 5.569713], [25.033887, 5.569163000000174], [25.026941000000136, 5.56915800000013], [25.021665, 5.570549], [25.018054, 5.573606], [25.019717000000128, 5.577774000000147], [25.023606, 5.580549], [25.028331, 5.582776000000138], [25.033051000000114, 5.584717000000126], [25.038601000000142, 5.585824], [25.04305, 5.588046], [25.045275, 5.592775], [25.040551, 5.594718], [25.034995, 5.596383000000117], [25.030832, 5.598887], [25.028885, 5.603608000000179], [25.0275, 5.608880000000113], [25.026938, 5.614994], [25.026666, 5.621387], [25.027217, 5.62749], [25.030832, 5.630831], [25.03526900000014, 5.633329000000117], [25.04027400000018, 5.635274], [25.041658, 5.639161], [25.03944100000018, 5.644163], [25.03610600000013, 5.647215000000131], [25.034165, 5.652221], [25.032491000000164, 5.657213], [25.03138700000011, 5.662775], [25.031663, 5.668882000000167], [25.033884000000114, 5.673325], [25.03638500000011, 5.67749600000019], [25.039442, 5.681942000000163], [25.04110700000018, 5.68611], [25.042494, 5.691663000000176], [25.041106000000127, 5.697221000000127], [25.039165, 5.701657000000182], [25.039163, 5.708607], [25.039439000000186, 5.714714000000129], [25.041106000000127, 5.719995], [25.043608000000177, 5.724166], [25.046386000000155, 5.728331], [25.048883, 5.732216000000165], [25.05054600000011, 5.737773], [25.049716, 5.743606], [25.046386000000155, 5.746935000000178], [25.041386, 5.748886], [25.036104000000137, 5.750548000000151], [25.03277000000014, 5.754163000000119], [25.033883, 5.759712], [25.03749100000016, 5.763052000000187], [25.041938000000187, 5.76499500000017], [25.048048, 5.764441], [25.053610000000162, 5.765553000000182], [25.0569440000001, 5.769441000000143], [25.059717, 5.77332900000016], [25.06416400000012, 5.775272000000143], [25.070554000000186, 5.774998], [25.07666300000011, 5.773881000000188], [25.0825, 5.774997000000155], [25.087502, 5.776663000000156], [25.092495000000156, 5.778328], [25.096663, 5.781104], [25.099445, 5.784992], [25.101389, 5.789714000000117], [25.103332000000137, 5.794436], [25.105552000000102, 5.799162], [25.108055, 5.803331], [25.111664, 5.80666], [25.117500000000177, 5.807214], [25.122223000000133, 5.805275000000165], [25.126389, 5.802492], [25.128603000000112, 5.798051], [25.13055, 5.793054], [25.132497, 5.788601], [25.13499300000018, 5.78444], [25.13665900000018, 5.779164000000151], [25.137216, 5.773052000000121], [25.140276000000142, 5.769158000000175], [25.144715, 5.769719], [25.146104, 5.77527], [25.147498, 5.780554], [25.147493, 5.787216], [25.14804800000013, 5.793326], [25.149992, 5.798047], [25.152771000000143, 5.802219], [25.155269, 5.80610200000018], [25.153884, 5.815551], [25.152219000000116, 5.82721400000014], [25.153333, 5.834720000000175], [25.154159, 5.839996], [25.156938, 5.851934], [25.16055000000017, 5.86999400000019], [25.172219, 5.885554000000127], [25.18361, 5.897492], [25.184935, 5.899427000000117], [25.18971500000015, 5.906383000000119], [25.189722000000188, 5.916385000000105], [25.18332400000014, 5.92388700000015], [25.17249500000014, 5.938054], [25.154443, 5.966661], [25.146944, 5.969990000000166], [25.134444, 5.964718], [25.127221000000134, 5.961387000000116], [25.11805, 5.958608], [25.109161000000142, 5.956110000000137], [25.097773, 5.958049000000187], [25.091108000000133, 5.965273000000138], [25.088330000000155, 5.975276], [25.08694, 5.985271000000125], [25.08499600000016, 5.99222], [25.083052, 5.997771000000171], [25.07472, 6.005268000000171], [25.06888700000013, 6.008887000000129], [25.061388000000136, 6.01333], [25.053886, 6.018602000000158], [25.048605, 6.026104], [25.049158, 6.029997], [25.050549, 6.034435], [25.05221900000015, 6.03999], [25.053608000000168, 6.045275000000117], [25.052498000000128, 6.053047000000163], [25.046108, 6.059716], [25.0388880000001, 6.062498000000176], [25.031666, 6.062775], [25.025555, 6.061108000000104], [25.013333, 6.057219], [25.005555, 6.059717], [25.001664000000176, 6.071659000000182], [24.99388, 6.087213000000133], [24.98249600000014, 6.099716000000114], [24.97, 6.111384000000101], [24.933052, 6.142497000000105], [24.90082500000011, 6.171662], [24.866379, 6.195274], [24.848607000000186, 6.208054000000175], [24.844717, 6.217221000000166], [24.84638600000011, 6.223047000000122], [24.85, 6.22527], [24.85471600000011, 6.228329000000144], [24.861937000000182, 6.225268], [24.8736090000001, 6.219717000000117], [24.888325, 6.213608], [24.908332, 6.208051000000125], [24.92721300000011, 6.204716], [24.942777, 6.207773], [24.947769, 6.215548000000126], [24.961107, 6.228049], [24.971387, 6.231944000000112], [24.980828000000145, 6.232494000000145], [24.993327000000136, 6.235552], [25.000547000000154, 6.240547000000163], [25.00222, 6.248883], [25.00416500000017, 6.272221], [25.012222000000122, 6.289157000000159], [25.019165000000157, 6.292213], [25.026109, 6.29305], [25.055827, 6.289995], [25.06833300000011, 6.2938860000001], [25.073604000000103, 6.298880000000111], [25.075548, 6.316385], [25.075277, 6.340269], [25.07166500000011, 6.349998000000141], [25.065272000000164, 6.359996000000137], [25.063328, 6.366663000000187], [25.0588800000001, 6.370546000000104], [25.04360600000018, 6.377771000000166], [25.031939000000136, 6.386385], [25.010277000000144, 6.405829], [24.988882, 6.427220000000148], [24.97527600000012, 6.437497000000121], [24.96305100000012, 6.443327], [24.948332000000107, 6.446941], [24.935269, 6.449160000000177], [24.924441000000115, 6.45860800000014], [24.92194400000011, 6.461661000000163], [24.910831, 6.476107000000127], [24.901385, 6.486108000000172], [24.891944, 6.493604], [24.879161000000124, 6.496664000000123], [24.86388200000016, 6.496109], [24.849994, 6.494715], [24.835829, 6.490553], [24.823056000000122, 6.488325], [24.811938, 6.489157], [24.799719, 6.491108000000168], [24.781108000000188, 6.485827], [24.74333300000012, 6.443885], [24.700556000000176, 6.396381], [24.69222000000019, 6.393605], [24.681938000000173, 6.394443], [24.665556, 6.399437000000148], [24.649999, 6.401936000000148], [24.634161000000177, 6.403325000000109], [24.619444000000158, 6.397492000000113], [24.609997000000135, 6.390274000000147], [24.603610000000117, 6.383051], [24.59694400000012, 6.383328], [24.459716000000128, 6.526941], [24.348605000000134, 6.660824], [24.279089, 6.733414000000153], [24.260706, 6.752611000000115], [24.096384, 6.667775000000177], [23.99111, 6.608604000000184], [23.886386, 6.550825], [23.771940000000143, 6.486381], [23.662215, 6.423052], [23.56693900000016, 6.374713], [23.564716, 6.372773000000166], [23.561660000000188, 6.369164000000183], [23.557490000000143, 6.36638], [23.553603, 6.363886], [23.54944300000011, 6.361109], [23.546105000000125, 6.35777400000012], [23.541941, 6.35527500000012], [23.537499, 6.353326000000152], [23.532494000000156, 6.350824000000102], [23.527776, 6.348880000000179], [23.523889000000167, 6.346385000000168], [23.519720000000177, 6.343608], [23.51499200000012, 6.341664000000151], [23.510278, 6.339442000000133], [23.50555000000014, 6.337498], [23.50138100000015, 6.334721000000172], [23.497494, 6.332217], [23.494166, 6.32888], [23.490551, 6.325547000000142], [23.4880500000001, 6.321382000000142], [23.484444000000167, 6.318050000000142], [23.48054900000011, 6.315554], [23.47583, 6.313054000000136], [23.47194300000018, 6.310549000000151], [23.46693800000014, 6.308608000000163], [23.462497, 6.306658], [23.458328, 6.303880000000106], [23.453051, 6.302212000000111], [23.448323, 6.300276000000167], [23.44332700000018, 6.298325], [23.440276, 6.294992], [23.438053, 6.290275], [23.436107, 6.285554000000104], [23.432493000000136, 6.282221], [23.429443, 6.278887], [23.425829000000135, 6.275553], [23.42332800000014, 6.271387000000118], [23.420546000000172, 6.267493000000172], [23.418046000000118, 6.263327], [23.415832, 6.258609000000149], [23.41471900000016, 6.253328000000181], [23.413887, 6.247219], [23.414164, 6.240546], [23.413887, 6.233882], [23.412774000000184, 6.228610000000117], [23.410552000000166, 6.223884], [23.406939, 6.220549000000176], [23.40388, 6.217214000000126], [23.39722200000017, 6.212496], [23.39305000000013, 6.209439], [23.386941, 6.208883], [23.380273, 6.209159000000113], [23.373328, 6.208885], [23.36805, 6.207770000000153], [23.362496000000192, 6.206103], [23.356664, 6.205551], [23.350550000000112, 6.205828], [23.345827000000156, 6.208051000000125], [23.343048, 6.212214000000131], [23.33972, 6.215552000000116], [23.33500000000015, 6.217498], [23.328609, 6.216660000000104], [23.323608, 6.215548000000126], [23.319441, 6.212776], [23.316105000000107, 6.209436000000153], [23.313883000000146, 6.20471700000013], [23.314162000000124, 6.199161000000117], [23.31471400000015, 6.193333], [23.313325000000134, 6.188054], [23.311381, 6.183331], [23.3072140000001, 6.180549], [23.30138600000015, 6.179719], [23.295827, 6.178329], [23.292491, 6.174996], [23.29110300000019, 6.169718000000103], [23.291664, 6.16388], [23.293331, 6.158329000000151], [23.295829, 6.15444], [23.297772, 6.14944], [23.296106, 6.144721], [23.293326, 6.14082500000012], [23.291943, 6.135277], [23.291941, 6.129439], [23.292499, 6.123324], [23.294166000000132, 6.117773], [23.295274000000177, 6.112491], [23.295546000000115, 6.105826], [23.292772, 6.10166], [23.288323, 6.09916], [23.284721000000104, 6.096386000000109], [23.27971700000012, 6.09444], [23.277220000000113, 6.090270000000146], [23.272035, 6.082354000000123], [23.271935000000155, 6.082221000000118], [23.153325000000166, 6.11138300000016], [23.018601, 6.146387], [22.873883, 6.187218], [22.861662, 6.21083], [22.85444, 6.228605], [22.850272000000132, 6.239719], [22.84499300000016, 6.250277], [22.838609, 6.259991000000127], [22.830832000000157, 6.266382], [22.821658000000127, 6.271110000000135], [22.812491, 6.273883], [22.802220000000148, 6.274162], [22.794164, 6.272777], [22.786386000000107, 6.270831000000157], [22.779437000000144, 6.268604], [22.768328, 6.264996000000167], [22.761101, 6.262772], [22.749718, 6.259992000000182], [22.734993, 6.260273], [22.721383000000174, 6.263882], [22.710275, 6.268888000000118], [22.693885000000137, 6.273605000000146], [22.680824, 6.274443], [22.664996000000144, 6.269996000000162], [22.64971700000018, 6.264436], [22.630273, 6.259717], [22.604444, 6.257771000000105], [22.579718, 6.254166], [22.559164000000123, 6.250831000000176], [22.54471000000018, 6.246098], [22.537497, 6.234442], [22.525828, 6.216938], [22.514995, 6.195824], [22.50777200000016, 6.181386], [22.503054, 6.160830000000146], [22.500833000000114, 6.146938], [22.495549, 6.12555500000019], [22.489438, 6.116661], [22.481665, 6.107494], [22.473609, 6.09083], [22.467213000000186, 6.081939], [22.439998000000116, 6.069164000000171], [22.39055, 6.044165000000135], [22.386107000000152, 6.037774000000127], [22.37999500000018, 6.035829000000149], [22.371107, 6.03805], [22.36110200000013, 6.042494], [22.346388, 6.046104000000128], [22.336383000000183, 6.045271000000128], [22.321387, 6.041382], [22.309717, 6.039440000000127], [22.295827, 6.035831000000144], [22.288887, 6.036382], [22.280829000000153, 6.042495000000145], [22.27610600000014, 6.050555], [22.272491000000173, 6.061105], [22.26888200000019, 6.064717], [22.259992, 6.064998], [22.251383, 6.064163], [22.240553000000148, 6.063608], [22.234441000000174, 6.054436000000123], [22.22944100000018, 6.043884000000162], [22.216942000000188, 6.037777], [22.20082500000018, 6.036107], [22.178879000000165, 6.030276], [22.16166100000015, 6.021939], [22.148050000000183, 6.012495], [22.134991, 6.000555000000134], [22.118063594000148, 5.984771594], [22.10638900000015, 5.973886000000107], [22.110549000000105, 5.971103], [22.113887, 5.967773], [22.118047, 5.964999], [22.120826, 5.960824000000116], [22.122777, 5.956381], [22.12332600000019, 5.950269], [22.122777, 5.943883000000142], [22.12055000000015, 5.939441000000102], [22.117774000000168, 5.935554], [22.111107, 5.928888], [22.10804800000011, 5.925273], [22.104994, 5.92138], [22.100827, 5.91804900000011], [22.09693600000014, 5.915271], [22.09361100000018, 5.911937000000137], [22.08999100000017, 5.908608000000186], [22.086936, 5.905271000000141], [22.083325000000173, 5.901941000000136], [22.080824000000177, 5.897771], [22.0786030000001, 5.893049000000133], [22.078935, 5.886873628999979], [22.078935, 5.885487000000126], [22.078912375000016, 5.885091825000188], [22.07883, 5.883653], [22.078456438000046, 5.880768537000051], [22.07647781700001, 5.87940052700003], [22.073278005000134, 5.87718819100013], [22.07323, 5.87715500000013], [22.071108, 5.873328000000186], [22.071385, 5.866941], [22.071109, 5.859994], [22.07221900000019, 5.854162000000144], [22.072778, 5.848049], [22.07332900000017, 5.841936], [22.072771, 5.836107], [22.071383, 5.830548000000135], [22.069718, 5.824993], [22.072991000000115, 5.819788000000131], [22.07443378400012, 5.814539649000153], [22.074917053000036, 5.811184482000101], [22.074937, 5.811046], [22.070883, 5.804612], [22.068608, 5.800826], [22.068605000000105, 5.794164], [22.06943600000011, 5.787491], [22.069993, 5.781109000000129], [22.070551, 5.775553000000116], [22.071943, 5.769995000000165], [22.071937000000105, 5.763046], [22.071943, 5.757775], [22.069439, 5.753882000000146], [22.065830000000176, 5.750551], [22.061663, 5.747774000000106], [22.05861, 5.744436000000178], [22.054437, 5.741938], [22.050825, 5.738328000000138], [22.049162, 5.733607000000177], [22.047492, 5.72833], [22.04805, 5.721939], [22.049162, 5.716106], [22.050277000000108, 5.710552], [22.05166400000013, 5.705273], [22.05360500000012, 5.700553000000127], [22.05610800000011, 5.696383], [22.059716, 5.693052], [22.066661, 5.686384], [22.069437, 5.68249800000018], [22.072775, 5.67916200000019], [22.075547, 5.674997000000189], [22.077497, 5.670277000000112], [22.078606, 5.664993], [22.079999000000157, 5.659436], [22.081664, 5.654163000000153], [22.082217000000185, 5.64805100000018], [22.08277, 5.641938], [22.082223000000113, 5.637491], [22.078884, 5.634165], [22.073889000000122, 5.631658], [22.068605000000105, 5.631938000000162], [22.063325, 5.633331000000112], [22.057773, 5.634441], [22.052215, 5.635828000000117], [22.047492, 5.638050000000135], [22.041939000000184, 5.639159], [22.035552000000166, 5.639443], [22.031387000000166, 5.636665000000107], [22.028048000000126, 5.633329000000117], [22.026109, 5.628602000000171], [22.023047, 5.624437000000171], [22.021935, 5.619161], [22.024717, 5.61499700000013], [22.029995, 5.616388000000143], [22.03471800000011, 5.61860200000018], [22.040829, 5.617774], [22.044437, 5.614435000000185], [22.045547000000113, 5.609159], [22.043327, 5.604158], [22.0408240000001, 5.600273000000129], [22.037495, 5.596937000000139], [22.034998, 5.592773], [22.030825, 5.589995], [22.027218, 5.58666200000016], [22.023325000000114, 5.584158], [22.019996, 5.58083100000016], [22.01638, 5.577498], [22.012493, 5.574715], [22.009164000000112, 5.571388], [22.00472200000013, 5.568603], [22.003628, 5.565126000000134], [22.00283, 5.563939000000119], [22.00561058000011, 5.561692074], [22.006492, 5.561084000000164], [22.006413071000168, 5.561043599000129], [22.006217011000103, 5.560943242000064], [22.000299, 5.557914], [21.996890168000164, 5.556444062000139], [21.996049, 5.556027], [21.995926667000106, 5.556028586000025], [21.985944, 5.556158], [21.985237697000116, 5.555933], [21.98476009200016, 5.555780854000147], [21.982221, 5.554972], [21.973330000000146, 5.553054], [21.969717000000173, 5.549998], [21.96583100000015, 5.547215000000165], [21.963048, 5.543054000000154], [21.959441, 5.539720000000159], [21.95694, 5.535825000000102], [21.9549990000001, 5.530827000000102], [21.952775, 5.526102000000151], [21.950828000000115, 5.521383000000128], [21.948049, 5.517491000000177], [21.945554000000186, 5.513326000000177], [21.942216, 5.509997], [21.93805200000014, 5.507216], [21.934715, 5.503887], [21.930554, 5.501385], [21.925826, 5.499437000000114], [21.921104000000128, 5.49722], [21.916381000000115, 5.49499400000019], [21.910829, 5.493881000000101], [21.907776000000126, 5.490270000000123], [21.903726, 5.488486000000137], [21.901434111000185, 5.485531242999969], [21.900673, 5.48455], [21.900646854000172, 5.484359901000062], [21.900368000000185, 5.482332424000106], [21.900368000000185, 5.477056107000067], [21.901386, 5.472497], [21.90332800000016, 5.467498000000148], [21.904429256000128, 5.463088215000028], [21.904716, 5.46194], [21.904992000000163, 5.45555], [21.903332, 5.449992000000123], [21.901387000000113, 5.445271000000105], [21.899442000000136, 5.440551], [21.896661, 5.436388], [21.894716, 5.431659], [21.893332000000157, 5.426663], [21.892492, 5.420555], [21.8952680000001, 5.416383], [21.897493000000168, 5.411938000000134], [21.89888200000013, 5.406380000000127], [21.898606, 5.39944], [21.897494, 5.39388300000013], [21.896666, 5.388054000000125], [21.899998, 5.384720000000129], [21.902774000000136, 5.380548], [21.905553, 5.376663000000178], [21.906664, 5.371108000000106], [21.906936, 5.365832000000182], [21.90610800000013, 5.359994000000142], [21.903886000000114, 5.355277000000115], [21.902220000000113, 5.350553], [21.897218000000123, 5.341663], [21.896107, 5.336107], [21.893884000000128, 5.327221000000122], [21.891944, 5.32277], [21.891105, 5.316662], [21.890553, 5.310552], [21.890547, 5.303608000000168], [21.88972, 5.297770000000128], [21.890826, 5.291658000000155], [21.891385000000128, 5.285553], [21.89193900000015, 5.279717000000176], [21.892498, 5.273603], [21.893327, 5.267495000000167], [21.893324000000177, 5.260830000000112], [21.893051000000128, 5.253881000000149], [21.893326000000172, 5.247213000000158], [21.893053000000123, 5.240272000000175], [21.893332000000157, 5.233883000000162], [21.892494, 5.227775000000179], [21.891662000000167, 5.22138], [21.891610000000128, 5.221203000000116], [21.89138, 5.215275000000133], [21.890555, 5.209436000000153], [21.888269, 5.198588], [21.88729195100018, 5.193050255], [21.88717774600002, 5.192402958], [21.88527500000015, 5.187775000000101], [21.883882, 5.182499000000178], [21.88257298300016, 5.17833631000002], [21.880423000000178, 5.172327000000166], [21.87926304900003, 5.169760381000174], [21.87832900000012, 5.167774], [21.876107000000104, 5.162777000000119], [21.87361, 5.158888], [21.870833000000175, 5.154714000000183], [21.868049, 5.150828], [21.864991000000146, 5.147214000000133], [21.861381, 5.143884000000128], [21.858607, 5.139998000000105], [21.855763659000047, 5.13806532600006], [21.854716000000167, 5.137219], [21.851383, 5.133886000000132], [21.84777300000019, 5.130548000000147], [21.843326000000104, 5.12861], [21.839158, 5.125825], [21.834528969000075, 5.124026418000028], [21.834165, 5.123885], [21.833345703000077, 5.123241597], [21.830271000000153, 5.12082700000019], [21.826105, 5.118329], [21.823915941000052, 5.116139284000099], [21.82271955200008, 5.11490683500017], [21.822677000000112, 5.114863000000184], [21.819809000000134, 5.110529], [21.812981, 5.104028], [21.7991320000001, 5.098631], [21.794819000000132, 5.095631], [21.793145894000077, 5.09103490800004], [21.79304400000018, 5.090755000000172], [21.791657000000157, 5.085276000000135], [21.792497, 5.079158], [21.793609, 5.07416], [21.795832, 5.069159000000127], [21.798324, 5.064991], [21.80110500000012, 5.061107], [21.803606000000116, 5.056939000000114], [21.807217, 5.053604], [21.811106000000166, 5.051102000000185], [21.81443600000017, 5.047491], [21.818047, 5.044165000000135], [21.82138300000014, 5.041102], [21.823606, 5.036102], [21.825554000000125, 5.031383], [21.8275, 5.026385], [21.828881, 5.021385], [21.829996000000108, 5.015830000000108], [21.831106000000148, 5.009719], [21.831663, 5.003883], [21.831385000000125, 4.996941000000106], [21.829714, 4.992216], [21.827497000000108, 4.987495000000138], [21.825272, 4.982775], [21.82221600000014, 4.97916], [21.818608, 4.975828], [21.815268000000117, 4.972494], [21.81193700000017, 4.969160000000102], [21.808607000000165, 4.965825], [21.80498900000015, 4.962494000000106], [21.801937, 4.959165000000155], [21.798328, 4.955825], [21.79610300000013, 4.951104], [21.793606000000125, 4.946943], [21.790832, 4.942776], [21.787492000000157, 4.939441000000159], [21.78512200000017, 4.935562000000175], [21.7843238210001, 4.934928771000102], [21.78138200000018, 4.932218], [21.779166000000146, 4.927497], [21.777496415000087, 4.922499228999982], [21.77582800000016, 4.917217], [21.775276000000133, 4.911382], [21.775277, 4.904437], [21.775824, 4.898331], [21.77527, 4.892218000000184], [21.77527, 4.886936000000105], [21.775827000000106, 4.880829000000176], [21.77666100000016, 4.87472], [21.776107, 4.868608000000108], [21.774719, 4.86333], [21.773054000000172, 4.858055], [21.772769, 4.851939], [21.77111, 4.846385000000112], [21.769720000000177, 4.840829], [21.769158, 4.834716], [21.769718000000182, 4.82888800000012], [21.770275, 4.822773], [21.770546000000138, 4.815825000000189], [21.770547000000192, 4.810551], [21.768327, 4.806108000000165], [21.76583200000016, 4.801937], [21.763053, 4.798047], [21.759444, 4.794436], [21.756384, 4.791106], [21.753605000000107, 4.787216], [21.751382, 4.782494000000156], [21.749721000000136, 4.777497], [21.748048, 4.772221000000172], [21.746659, 4.766664000000105], [21.746107, 4.760550000000137], [21.746102000000178, 4.753605000000164], [21.745268, 4.748052], [21.746102000000178, 4.741664000000128], [21.74805300000014, 4.736937000000182], [21.74860500000017, 4.731109], [21.74583300000012, 4.726940000000127], [21.743333, 4.723047], [21.739996000000133, 4.719719], [21.739404, 4.717739000000165], [21.738330000000133, 4.714165], [21.73722000000015, 4.708605], [21.738608, 4.703047], [21.743332000000123, 4.687771], [21.748603000000173, 4.687496000000181], [21.75416, 4.688888], [21.760275, 4.689718], [21.764997000000164, 4.68916], [21.769158, 4.68611], [21.773888, 4.684438000000114], [21.779713, 4.684992000000136], [21.782493, 4.689161000000126], [21.785549000000174, 4.693048], [21.790831, 4.69305], [21.794434, 4.689718], [21.796939, 4.68583000000018], [21.798888, 4.680825000000141], [21.805268000000126, 4.681382], [21.808879000000104, 4.684438000000114], [21.813885, 4.686383], [21.819163000000117, 4.684993], [21.822771, 4.681382], [21.824716, 4.676943000000108], [21.826666000000102, 4.672216000000162], [21.829998000000103, 4.665832], [21.833048, 4.66194], [21.836382, 4.65861], [21.840277, 4.655832], [21.845271, 4.653888000000165], [21.849997000000144, 4.651937], [21.856386000000157, 4.651659000000109], [21.861943, 4.65333], [21.866940000000113, 4.655275000000188], [21.871381, 4.657216000000176], [21.876940000000104, 4.657216000000176], [21.880273, 4.65388600000017], [21.881109, 4.64777], [21.881104, 4.640827], [21.883611000000144, 4.637218], [21.887773, 4.634438], [21.893883, 4.634997000000112], [21.898324000000173, 4.636939], [21.903331, 4.639162000000113], [21.90805, 4.64111], [21.914164, 4.640277], [21.916943, 4.636109000000147], [21.915549, 4.630833], [21.91194200000018, 4.627221000000134], [21.90805300000011, 4.619436000000121], [21.90860300000014, 4.613332], [21.91083, 4.608604], [21.912769, 4.60360900000012], [21.915553, 4.599998000000141], [21.918883, 4.596381000000179], [21.921662, 4.592214000000183], [21.924998, 4.589163000000156], [21.92916, 4.586383000000183], [21.93249, 4.582776], [21.93638600000014, 4.580277], [21.94054700000015, 4.577497000000164], [21.944717, 4.574717], [21.948604000000103, 4.572219], [21.951943, 4.568603], [21.955276, 4.565274000000102], [21.956382000000133, 4.560270000000173], [21.954164000000105, 4.555828000000133], [21.950827, 4.552214000000106], [21.948329000000115, 4.548331000000132], [21.945273, 4.544158], [21.942497, 4.540269000000137], [21.939996, 4.536107000000186], [21.94276900000017, 4.532219], [21.945807141000103, 4.522551305000093], [21.954724, 4.526748000000111], [21.962214000000188, 4.52472], [21.967775, 4.523328000000163], [21.973053000000107, 4.522217], [21.978603000000135, 4.520547], [21.984158, 4.51944200000014], [21.98944200000011, 4.518053000000123], [21.995554, 4.517213], [22.001383, 4.516662000000167], [22.006943, 4.518054], [22.011937, 4.519999], [22.015829, 4.522772000000145], [22.019996, 4.525272], [22.024157, 4.528052], [22.028326, 4.53083], [22.031941000000188, 4.533606], [22.036934000000144, 4.535550000000114], [22.04166, 4.537497], [22.047494, 4.536659], [22.053048, 4.535554000000104], [22.05916, 4.534713000000124], [22.063329, 4.537491000000102], [22.066107, 4.541666], [22.07555100000019, 4.543054000000154], [22.081662, 4.542213], [22.083067045000064, 4.541718484000171], [22.086387, 4.54055000000011], [22.090553000000114, 4.537492], [22.096104, 4.538883], [22.102495, 4.539161], [22.10861, 4.539720000000159], [22.1155490000001, 4.539435], [22.121665, 4.539159], [22.126662000000124, 4.536937000000137], [22.130553, 4.53416], [22.134714, 4.531659], [22.138605, 4.528882000000124], [22.142219000000182, 4.525273000000141], [22.145552, 4.522215], [22.148052000000177, 4.518051000000128], [22.149991, 4.513328000000172], [22.151379000000134, 4.508054], [22.150827000000106, 4.501936000000114], [22.148049000000128, 4.497771000000114], [22.143883000000187, 4.495272000000114], [22.139998000000105, 4.492213000000163], [22.137220000000127, 4.488048000000163], [22.134995, 4.483608000000117], [22.13527, 4.476935], [22.135274, 4.469995], [22.133331, 4.465274], [22.129999, 4.46194], [22.126944, 4.457777], [22.12443800000017, 4.453887000000179], [22.12166000000019, 4.449721000000125], [22.118886000000145, 4.445825000000184], [22.116386, 4.441665], [22.113609000000167, 4.437491], [22.109999, 4.434159], [22.10666600000019, 4.430824], [22.103325000000154, 4.427499000000182], [22.099993000000154, 4.424164], [22.097774, 4.419436], [22.096665, 4.41388], [22.096387, 4.407221000000106], [22.09527000000014, 4.40166500000015], [22.092493, 4.397498000000155], [22.089719, 4.393610000000137], [22.08722, 4.389441], [22.084437, 4.385553000000186], [22.080828000000167, 4.382221000000186], [22.077215, 4.379436000000112], [22.074161000000117, 4.375272], [22.070829000000117, 4.371936], [22.06804700000015, 4.368048], [22.066106000000104, 4.363325], [22.063886, 4.358327], [22.06277200000011, 4.353049], [22.062769, 4.346108000000186], [22.063883, 4.340827], [22.065274, 4.335552], [22.066939000000104, 4.329996], [22.06805, 4.32443700000016], [22.069443, 4.319441000000154], [22.070554, 4.313881], [22.07222, 4.308326000000136], [22.07416200000017, 4.303603000000123], [22.074716, 4.297770000000128], [22.074442, 4.29138], [22.07221900000019, 4.286938], [22.069444, 4.282771], [22.06610400000011, 4.279444000000126], [22.061937000000114, 4.276663], [22.05776800000018, 4.273604], [22.053332000000125, 4.271661000000108], [22.04916, 4.269158000000118], [22.044437, 4.26721700000013], [22.040829, 4.263883000000135], [22.038323000000105, 4.259713], [22.037498, 4.253605], [22.038050000000112, 4.247494000000188], [22.039157, 4.241387], [22.038326, 4.235549], [22.03666600000014, 4.229997], [22.037116535000052, 4.222382406000065], [22.039018224000074, 4.222178654000061], [22.045424117000152, 4.221492254000111], [22.052745172000073, 4.220348411999964], [22.060066206000045, 4.219204499999989], [22.06738721900018, 4.218060520000051], [22.075795024000115, 4.216344789000118], [22.084202792000156, 4.21462896800017], [22.092610523000076, 4.212913055], [22.10101821700016, 4.211197051000113], [22.108512500000188, 4.206334689000187], [22.116006691000052, 4.201472254000123], [22.123500788000058, 4.196609746000149], [22.128230828000085, 4.191564510000148], [22.13296080800012, 4.186519246000103], [22.137690727000063, 4.181473951000044], [22.142420586000185, 4.17642862800011], [22.194134699000017, 4.147418271999982], [22.250894092000067, 4.124714515000051], [22.26947296000003, 4.12029097500016], [22.277381809000133, 4.118407916000081], [22.2938817000001, 4.117853870000033], [22.29983002300014, 4.118997826], [22.30577836300006, 4.120141737999973], [22.31172672000008, 4.121285605000025], [22.318132624000043, 4.121285657000044], [22.324538529000108, 4.121285657000044], [22.33094443300007, 4.121285605000025], [22.337579124000058, 4.121056878000047], [22.34421381100003, 4.120828096000082], [22.35084849400016, 4.120599258000027], [22.357711990000155, 4.118997841000123], [22.364575459000037, 4.117396365000104], [22.371438901000033, 4.115794830000027], [22.388597574000187, 4.118540217000088], [22.395918557000073, 4.121285672000113], [22.4032395910001, 4.124031060000107], [22.410560675000113, 4.126776380000024], [22.41881722400018, 4.12719378700001], [22.427073782000093, 4.127611108], [22.435330348000093, 4.128028343000153], [22.43760862400012, 4.128842013000167], [22.457512608000116, 4.135950578000063], [22.464579031000085, 4.141315541000154], [22.47164555000012, 4.146680441000115], [22.47576361600011, 4.149769013000082], [22.479881713000054, 4.152857563000168], [22.486745182000163, 4.156289298000161], [22.48811786600004, 4.162123248000057], [22.4894905700001, 4.167957195000042], [22.49395181700004, 4.169329902000186], [22.49841308000009, 4.170702582999979], [22.505276548999973, 4.17550701100015], [22.50675131700018, 4.182493808000117], [22.509788819000107, 4.188266099000145], [22.51282636500008, 4.194038378000187], [22.517630781000094, 4.196097433000091], [22.522435222000126, 4.198156459000131], [22.534789466000063, 4.204333581000128], [22.547143711000047, 4.220119560000057], [22.54988909800005, 4.227669376000165], [22.550232269000162, 4.232473805000041], [22.550575445000106, 4.237278232999984], [22.55126179200016, 4.242769009000085], [22.54783005700017, 4.249632478000024], [22.54096658800006, 4.254436906000137], [22.538221201000056, 4.263359416000128], [22.53890754200006, 4.269536539000114], [22.539593894000177, 4.275713660000065], [22.543153946000075, 4.282848934000128], [22.54671406400007, 4.289984191000144], [22.550274248000164, 4.297119429000077], [22.553834498000015, 4.304254650000075], [22.557394814000077, 4.311389852000161], [22.560337848000074, 4.317276022999977], [22.563280927000108, 4.323162182000033], [22.568351764, 4.334296129000109], [22.570479506000027, 4.339543923000178], [22.573911227, 4.342632492], [22.57734297500008, 4.345721045000062], [22.584549598000137, 4.347780121000085], [22.591756260000125, 4.349839127000052], [22.60406364800002, 4.355536046000111], [22.608548307000092, 4.35955106900019], [22.613033014, 4.363566065000043], [22.61715107700013, 4.366997811000147], [22.62126917700016, 4.370429534000095], [22.621955523999986, 4.375233963000028], [22.617151096000043, 4.380038391000141], [22.609944492000068, 4.384156508000103], [22.60273781000012, 4.388274554000134], [22.594501666000042, 4.389990467000075], [22.586265485000126, 4.391706289000126], [22.58214740300008, 4.406119574000115], [22.58214740300008, 4.414355737000051], [22.586608631000047, 4.418817006000154], [22.59106991300007, 4.423278247000098], [22.596560688000068, 4.432200756000157], [22.595188005000125, 4.438034707000156], [22.593815301, 4.443868654000141], [22.59452484800005, 4.451416465000136], [22.595234409000057, 4.458964273000106], [22.5971263670001, 4.467162855000026], [22.59901836800003, 4.475361431000181], [22.603623451000146, 4.479519118000042], [22.608228586000052, 4.483676775000049], [22.61097395800016, 4.487794862000158], [22.61371936100005, 4.491912937999984], [22.619553307000103, 4.492256135000048], [22.62538725899998, 4.49259928500004], [22.632937075000086, 4.489167550000047], [22.639457371000105, 4.489167579000139], [22.64597766600002, 4.489167550000047], [22.651811628000132, 4.487451706], [22.657645563000074, 4.485735816000158], [22.664966665000122, 4.482304155000179], [22.672287699000094, 4.478872420000187], [22.679608665000103, 4.475440612000057], [22.694021950000092, 4.477499653], [22.702944460000083, 4.487108509000109], [22.70370791500011, 4.498065188000112], [22.70161034300014, 4.50597061700006], [22.69951272500009, 4.513876039000138], [22.702601251000033, 4.522112210000103], [22.705689847000144, 4.530348365000066], [22.710374794000074, 4.534387909000145], [22.715059794000126, 4.538427423000087], [22.723534867000126, 4.547507038], [22.730195632000175, 4.557347220999986], [22.730195631000072, 4.563461606000089]]]}}]}