{"type": "FeatureCollection", "features": [{"type": "Feature", "properties": {"entity_id": "cf-p-mambere-v1", "name_fr": "Mambéré"}, "geometry": {"type": "Polygon", "coordinates": [[[16.656816, 4.26980500000019], [16.659904, 4.268605], [16.663872, 4.267338000000166], [16.665162000000123, 4.26494], [16.665555000000154, 4.25971600000014], [16.735128, 4.247553], [16.751388000000134, 4.268605], [16.762221000000125, 4.291106000000127], [16.769435000000158, 4.306381000000101], [16.778602, 4.336102], [16.794164, 4.349440000000186], [16.818052, 4.375272], [16.860548000000165, 4.413608000000124], [16.87000000000012, 4.418051], [16.889437, 4.420272000000125], [16.90860400000014, 4.408603], [16.923047, 4.399442], [16.936107, 4.391939], [16.945824, 4.387221000000181], [16.95555300000018, 4.38083], [16.962769, 4.370829000000128], [16.967497, 4.363329], [16.97888, 4.352214], [16.987214, 4.346387000000163], [17.003331, 4.340829], [17.032217, 4.337777], [17.058053, 4.336658], [17.07363700000019, 4.337438000000134], [17.074439, 4.344443], [17.07444, 4.351106000000186], [17.073889, 4.357220000000154], [17.071387000000186, 4.361386], [17.067495, 4.364163000000133], [17.061103000000173, 4.364995], [17.055830000000128, 4.363608], [17.048886, 4.36360900000011], [17.044442, 4.365827], [17.04027000000019, 4.368605000000173], [17.033604, 4.374998000000119], [17.027492, 4.382772000000102], [17.02472, 4.386939], [17.022217, 4.390824], [17.019436000000155, 4.394991], [17.017495000000167, 4.399997000000155], [17.016104000000155, 4.405272000000139], [17.014163000000167, 4.410548], [17.012773, 4.416104], [17.010831000000167, 4.420829], [17.009441, 4.426384], [17.00666000000018, 4.430551], [17.004718, 4.435276], [17.002494000000127, 4.438881], [16.999721, 4.443048], [16.99777, 4.447773], [16.99638000000016, 4.453328000000113], [16.994438, 4.45805300000012], [16.993048000000158, 4.463609], [16.990275, 4.467776], [16.985270000000128, 4.475828000000149], [16.982498000000135, 4.479994], [16.9749920000001, 4.486109000000113], [16.970828, 4.488887], [16.966665000000148, 4.491665000000125], [16.96305100000012, 4.494442], [16.958326000000113, 4.496381], [16.953332000000103, 4.498609], [16.948607000000152, 4.500548], [16.941103, 4.504158000000132], [16.936658, 4.506105000000105], [16.929161, 4.512499000000162], [16.927769000000126, 4.517494], [16.927217, 4.523608], [16.927218, 4.530553], [16.926657000000148, 4.536658000000102], [16.924436, 4.541384], [16.922493, 4.546109000000172], [16.916665, 4.553603], [16.913883000000112, 4.557769000000178], [16.91138000000018, 4.561664], [16.908607, 4.565831], [16.905825, 4.569998], [16.903881000000183, 4.574443], [16.902218, 4.579439], [16.899996, 4.584165000000155], [16.898054000000116, 4.588881], [16.896102, 4.593606], [16.893329000000165, 4.597773], [16.890555000000177, 4.60194], [16.888603000000103, 4.606385000000103], [16.885829000000115, 4.610552], [16.884166000000164, 4.615277], [16.88138300000014, 4.61944300000016], [16.876107, 4.627777000000151], [16.86916, 4.634721], [16.862769, 4.641104], [16.855271000000187, 4.647499], [16.851106000000186, 4.650277000000187], [16.846941000000186, 4.653055000000165], [16.844997, 4.657771], [16.843325000000107, 4.662496], [16.841942, 4.668052], [16.841386000000114, 4.672493000000145], [16.8399950000001, 4.678049000000158], [16.839443, 4.684163000000126], [16.83805200000012, 4.689719], [16.836659000000168, 4.694995000000176], [16.835276000000135, 4.70027], [16.833333, 4.704996], [16.83166, 4.709720000000118], [16.8302690000001, 4.715276000000131], [16.829717, 4.721381], [16.828885000000128, 4.727216], [16.829722000000118, 4.733607000000177], [16.831106, 4.738884000000155], [16.83194200000014, 4.744995], [16.83194200000014, 4.751660000000129], [16.831381, 4.757774], [16.83055, 4.763880000000142], [16.831386000000123, 4.769990000000121], [16.831387, 4.776944000000128], [16.832222, 4.782775000000129], [16.83277, 4.788886], [16.8341640000001, 4.794443000000115], [16.835548, 4.799721], [16.836385, 4.805831000000182], [16.835552, 4.811105000000111], [16.83277800000019, 4.815272000000107], [16.830555000000118, 4.819999], [16.835554, 4.828603000000157], [16.838332, 4.832773], [16.839717, 4.83805], [16.837774, 4.843047000000126], [16.836383, 4.848603], [16.8358300000001, 4.854166000000134], [16.835, 4.860552], [16.83444, 4.866666], [16.840322000000185, 4.868407], [16.840222, 4.871135000000152], [16.840398229000186, 4.876290404000031], [16.863328, 4.878885], [16.883048, 4.890549], [16.906106, 4.899715000000185], [16.914719, 4.904438000000141], [16.917219000000102, 4.911936], [16.924164, 4.91638300000011], [16.94055200000014, 4.922493], [16.953885, 4.928883], [16.958329, 4.938047], [16.964995, 4.948607], [16.97, 4.952217000000132], [16.977774, 4.956381], [16.986386, 4.957214], [16.993048000000158, 4.957492000000116], [17.004719, 4.959437], [17.018885, 4.963607], [17.0274950000001, 4.966944], [17.033324000000164, 4.971664000000146], [17.035829, 4.977217], [17.039993, 4.985549], [17.042497, 4.993607000000111], [17.04360600000018, 5.002491000000134], [17.042775000000177, 5.010549], [17.037945, 5.023006], [17.037498, 5.024164], [17.021942, 5.046102000000189], [16.998053, 5.079441], [16.995826000000136, 5.082495], [16.99416200000013, 5.086659000000168], [16.993886, 5.090548], [16.995829000000185, 5.092215000000181], [16.998053, 5.094161], [17.000548, 5.096106], [17.009719000000132, 5.096385], [17.019163000000162, 5.097495], [17.025831, 5.099164], [17.030269000000146, 5.102776000000176], [17.035554000000104, 5.108609000000172], [17.043883, 5.116666000000123], [17.052771000000178, 5.12416], [17.068609, 5.131387000000132], [17.085553, 5.134713000000147], [17.095550000000173, 5.136661], [17.106110000000115, 5.139718], [17.115551, 5.145554], [17.12111, 5.154993], [17.122217, 5.165269], [17.11611100000016, 5.17304600000017], [17.10249700000014, 5.187214], [17.086660000000165, 5.208332], [17.074716000000137, 5.234438], [17.056943, 5.26804900000019], [17.035828, 5.289438000000132], [16.99472, 5.318053], [16.97353239400013, 5.33233458899997], [16.960383584, 5.341197596000143], [16.932774000000165, 5.362493000000143], [16.919160000000147, 5.370547], [16.906106, 5.373328000000129], [16.892497, 5.371661], [16.880554, 5.366110000000106], [16.85861100000011, 5.35888000000017], [16.838325000000168, 5.35083], [16.816381, 5.346383000000174], [16.788606, 5.346664000000146], [16.768051000000185, 5.354437], [16.752498000000116, 5.367494], [16.74194400000016, 5.377218], [16.728884000000107, 5.385277], [16.719714, 5.390276000000142], [16.711107, 5.390554], [16.70083, 5.386938], [16.690273, 5.380276000000151], [16.642492, 5.346937], [16.60777, 5.320549000000142], [16.57194, 5.297770000000128], [16.555550000000153, 5.287773], [16.524818, 5.274177903000066], [16.515610323000033, 5.270116069000039], [16.514793000000168, 5.269695000000127], [16.47472100000016, 5.248049], [16.421938, 5.2241590000001], [16.344714, 5.198055000000124], [16.26277000000016, 5.168602], [16.161841, 5.106682], [16.079897000000187, 5.071557], [16.079871, 5.070856], [16.036230000000103, 5.0689], [16.032752, 5.069377], [16.02913952400013, 5.070953139000153], [16.026225, 5.071832000000143], [16.026575790000095, 5.073569478000024], [16.027013, 5.075735000000122], [16.019224, 5.07714], [16.016003000000183, 5.081536000000142], [16.011255, 5.078858], [15.990089032000128, 5.106818668000187], [15.976792, 5.12405], [15.979252292000183, 5.147064263000061], [15.984862000000192, 5.20375300000012], [15.975512614000024, 5.209690881000029], [15.954061, 5.221809000000178], [15.93458100000015, 5.211442], [15.924113000000148, 5.177603], [15.92059130000007, 5.168692361000069], [15.918949000000111, 5.164537000000109], [15.917135703000099, 5.162288773000171], [15.901401, 5.14278], [15.893564, 5.128422000000114], [15.880667, 5.106767], [15.86641, 5.099863], [15.84805200000011, 5.09243], [15.840046071000188, 5.086464812000088], [15.825884, 5.075637], [15.745791000000168, 5.075649000000112], [15.695379679000041, 5.078171334999979], [15.687067000000184, 5.079091000000176], [15.694436, 5.016936000000157], [15.688609, 5.017775000000142], [15.68305400000014, 5.019165], [15.678881, 5.021937], [15.674165, 5.023887000000116], [15.668880000000115, 5.025277000000187], [15.662773000000186, 5.024722000000111], [15.658603000000141, 5.021940000000143], [15.65111000000013, 5.016104], [15.644995, 5.016942000000142], [15.64111000000014, 5.019714], [15.635546, 5.021104], [15.628888000000188, 5.02111], [15.62333000000018, 5.019713], [15.618882, 5.017772], [15.613333000000125, 5.016665000000103], [15.606387, 5.016662], [15.600832000000139, 5.018051], [15.596386000000166, 5.019992], [15.591662, 5.022221000000116], [15.586937000000148, 5.024162000000103], [15.580551, 5.024991000000171], [15.57471500000014, 5.025548], [15.569437, 5.024720000000116], [15.563888000000134, 5.023332], [15.557492, 5.022776], [15.552496, 5.024165], [15.548331, 5.026936000000148], [15.543605, 5.028885000000116], [15.53944, 5.031666], [15.534994, 5.033606], [15.530829, 5.036387000000161], [15.525273, 5.037775], [15.520548, 5.039996], [15.516102000000103, 5.041944], [15.511937000000103, 5.044716000000108], [15.504435, 5.048883], [15.497615309000082, 5.054659319000052], [15.497304000000156, 5.054923000000144], [15.495555516000081, 5.054154579000055], [15.494434342000034, 5.053791864000175], [15.49426860300008, 5.053738245000091], [15.49373, 5.053564000000108], [15.492299805000073, 5.053157771000031], [15.487617748, 5.050666103000083], [15.481665, 5.04805], [15.470599000000163, 5.040915], [15.459152156000016, 5.032487360000118], [15.450975, 5.026467], [15.435273000000109, 5.013605], [15.425833000000125, 5.006102000000112], [15.416665, 5.001666], [15.416467000000182, 5.00163], [15.405846454000027, 4.999770722999983], [15.405551, 4.999719], [15.384992, 4.998049], [15.37443700000017, 4.996381], [15.35861000000017, 5.004161], [15.35277600000012, 5.008326], [15.344165000000146, 5.01555], [15.338330000000155, 5.01777], [15.332773, 5.01722100000012], [15.325547000000142, 5.016663000000108], [15.322216, 5.013327000000174], [15.318606000000102, 5.008326], [15.314995000000124, 5.003605000000107], [15.313604000000112, 4.999996], [15.299721, 4.999993000000188], [15.199718, 4.999995000000183], [15.099715, 4.999719], [15.078886, 4.998609000000101], [15.060833, 4.970547], [15.043052, 4.949713], [15.036936, 4.944438], [15.031109, 4.941109], [15.022216000000185, 4.939716000000146], [15.016659000000118, 4.94111], [15.012772, 4.942775], [15.006386000000134, 4.946384000000137], [14.998051, 4.954165], [14.98693800000018, 4.965546000000188], [14.970277000000124, 4.987214000000165], [14.96249100000017, 4.996107], [14.956384, 5.001942000000156], [14.947769000000108, 5.007496000000174], [14.944999, 5.009161], [14.939993000000129, 5.010825], [14.936646151000048, 5.010824366], [14.93154, 5.011055000000113], [14.929385876000026, 5.010342311000045], [14.922492, 5.008326], [14.920264567000174, 5.007324537000102], [14.919063000000108, 5.006927000000132], [14.917805704000045, 5.006219022000039], [14.909720000000164, 5.001666], [14.902495000000101, 4.998055], [14.895549, 4.99527600000016], [14.882497000000114, 4.993049], [14.86666600000018, 4.991109], [14.844159000000104, 4.991665000000182], [14.818882000000144, 4.997494000000188], [14.789995, 5.004995000000179], [14.758610000000147, 5.010548], [14.721659000000102, 5.014713], [14.683827000000178, 5.012090000000114], [14.681550232000063, 5.011317198000143], [14.681426967000107, 5.011430442000062], [14.681259738, 5.011596951000115], [14.681094932000065, 5.01177411000009], [14.680932549000033, 5.011961918], [14.680772588000025, 5.012160375000178], [14.680711804000168, 5.012241057000097], [14.680548651000095, 5.012443752000081], [14.680374917999984, 5.012646625000059], [14.680190609000135, 5.012849672000073], [14.679995724000037, 5.013052891000143], [14.679790262000097, 5.013256283999965], [14.679665152000041, 5.013374172000169], [14.679811, 5.01318300000014], [14.67822696200011, 5.011701734000155], [14.677237, 5.010776000000135], [14.676006, 5.0089660000001], [14.677917, 5.003423000000112], [14.679745, 5.000945000000115], [14.678268000000116, 4.997717], [14.677686000000108, 4.99722], [14.673963, 4.990002], [14.676221, 4.988108], [14.678637, 4.988362000000109], [14.681215, 4.987336], [14.682064000000139, 4.984279000000129], [14.681650000000161, 4.983533], [14.680985, 4.982785000000149], [14.680654000000175, 4.982039], [14.680907000000161, 4.981128000000183], [14.683257, 4.977484000000118], [14.684905000000185, 4.975656], [14.686833, 4.973752], [14.68877300000014, 4.973092000000179], [14.689609000000189, 4.972927], [14.691409, 4.973013], [14.69197800000012, 4.973594000000162], [14.69271, 4.974175], [14.693443000000173, 4.974258], [14.693446, 4.9735960000001], [14.693042, 4.97284900000011], [14.690687, 4.969939], [14.689534, 4.96885600000013], [14.689533, 4.967195], [14.690956, 4.963875000000144], [14.691547000000128, 4.963125000000105], [14.692224, 4.962791000000152], [14.69328800000011, 4.96255100000019], [14.693527000000188, 4.959008000000154], [14.690935000000138, 4.952596], [14.68837000000019, 4.948365], [14.687715, 4.944127], [14.689405, 4.940337], [14.689394000000163, 4.938912], [14.684223, 4.934577], [14.680734, 4.931754], [14.679904000000136, 4.93125700000013], [14.67991, 4.929516000000149], [14.680498, 4.927939], [14.680835, 4.927108], [14.6819220000001, 4.925946000000181], [14.685596000000146, 4.924439000000177], [14.692953000000102, 4.914804], [14.695795, 4.90957], [14.697982, 4.905028000000129], [14.698409, 4.902287000000172], [14.697998, 4.899458], [14.698005000000137, 4.896464], [14.70014300000014, 4.890294000000154], [14.702315, 4.885467], [14.70424, 4.880897000000118], [14.704241, 4.880148000000133], [14.704245, 4.878236], [14.704326, 4.877404000000126], [14.704575, 4.876573000000121], [14.706171, 4.874664000000109], [14.706926, 4.874415000000113], [14.711527, 4.868434], [14.712026, 4.86777], [14.712191, 4.867023], [14.71137, 4.864367], [14.710633000000144, 4.862093000000186], [14.709778, 4.860316], [14.70855100000017, 4.858842000000152], [14.707879, 4.859032], [14.707204000000104, 4.859158], [14.706343000000118, 4.859161], [14.705788, 4.85916200000014], [14.703877, 4.858425000000125], [14.703507000000116, 4.857871000000102], [14.703258000000119, 4.854906], [14.703319, 4.854289], [14.703751, 4.853797000000156], [14.704310000000135, 4.853615], [14.704933000000153, 4.853063], [14.705681, 4.851463000000138], [14.70592900000014, 4.850785], [14.706049000000121, 4.84955500000018], [14.704325, 4.846102000000144], [14.702991, 4.844609], [14.702498000000105, 4.844169], [14.701881, 4.843919000000142], [14.70157300000011, 4.843299], [14.701574, 4.842623], [14.701698, 4.842008000000135], [14.702935, 4.841094000000169], [14.70504000000011, 4.840307], [14.705658, 4.840244], [14.706895000000145, 4.839936000000137], [14.7074530000001, 4.839444], [14.708944, 4.83705], [14.709626000000128, 4.835383000000149], [14.710568, 4.832124], [14.710447, 4.828297], [14.71026200000017, 4.827124], [14.710640000000183, 4.823772000000133], [14.712446, 4.819771000000173], [14.715012, 4.816498], [14.715571000000125, 4.81508], [14.715271, 4.810022], [14.716513000000134, 4.807247], [14.718002, 4.802944], [14.718190000000106, 4.801650000000109], [14.717575, 4.800603000000137], [14.717019, 4.800296000000174], [14.715783000000101, 4.800113000000124], [14.71498, 4.8000550000001], [14.71430000000015, 4.800059], [14.713805, 4.799875000000156], [14.713186000000178, 4.799381], [14.712939000000176, 4.798762], [14.713001000000133, 4.798143], [14.713064, 4.797711000000163], [14.713873, 4.79623], [14.715239, 4.794315], [14.716674000000125, 4.791352000000131], [14.717481, 4.789489], [14.7172920000001, 4.787626], [14.716859000000113, 4.78707], [14.716427000000124, 4.786576], [14.715807000000154, 4.78639], [14.715188, 4.786266000000126], [14.713458000000116, 4.782556000000113], [14.713089000000139, 4.781014], [14.712567, 4.776516], [14.711651000000188, 4.77331], [14.711284, 4.7722], [14.710161, 4.769778], [14.709786, 4.769219], [14.709227000000169, 4.769032], [14.70861100000019, 4.769095000000164], [14.705021000000158, 4.768602], [14.703844000000117, 4.76841700000017], [14.703286000000105, 4.768045000000143], [14.701984, 4.767115000000103], [14.700807000000168, 4.765814], [14.699939000000143, 4.764761], [14.699506, 4.764203], [14.699507, 4.763338], [14.701684, 4.760510000000181], [14.703484000000174, 4.758523], [14.706217000000152, 4.756802000000164], [14.709446000000185, 4.757679], [14.7098170000001, 4.757182000000171], [14.709626000000128, 4.755318000000102], [14.70944, 4.754698000000133], [14.708639000000176, 4.753651], [14.707776, 4.752602], [14.707344000000148, 4.751366000000132], [14.7074080000001, 4.750872000000129], [14.707534, 4.750193], [14.707785, 4.749576], [14.708096000000182, 4.74902], [14.708906, 4.747846], [14.709278, 4.747475], [14.709897000000183, 4.747413000000108], [14.711141, 4.748035], [14.713874, 4.747359], [14.714937, 4.746099000000129], [14.716935, 4.743453], [14.717128, 4.737568000000181], [14.716444, 4.735522000000174], [14.715529, 4.728403000000185], [14.716653000000122, 4.726569000000154], [14.718144, 4.725512], [14.71808300000015, 4.723528], [14.715604, 4.717948], [14.716046, 4.71616], [14.718163, 4.712942000000112], [14.718353054000147, 4.712184076000085], [14.71849817500015, 4.7120954130001], [14.718803504999983, 4.711898340000062], [14.71909187000017, 4.711701103000166], [14.719363269000155, 4.711503704000108], [14.719617704000143, 4.711306141000023], [14.719855173000155, 4.711108416000059], [14.720075677000125, 4.710910527000124], [14.720279216000165, 4.710712475000093], [14.720465790000162, 4.710514259000036], [14.72050383800007, 4.710469757000055], [14.720648821000111, 4.710316010000042], [14.720686722000096, 4.710271354000099], [14.72083187800007, 4.710117761000106], [14.720869604000143, 4.710072918000037], [14.721014972000091, 4.709919513000045], [14.721052481000072, 4.709874435000017], [14.721198116000153, 4.709721264000052], [14.721360951000065, 4.709522821000064], [14.72149817200011, 4.70932413100013], [14.72160978100004, 4.709125195000013], [14.721695776000104, 4.708926013000053], [14.721718559000124, 4.708850769000037], [14.72177237700015, 4.708726740000031], [14.721803347000048, 4.708621176000179], [14.721844679000071, 4.708527426000046], [14.721875035000096, 4.7084216290001], [14.721917052000151, 4.708328113000164], [14.721946660000071, 4.708222031000105], [14.721989518999976, 4.708128800999987], [14.722018198000171, 4.708022363000111], [14.722062119000157, 4.707929489000037], [14.722089614000026, 4.707822595000096], [14.722134913000104, 4.707730180000169], [14.722160845000133, 4.707622676000142], [14.722208009000155, 4.707530873999985], [14.722231780000072, 4.707422517], [14.722281607000184, 4.707331572000044], [14.722302198000023, 4.707221936000053], [14.722356141000148, 4.707132280000053], [14.722371582000108, 4.707020513000145], [14.722432740000158, 4.706933007000032], [14.722438380000085, 4.706816984999989], [14.722515587000032, 4.706733794000115], [14.722494835000077, 4.70660503400012], [14.722595359000024, 4.706557709000037], [14.72259594999997, 4.706496252000022], [14.722578960000021, 4.706482415000039], [14.722596543000122, 4.706434559000172], [14.722654, 4.706364000000121], [14.724061, 4.705949], [14.726356, 4.705598000000123], [14.729106, 4.704871], [14.72993600000018, 4.705094], [14.732193, 4.705485], [14.734449, 4.705737000000113], [14.73785800000013, 4.706346], [14.740481000000102, 4.706548], [14.742142, 4.707039000000179], [14.747268000000133, 4.704987], [14.748094, 4.704839], [14.749198000000149, 4.704873], [14.756466, 4.705206], [14.757338, 4.705057000000124], [14.759871, 4.705399], [14.762729, 4.706108], [14.763047, 4.705780000000118], [14.764568000000168, 4.706086], [14.76880100000011, 4.706316], [14.770513, 4.707269], [14.771299, 4.707631000000106], [14.773554000000104, 4.707837], [14.773965, 4.7076], [14.781117, 4.70585], [14.781674000000123, 4.706261], [14.782868000000178, 4.706201000000135], [14.783736, 4.705728], [14.790443, 4.705234], [14.790628, 4.705278000000135], [14.792285, 4.705491000000166], [14.794499, 4.706114000000184], [14.795275000000174, 4.70554900000019], [14.79712, 4.706084], [14.800433, 4.70637], [14.8013, 4.705758], [14.80290500000018, 4.705369000000189], [14.805798, 4.705104000000119], [14.808372, 4.704982000000143], [14.810902000000112, 4.705092], [14.812416, 4.704889], [14.815263000000186, 4.704532], [14.818525, 4.704356], [14.821294, 4.705204], [14.821187, 4.703908000000126], [14.825197, 4.704835], [14.827081000000135, 4.704721], [14.829567000000111, 4.705017], [14.831046000000129, 4.705648], [14.832752, 4.706046], [14.834679000000165, 4.705699000000152], [14.835139, 4.705787000000157], [14.83707900000013, 4.706552], [14.836146, 4.70535800000016], [14.834735, 4.702641], [14.83528600000011, 4.702588000000105], [14.835481, 4.699481000000105], [14.835467000000165, 4.698277000000132], [14.835036, 4.69684500000011], [14.835202, 4.695222000000115], [14.834716000000185, 4.692957000000149], [14.83489, 4.692075000000159], [14.834547, 4.690318000000104], [14.834301000000153, 4.688838], [14.834282000000144, 4.687263], [14.83463600000016, 4.686008000000186], [14.83449000000013, 4.685314000000119], [14.834205000000168, 4.684530000000109], [14.833715000000154, 4.681941000000108], [14.834067000000118, 4.6805], [14.833867000000112, 4.679159000000141], [14.83357800000016, 4.678004000000158], [14.83361, 4.676752000000135], [14.833542, 4.6749], [14.833654, 4.672628000000145], [14.833222, 4.671011], [14.833294000000137, 4.669342], [14.833703, 4.668874], [14.833725, 4.666789], [14.834791000000166, 4.667518], [14.838288000000148, 4.667756], [14.839117000000158, 4.667932], [14.840365, 4.668474000000174], [14.844016000000124, 4.670146000000102], [14.845306000000107, 4.670363000000123], [14.848154, 4.670145], [14.849951, 4.670449000000133], [14.851976, 4.670657000000119], [14.852802, 4.670509000000152], [14.854088, 4.670355], [14.856101, 4.669544], [14.860242000000142, 4.669821], [14.861293, 4.66925300000014], [14.862342000000126, 4.668500000000165], [14.86389400000013, 4.667509], [14.864526, 4.666529], [14.866084000000171, 4.666001000000165], [14.867236, 4.666266], [14.871319, 4.665478], [14.872839, 4.665738], [14.875496000000169, 4.664874], [14.877511, 4.664202], [14.87912000000017, 4.664183], [14.882225, 4.662341], [14.885086000000115, 4.6632350000001], [14.88696700000014, 4.662842000000126], [14.888206, 4.662643000000173], [14.891287, 4.662747], [14.893817, 4.662857], [14.895658, 4.663021000000185], [14.89676500000013, 4.663286], [14.902831, 4.663077], [14.908126, 4.663712000000146], [14.911855, 4.664132], [14.915776000000108, 4.665246], [14.919744, 4.666498000000104], [14.927991, 4.667978000000176], [14.929091000000142, 4.667688000000112], [14.930380000000184, 4.667812], [14.933833, 4.668236], [14.935849, 4.667564], [14.940666, 4.666675000000168], [14.944476000000122, 4.666168000000141], [14.947929, 4.666591000000153], [14.950459, 4.666701], [14.958194000000105, 4.66763200000014], [14.964412000000152, 4.668534000000136], [14.971539, 4.66863700000016], [14.973051000000112, 4.668157], [14.976225, 4.668259000000148], [14.978850000000136, 4.668646], [14.983352000000139, 4.668317000000116], [14.99167800000015, 4.668731], [14.998068, 4.668658000000107], [15.001565, 4.668849], [15.004680000000178, 4.667887], [15.006652, 4.667447], [15.009401, 4.666582000000119], [15.01928, 4.666051], [15.021076, 4.666355000000181], [15.024434, 4.666502], [15.029902, 4.666207000000156], [15.041458000000148, 4.667558], [15.045085, 4.667145000000176], [15.048502000000155, 4.668357], [15.058576000000187, 4.668798000000152], [15.061473, 4.668903000000114], [15.065108000000123, 4.66914], [15.068707000000188, 4.670257], [15.070363, 4.670284], [15.077123, 4.670392], [15.077902000000165, 4.670151], [15.080618000000186, 4.670445], [15.094942000000174, 4.672690000000102], [15.094293000000107, 4.672188000000119], [15.096313, 4.671979], [15.099838, 4.670641], [15.103419, 4.670183000000179], [15.108384000000171, 4.670126], [15.122593, 4.670288000000141], [15.130229, 4.670663000000104], [15.132756, 4.670449000000133], [15.137946000000113, 4.670019], [15.149856, 4.67016], [15.15154500000017, 4.669168], [15.155771, 4.668795], [15.163951, 4.668470000000184], [15.166155000000174, 4.668166], [15.168311, 4.667771], [15.170608000000186, 4.667652], [15.17364700000013, 4.667988], [15.177660000000174, 4.669146000000183], [15.179502000000127, 4.669403000000102], [15.186997000000133, 4.669456], [15.189517000000137, 4.668732], [15.194307000000151, 4.669465], [15.198031, 4.669423000000165], [15.212562000000105, 4.669627000000162], [15.216976000000102, 4.669622000000118], [15.222634, 4.669882000000143], [15.224708, 4.670321], [15.221712000000139, 4.665676000000133], [15.221836, 4.664470000000165], [15.225554, 4.659933], [15.226625000000183, 4.65714000000014], [15.230488, 4.653204], [15.233606000000123, 4.640472000000159], [15.233443000000136, 4.638343], [15.235159, 4.635589], [15.244617000000119, 4.630477], [15.24519, 4.628339], [15.247791000000177, 4.622610000000179], [15.248881, 4.621485000000177], [15.251295, 4.615480000000161], [15.253365, 4.611611000000153], [15.253837408000038, 4.60989470800007], [15.254240000000152, 4.612], [15.254566000000125, 4.613334], [15.254849, 4.615588], [15.256619000000171, 4.622438000000159], [15.256254000000183, 4.623914], [15.257654000000173, 4.630398000000127], [15.258209, 4.631039], [15.261442, 4.633782000000167], [15.262966, 4.634923], [15.265594, 4.635644000000184], [15.271911000000102, 4.637262000000135], [15.274628, 4.636923000000138], [15.285542000000135, 4.634690000000148], [15.287432, 4.634817000000169], [15.292599000000166, 4.637133000000119], [15.29555100000016, 4.638266], [15.306984, 4.640496], [15.31117200000017, 4.638721], [15.314115000000129, 4.636814000000186], [15.318948, 4.634804000000145], [15.324564000000123, 4.632835000000114], [15.326775000000112, 4.632591], [15.331287, 4.631596000000116], [15.335153, 4.62996], [15.343028, 4.628345], [15.344455000000153, 4.627738], [15.35667, 4.629642000000104], [15.361462, 4.629519], [15.364777, 4.628716], [15.369843, 4.627902000000176], [15.373896000000173, 4.627324000000158], [15.379839, 4.62701], [15.381816000000185, 4.625570000000153], [15.394069, 4.624435], [15.395406, 4.624381], [15.400063, 4.625825], [15.409887, 4.629171], [15.414728, 4.630292], [15.417952000000128, 4.629857000000129], [15.419971, 4.626714000000106], [15.420975000000112, 4.623438000000135], [15.424186, 4.618353], [15.426534, 4.617417], [15.428328000000135, 4.616577000000177], [15.432288, 4.615355000000136], [15.434498000000133, 4.614881], [15.438317, 4.612969], [15.443981000000122, 4.611737000000119], [15.44706600000012, 4.611027000000149], [15.450197000000173, 4.61004], [15.458582, 4.609804], [15.461392000000103, 4.609602], [15.465262, 4.609532], [15.470421, 4.609085], [15.478806000000134, 4.608664], [15.484565, 4.608582000000183], [15.49115300000011, 4.608219000000133], [15.499308, 4.608030000000156], [15.50562, 4.607852], [15.514556, 4.606968], [15.519625000000133, 4.607074000000125], [15.52790327800011, 4.60784083600015], [15.5280130000001, 4.607851], [15.533499000000177, 4.608829000000185], [15.536173, 4.609319], [15.539215, 4.609715000000108], [15.54438, 4.611386], [15.546919000000173, 4.613074], [15.5518110000001, 4.616036000000179], [15.553429, 4.618098], [15.561752000000126, 4.628637], [15.564573000000166, 4.632211], [15.564656040999978, 4.63307589100009], [15.565327, 4.639688000000149], [15.565275597000095, 4.640011507000168], [15.564744056000109, 4.643356820000122], [15.563964937000037, 4.648000128999968], [15.563898220999988, 4.648397737000039], [15.563511731000176, 4.65070109300018], [15.563953, 4.650537], [15.564437961000067, 4.668115947000103], [15.564402, 4.669940000000111], [15.564605236000148, 4.670635738000158], [15.565919000000122, 4.676778000000127], [15.571024569000087, 4.681188163000058], [15.57255, 4.682743], [15.575046885000177, 4.683843618000139], [15.582439289000035, 4.68710216300002], [15.582997, 4.687348], [15.600902399, 4.724205631000075], [15.601336109000044, 4.724757213999965], [15.603405, 4.726747000000103], [15.603690700000072, 4.727120854000134], [15.61646749700003, 4.739508794000187], [15.62072, 4.743517000000168], [15.624469, 4.745666], [15.628965459000085, 4.748518675000014], [15.629242401000113, 4.74873838700006], [15.629504748000045, 4.748839611000108], [15.634397, 4.751543], [15.648345095000025, 4.759459827000057], [15.658065, 4.764487], [15.66735100000011, 4.764103], [15.672270547000096, 4.762378892000072], [15.678853000000174, 4.760072], [15.68791046400014, 4.752506867000136], [15.689414, 4.751140000000134], [15.69575966900004, 4.748094147000074], [15.69686, 4.747566000000177], [15.711183000000176, 4.741202000000101], [15.711738874000162, 4.740871225000035], [15.715394280000055, 4.738696062000088], [15.739107548000106, 4.722357031000058], [15.739334, 4.722201], [15.740547040000024, 4.721264860000019], [15.74435000000011, 4.71833], [15.744913665000126, 4.717584682000165], [15.747695000000135, 4.713907000000177], [15.754105, 4.708379], [15.755085367000106, 4.707618023], [15.757685503000118, 4.705599752000126], [15.759445000000142, 4.704234], [15.761979764000046, 4.701719821000154], [15.762154, 4.701547000000176], [15.763074185000107, 4.700800215000072], [15.76502100000016, 4.698524000000134], [15.770026, 4.696203000000139], [15.777303000000131, 4.693024], [15.778443623999976, 4.691039395000189], [15.779566000000159, 4.688115], [15.790401592000137, 4.679719210000144], [15.791948, 4.678521000000103], [15.795401270000127, 4.674952870000141], [15.802591, 4.667524], [15.807619040000077, 4.668004860000053], [15.845347000000118, 4.671613], [15.855774483, 4.673703543000045], [15.860884629000054, 4.674728045000052], [15.882203157000049, 4.679002068000102], [15.882917476999978, 4.679145278000078], [15.887086, 4.679981000000112], [15.893900662000078, 4.681459643000153], [15.916178274000174, 4.686293429999978], [15.922947000000136, 4.686856], [15.930781000000138, 4.687233000000106], [15.939488770000139, 4.687909000000104], [15.944960579000167, 4.687909000000104], [15.948743, 4.687909000000104], [15.959443342000043, 4.68825119800016], [15.978649160000032, 4.688865401999976], [15.984140000000139, 4.689041000000145], [16.003004, 4.686600000000112], [16.01782, 4.682754], [16.025445941000157, 4.679171538000105], [16.026431204000062, 4.678708688000029], [16.03095400000018, 4.676584], [16.032879, 4.675544000000173], [16.034779035000042, 4.675640286000146], [16.040381808000063, 4.67592421], [16.04235100000011, 4.676024], [16.04752254100015, 4.672019688999967], [16.048209, 4.671567], [16.049936000000116, 4.667987], [16.049867421000044, 4.665495294999971], [16.050367, 4.663045], [16.059135613000024, 4.663045], [16.06324, 4.663045], [16.06693345600013, 4.662638652000169], [16.070624000000123, 4.660176000000149], [16.073142983000082, 4.657474482000055], [16.07757, 4.651268], [16.07941749200012, 4.64845433500011], [16.081357, 4.642344000000151], [16.082851000000176, 4.638720000000149], [16.084745, 4.633612], [16.086981, 4.629702], [16.089395, 4.625143000000151], [16.089426630000162, 4.625088450000078], [16.093092000000183, 4.618767], [16.09622800000011, 4.608465], [16.096980927000175, 4.607279305000134], [16.09874200000013, 4.604506], [16.10144300000013, 4.600499000000184], [16.103776, 4.596912], [16.105097564, 4.595957836000139], [16.106963000000178, 4.5946110000001], [16.10986, 4.59148], [16.11263, 4.589323], [16.114078139000128, 4.585821732000113], [16.114732000000117, 4.584689], [16.115181500000176, 4.577681569999982], [16.115813208000077, 4.57348959400008], [16.115879000000177, 4.573053000000186], [16.116526, 4.568791000000147], [16.11601400000012, 4.561211], [16.11497500000013, 4.556274], [16.110597, 4.545036], [16.110466, 4.541939], [16.10997, 4.5357], [16.1097850000001, 4.531956], [16.11074, 4.52621], [16.113887, 4.516833], [16.116255, 4.512321000000156], [16.118675, 4.508271], [16.122069, 4.503793], [16.124499000000185, 4.500529], [16.126786, 4.493197], [16.127954, 4.489669000000163], [16.1291480000001, 4.484429], [16.129769000000124, 4.481833000000165], [16.132768000000112, 4.475556], [16.134406000000126, 4.472300000000132], [16.139835, 4.466645], [16.143349, 4.464340000000163], [16.147538, 4.460132000000158], [16.150632, 4.45783200000011], [16.155276, 4.452693000000181], [16.15874, 4.446365], [16.160189000000173, 4.442927], [16.160866, 4.437277], [16.164142, 4.423181000000113], [16.164095, 4.423181000000113], [16.166066, 4.420523000000117], [16.168078, 4.417356], [16.170272, 4.413817000000165], [16.171697, 4.412275000000136], [16.175003, 4.408262], [16.175916, 4.406679], [16.179297, 4.404931], [16.181885000000136, 4.403192], [16.184325, 4.40076], [16.186175000000162, 4.399630000000172], [16.189309, 4.396728], [16.189401, 4.396681], [16.190421109000056, 4.396521056000154], [16.191095, 4.398527], [16.192727000000104, 4.398966], [16.19481666700011, 4.400232834000121], [16.19513200000017, 4.4004240000001], [16.200598000000184, 4.403129], [16.20608, 4.405281000000173], [16.21355323800003, 4.408022459000108], [16.218502, 4.410231000000124], [16.226552278000042, 4.41196721600005], [16.234429, 4.413666], [16.235604384000055, 4.41386028200003], [16.238862000000154, 4.414259000000129], [16.241398000000174, 4.4144730000001], [16.244658, 4.415218], [16.250879, 4.415867000000162], [16.25517600000012, 4.41595], [16.257861150000053, 4.416057248000072], [16.261291087000075, 4.415878152000175], [16.262630000000115, 4.41562000000016], [16.266017, 4.415214000000105], [16.266148608000094, 4.415190510000116], [16.27666900000014, 4.412292], [16.292245618000038, 4.413947309000037], [16.29286900000011, 4.413989000000186], [16.297068, 4.414254], [16.302423000000147, 4.414507], [16.308589000000154, 4.415478000000121], [16.311192107000124, 4.415960730999984], [16.315448000000117, 4.416413], [16.325142, 4.415039], [16.342838499000038, 4.413089233000107], [16.343839000000116, 4.412979000000121], [16.365998, 4.406111000000124], [16.368022000000167, 4.405577000000164], [16.373869, 4.407878], [16.380265, 4.41038], [16.384829, 4.412319], [16.389728, 4.413899], [16.391559, 4.414508000000126], [16.395409, 4.414070000000152], [16.39823700000011, 4.412307000000112], [16.40197, 4.411172], [16.406327000000147, 4.409316000000103], [16.412219, 4.408616], [16.418052, 4.408375], [16.425465, 4.407859000000144], [16.430882, 4.407606], [16.434966, 4.407082000000173], [16.438697, 4.40604], [16.44397700000013, 4.404212], [16.445337, 4.402036000000123], [16.446991, 4.397835000000157], [16.448005, 4.393385], [16.448318000000143, 4.38919], [16.446448, 4.383821], [16.44672500000013, 4.379302], [16.447724000000164, 4.37231], [16.447009, 4.365452], [16.447864, 4.361643000000186], [16.446877, 4.3561160000001], [16.449367, 4.350278], [16.45613100000014, 4.337685000000135], [16.459371, 4.333024000000137], [16.46119, 4.331000000000188], [16.461784, 4.331202000000189], [16.463081, 4.3281], [16.468403, 4.321885], [16.473543, 4.31705], [16.477852, 4.315239000000133], [16.483359, 4.312033], [16.493344, 4.307529000000102], [16.499048000000187, 4.302387], [16.50354300000015, 4.299012], [16.512156000000118, 4.297053000000176], [16.5339790000001, 4.286391], [16.538753, 4.284502000000145], [16.543917, 4.286459], [16.545735, 4.28748400000012], [16.549671000000103, 4.288804], [16.555538, 4.288934], [16.562248000000125, 4.28419300000013], [16.56736000000018, 4.280281000000116], [16.583613, 4.274903000000108], [16.589685, 4.274392], [16.594792, 4.273714000000155], [16.601794000000154, 4.273001000000136], [16.620063, 4.272765000000163], [16.62270700000016, 4.272475000000156], [16.631437, 4.272738], [16.633674, 4.272158], [16.639004000000114, 4.271718], [16.642153, 4.271535], [16.64422100000013, 4.271967000000188], [16.646992, 4.272051], [16.652013, 4.271139], [16.656816, 4.26980500000019]]]}}]}