{"type": "FeatureCollection", "features": [{"type": "Feature", "properties": {"entity_id": "cf-p-ombella-mpoko-v1", "name_fr": "Ombella M'Poko"}, "geometry": {"type": "Polygon", "coordinates": [[[18.078333, 4.441381], [18.082347, 4.443514000000107], [18.096662, 4.451106000000152], [18.10611, 4.458881], [18.120274000000165, 4.462497], [18.120862000000102, 4.466389], [18.120704, 4.466551000000152], [18.12202000000019, 4.468816000000118], [18.123814000000152, 4.47244400000011], [18.124472, 4.473439], [18.12511, 4.474823000000129], [18.127864, 4.478277000000105], [18.131554000000165, 4.481466000000182], [18.133642, 4.483194], [18.136142000000177, 4.484894000000111], [18.138572000000124, 4.486503], [18.144864, 4.490385], [18.150836, 4.492833000000132], [18.154414000000145, 4.494517], [18.158962, 4.49678], [18.163734, 4.498697000000163], [18.166418, 4.500462], [18.1705520000001, 4.502618], [18.1736, 4.504172], [18.178906000000154, 4.506493], [18.18821, 4.511085], [18.190568000000155, 4.512512000000129], [18.19456, 4.514372], [18.199540000000184, 4.516332], [18.203112000000147, 4.517605], [18.215886000000125, 4.521256000000108], [18.217524, 4.52194], [18.23155400000013, 4.526806000000136], [18.233004000000165, 4.527287000000172], [18.23646200000013, 4.52863], [18.243636, 4.531746000000112], [18.245826, 4.53265000000016], [18.248438, 4.534165], [18.25105, 4.535635], [18.254744, 4.537499], [18.258882, 4.539883000000145], [18.260522, 4.540818], [18.264486000000147, 4.543866], [18.268546000000185, 4.545612], [18.272034000000133, 4.547502000000122], [18.27534, 4.549395], [18.278916, 4.551102], [18.281508, 4.552800000000104], [18.2829660000001, 4.553715000000125], [18.28403400000019, 4.55463600000013], [18.28657, 4.555741], [18.287086703000114, 4.556186074000095], [18.288056, 4.557021], [18.287062000000105, 4.558017], [18.286604, 4.56279700000016], [18.2861860000001, 4.564082], [18.28530400000011, 4.566470000000152], [18.284004, 4.570074], [18.283708, 4.573504000000185], [18.282746, 4.579867000000149], [18.282792, 4.583018], [18.28213, 4.586431], [18.28118000000012, 4.590578000000164], [18.280524, 4.592780000000118], [18.278828, 4.597532000000172], [18.27810600000015, 4.606312000000116], [18.277294, 4.610504], [18.277170000000183, 4.61304], [18.277984, 4.616957000000184], [18.27841, 4.619508], [18.279352, 4.626003], [18.279926000000103, 4.627731], [18.281278, 4.632461], [18.283222, 4.636932000000172], [18.285124000000167, 4.640102000000127], [18.287916, 4.644583000000125], [18.289478000000145, 4.646364], [18.292082000000107, 4.648907000000122], [18.29611400000016, 4.653508000000159], [18.298904, 4.656299000000161], [18.30322200000012, 4.661649000000182], [18.305604000000187, 4.66472], [18.30681600000014, 4.66774], [18.308314, 4.668266000000187], [18.313792, 4.669831000000158], [18.31568, 4.670374000000152], [18.328072, 4.672934], [18.337556000000177, 4.672522], [18.344208, 4.672859], [18.345666000000108, 4.672176], [18.351996000000156, 4.670782], [18.354324, 4.670109], [18.364546, 4.666808000000174], [18.367924000000187, 4.6658], [18.370954, 4.664523], [18.373934, 4.662904], [18.374958, 4.662386], [18.375576, 4.660710000000108], [18.375132, 4.660237], [18.375062000000128, 4.660033], [18.376582000000155, 4.660581], [18.376584, 4.659165000000144], [18.377432000000113, 4.657509000000118], [18.377552, 4.656251000000111], [18.378586, 4.654888000000142], [18.380546, 4.654061], [18.381538, 4.65288100000015], [18.383316, 4.652216], [18.385102, 4.652053], [18.388240000000167, 4.65187], [18.390004, 4.651913], [18.391444, 4.653171000000157], [18.393768000000136, 4.655398], [18.395342, 4.657979], [18.397254, 4.660349], [18.39891200000011, 4.662472], [18.400544, 4.664298000000144], [18.402834, 4.665703], [18.405462000000114, 4.666716000000179], [18.407286, 4.667717], [18.410602000000154, 4.66881], [18.412264000000164, 4.66954], [18.414996, 4.669797000000187], [18.423336, 4.666364], [18.424988, 4.664879], [18.429149615000085, 4.66295080500015], [18.431141195, 4.662028049000185], [18.43124977800005, 4.661989448999975], [18.432756000000154, 4.661454], [18.43452, 4.661406000000113], [18.435710000000142, 4.661297000000161], [18.43743200000017, 4.661477000000161], [18.442514000000187, 4.66266000000013], [18.442668387000083, 4.662683927999979], [18.44534, 4.663098000000161], [18.447708, 4.663612], [18.45083000000011, 4.663932], [18.452322, 4.664001], [18.455042, 4.663459000000159], [18.45774800000015, 4.663489], [18.459468000000186, 4.663555000000144], [18.46128000000016, 4.663666], [18.462632, 4.663623], [18.464166, 4.663487], [18.466160000000173, 4.663480000000106], [18.467668, 4.66323], [18.469272000000103, 4.663115000000118], [18.470964, 4.662794], [18.47325, 4.662441000000115], [18.473491282000168, 4.662487333000172], [18.479903, 4.661021], [18.488180666000176, 4.657194237000056], [18.489704, 4.656490000000133], [18.48979153300013, 4.656413415000145], [18.492974000000117, 4.653629], [18.49461500000018, 4.652193], [18.498245954000026, 4.649017456000024], [18.498418595000032, 4.648866468000165], [18.500928928000178, 4.646670992000054], [18.510226, 4.63854], [18.511748, 4.637627000000123], [18.513266, 4.636349000000109], [18.515258, 4.634676], [18.515880000000152, 4.633273000000145], [18.516520000000185, 4.631551000000115], [18.517436000000146, 4.629825], [18.519828000000132, 4.627255000000105], [18.519376, 4.626166], [18.519952000000103, 4.624787], [18.521184, 4.622668], [18.521958, 4.620784], [18.523862000000122, 4.617719], [18.524904, 4.61523700000015], [18.52704400000016, 4.612557], [18.527862, 4.610467], [18.528964, 4.607459000000176], [18.529172, 4.605949000000123], [18.52975, 4.60470700000019], [18.530554000000166, 4.603257], [18.531500000000108, 4.602078], [18.532840000000135, 4.599615], [18.533352, 4.598557], [18.534154000000115, 4.596878], [18.534872, 4.59584000000018], [18.535502000000122, 4.593456], [18.535888, 4.591577], [18.536292000000117, 4.589402], [18.536732, 4.588094000000183], [18.537092, 4.586056], [18.537004, 4.584687], [18.537906, 4.583623], [18.538462, 4.58245], [18.53934, 4.581364], [18.540574, 4.581118000000117], [18.542250000000138, 4.581208000000117], [18.54335600000013, 4.581694], [18.545080000000155, 4.582034], [18.545726000000116, 4.582231], [18.547352, 4.582161], [18.548330000000135, 4.58169], [18.550768, 4.580581000000109], [18.55389, 4.57928], [18.554908000000125, 4.578397], [18.556114, 4.577832000000171], [18.557598, 4.577399], [18.560388, 4.576856], [18.561276000000134, 4.576432000000182], [18.562474000000122, 4.575295], [18.563888, 4.574818], [18.566154000000154, 4.57458], [18.56807600000019, 4.574300000000164], [18.56913, 4.574239], [18.57019400000013, 4.573333000000105], [18.571208000000183, 4.572154], [18.572924, 4.571992000000137], [18.573004, 4.571168000000171], [18.573912, 4.570561], [18.57557000000014, 4.569464], [18.57624200000015, 4.568312000000105], [18.578452, 4.567412000000104], [18.579084, 4.566764000000148], [18.580976000000135, 4.566028000000131], [18.584062, 4.565321], [18.58558, 4.564134000000138], [18.586224, 4.562755], [18.588478, 4.561694], [18.588828, 4.560524], [18.590598000000114, 4.559265000000153], [18.591866, 4.558196000000123], [18.5935, 4.556939], [18.595196, 4.555339], [18.595812, 4.553617], [18.595652000000143, 4.553574], [18.596072, 4.55254], [18.597374000000116, 4.550671000000136], [18.598226000000125, 4.547644000000162], [18.599902, 4.546272000000158], [18.600342, 4.543365000000108], [18.60093200000017, 4.541438], [18.601118, 4.538444], [18.601368, 4.535037000000102], [18.602020000000152, 4.532493000000102], [18.603824, 4.530503000000124], [18.606254, 4.52896], [18.608744000000115, 4.526731000000154], [18.61092, 4.52501], [18.613328, 4.52196], [18.615474, 4.519691000000137], [18.61867400000017, 4.517520000000104], [18.620712, 4.517285000000186], [18.622736, 4.516251], [18.626944, 4.515482], [18.629464000000155, 4.51224800000017], [18.632188, 4.51035800000011], [18.634806, 4.507488000000137], [18.637668, 4.505620000000135], [18.640752000000134, 4.503314000000103], [18.643790000000138, 4.502584], [18.647232, 4.502877000000183], [18.65005, 4.502813], [18.652952, 4.502131], [18.65488, 4.50228600000014], [18.65625, 4.501878], [18.65892200000019, 4.501268], [18.66144000000014, 4.500957000000142], [18.661545457999978, 4.500948967000056], [18.66439400000013, 4.500732000000141], [18.667562, 4.501142000000129], [18.670202000000188, 4.501355], [18.672228000000132, 4.502011], [18.67426, 4.502963], [18.67710600000015, 4.503287000000171], [18.679622000000165, 4.502862000000164], [18.683006, 4.502265], [18.684922, 4.503151000000116], [18.68693800000011, 4.503190000000131], [18.688328000000183, 4.502576000000147], [18.689428, 4.500916], [18.69178200000016, 4.498803], [18.69372, 4.498181000000102], [18.69516, 4.497909000000163], [18.696738, 4.499142], [18.696840000000122, 4.50153900000015], [18.696956000000114, 4.504757], [18.696576000000107, 4.507046000000173], [18.69563, 4.509778], [18.6954080000001, 4.511973000000125], [18.694276, 4.514525000000106], [18.69274800000011, 4.516694000000143], [18.69233400000013, 4.519715000000133], [18.692408, 4.523253000000125], [18.692186000000163, 4.525426], [18.692302, 4.527092], [18.691614, 4.528586000000132], [18.691784, 4.52931400000017], [18.69204200000013, 4.531366000000162], [18.691976, 4.534679000000153], [18.691694000000155, 4.5374], [18.689832, 4.540214], [18.689552, 4.543072], [18.689346, 4.544743], [18.689636, 4.547251000000131], [18.690502, 4.550161], [18.690764000000115, 4.552464000000157], [18.691268, 4.554010000000176], [18.69223, 4.555480000000159], [18.692922000000124, 4.557457000000113], [18.69577, 4.561001], [18.697266, 4.564588], [18.69967, 4.566014], [18.702522, 4.568257000000187], [18.705356, 4.570933], [18.707256, 4.572321], [18.709400000000187, 4.573158], [18.713352000000157, 4.573786], [18.716456000000107, 4.576001], [18.719948, 4.57812], [18.721850000000188, 4.579783000000134], [18.723366, 4.581610000000126], [18.724706, 4.582322], [18.729532, 4.583074000000124], [18.730264, 4.582972], [18.734928, 4.582241000000124], [18.738460000000146, 4.582373], [18.74067, 4.58298], [18.74289, 4.582742], [18.745506000000148, 4.581265], [18.746614000000136, 4.581912000000102], [18.74853, 4.581244], [18.751172000000167, 4.57995000000011], [18.753236, 4.580057], [18.754566000000125, 4.580106], [18.75623400000012, 4.579739], [18.757732, 4.580334], [18.760244, 4.579635000000167], [18.761610000000132, 4.578999000000124], [18.762452000000167, 4.578507], [18.764972000000114, 4.578493000000151], [18.768824000000166, 4.578597], [18.77111200000013, 4.57982], [18.77462, 4.579928], [18.776212, 4.580590000000143], [18.779502, 4.579903000000115], [18.7812, 4.579924], [18.782692, 4.580131000000165], [18.78410600000018, 4.579631000000177], [18.786704, 4.580095], [18.787324000000183, 4.580223000000103], [18.78981800000014, 4.579936], [18.79132, 4.579160000000115], [18.792484, 4.578801], [18.794186, 4.579141000000106], [18.79673600000018, 4.579584000000182], [18.799960000000112, 4.580587], [18.801818, 4.5806970000001], [18.803610000000162, 4.580923000000155], [18.805986, 4.580500000000143], [18.807554000000152, 4.579541000000177], [18.81039200000015, 4.57762700000012], [18.81081, 4.576342000000182], [18.81258800000012, 4.574101], [18.813976, 4.57337200000012], [18.816426, 4.573223], [18.819246000000135, 4.571606], [18.820476000000156, 4.57104], [18.822604000000183, 4.569273], [18.823586, 4.568916], [18.824888000000158, 4.568646], [18.824842, 4.568601], [18.825502000000142, 4.568295000000148], [18.825616528000012, 4.568203254000025], [18.826113910000117, 4.56912697000007], [18.828516139000044, 4.573588220000033], [18.83400683000002, 4.579079038000145], [18.83949760500002, 4.584569814000076], [18.84498846400004, 4.590060546000188], [18.85047916900004, 4.59463623500011], [18.85596994500014, 4.599211882000077], [18.861460789999967, 4.603787485000055], [18.86832422300006, 4.607562426000186], [18.87518772900006, 4.611337301000162], [18.882051198000113, 4.625064239000096], [18.88342388300009, 4.629525496000042], [18.884796585000174, 4.633986749000144], [18.886855610999987, 4.639134353999964], [18.888914667, 4.644281952000085], [18.896464461000107, 4.646341033], [18.90401429900004, 4.648400034000133], [18.927350094000076, 4.668304094000121], [18.936958951000065, 4.677912951000167], [18.93992950800009, 4.688524484000027], [18.93878741100019, 4.693513922000022], [18.93764529800012, 4.698503358000039], [18.942106536000097, 4.701248760000169], [18.94656780800011, 4.703994134000141], [18.95506534600014, 4.709966921000046], [18.95909624600006, 4.714839485000141], [18.963127202000123, 4.719712025000092], [18.967158215000154, 4.724584541000183], [18.972992129000033, 4.728702647000034], [18.98500319500016, 4.737281987000017], [18.99118035700019, 4.74174321400011], [18.996457244999988, 4.74477488600013], [19.001734180000085, 4.747806517000072], [19.007652683000117, 4.756842846000154], [19.007309512000063, 4.762333622000085], [19.006986049000034, 4.7675090030001], [19.006966336000062, 4.767824397000084], [19.009426641000175, 4.773764979000077], [19.01188698800007, 4.779705550000187], [19.016147619000094, 4.790805369000111], [19.017947886000115, 4.795964620000063], [19.022752300000093, 4.79802367800005], [19.027556743000105, 4.800082702000111], [19.031903520000185, 4.806946200000084], [19.036250384000084, 4.813809669000136], [19.040597335000143, 4.820673109000154], [19.044257795000135, 4.825935123000136], [19.047918312000093, 4.831197116000055], [19.05157888499997, 4.836459088000026], [19.059815048000132, 4.856363148000014], [19.061187718000042, 4.862311492000174], [19.062560412000096, 4.868259832000092], [19.06393313000018, 4.874208168000052], [19.068051172000025, 4.880728477000105], [19.072169293000115, 4.887248759000158], [19.075143410000067, 4.893197113000099], [19.07811758000014, 4.899145453000187], [19.081091802, 4.90509377900014], [19.085331296000163, 4.911526312999968], [19.089570871000035, 4.917958818000102], [19.093810528000063, 4.924391295000078], [19.099637299000165, 4.92871161000005], [19.105464144999985, 4.933031873000175], [19.111291067000025, 4.937352084000111], [19.118497789000173, 4.94059981900017], [19.12570458100015, 4.943847475000155], [19.132911443000125, 4.947095052000179], [19.140804268000068, 4.947736789000032], [19.141815706000102, 4.947819013000128], [19.141214, 4.959949], [19.125242000000128, 4.974679], [19.109444, 4.99222], [19.108050000000162, 4.998049], [19.104721, 5.002492000000188], [19.0991590000001, 5.00805], [19.093611, 5.013048], [19.09193900000014, 5.017498000000103], [19.092218000000116, 5.023326], [19.093326000000104, 5.026388000000111], [19.09443400000015, 5.03388], [19.093609, 5.039995], [19.090827000000104, 5.045553], [19.08472, 5.050275000000113], [19.067492, 5.061105], [19.054162000000133, 5.069437], [19.049997000000133, 5.075546000000145], [19.048326, 5.081657], [19.046659000000147, 5.089998], [19.044718000000103, 5.10055100000011], [19.041102, 5.109436], [19.035272000000134, 5.116937000000178], [19.02471500000013, 5.12416], [19.006386, 5.138048], [18.99582900000013, 5.151111000000128], [18.988887, 5.16666], [18.985272000000123, 5.187216], [18.986663, 5.208047], [18.992494, 5.236106], [19.011381000000142, 5.282491000000164], [19.018034000000114, 5.310098000000153], [19.002234, 5.328725], [18.991205, 5.367457000000172], [18.99416300000013, 5.409436], [18.9788870000001, 5.434998000000121], [18.96888300000012, 5.440551], [18.959166000000153, 5.443332000000112], [18.9511040000001, 5.445831000000112], [18.93638300000015, 5.456109], [18.91027700000018, 5.474720000000104], [18.89388300000013, 5.492491], [18.886942000000147, 5.501383], [18.88166, 5.509162], [18.881104000000107, 5.531660000000102], [18.88305, 5.56611], [18.88082400000019, 5.591941000000133], [18.87943900000016, 5.608604000000184], [18.875548, 5.619714], [18.870828000000188, 5.628050000000144], [18.865549, 5.632219000000134], [18.857221, 5.635831], [18.852808, 5.640710000000126], [18.84841800000015, 5.6394820000001], [18.848034000000155, 5.63915], [18.816105000000164, 5.642214], [18.780829, 5.645000000000152], [18.763054, 5.648329000000103], [18.754160000000127, 5.652494000000104], [18.74527000000012, 5.654438], [18.72277700000012, 5.653049000000181], [18.703327, 5.65388600000017], [18.690827000000183, 5.656666000000143], [18.68027300000017, 5.662213], [18.66860400000013, 5.67527], [18.65722, 5.692218], [18.646665000000155, 5.71055], [18.633878000000152, 5.730964000000142], [18.623326000000134, 5.738607000000115], [18.6177780000001, 5.736385000000155], [18.6125, 5.734161], [18.61388600000015, 5.725276], [18.616379, 5.714714000000129], [18.617776000000106, 5.701658], [18.615829000000133, 5.687215], [18.61222000000015, 5.670831000000135], [18.60888400000016, 5.66194], [18.60333, 5.65138300000018], [18.596387, 5.644998000000157], [18.576941, 5.635275], [18.545276, 5.622773000000166], [18.530271, 5.61555], [18.51638700000018, 5.604436000000135], [18.502494000000183, 5.596104000000139], [18.482491000000152, 5.589441], [18.45916300000016, 5.584440000000143], [18.429994, 5.569999], [18.419719, 5.56222], [18.411665, 5.55972], [18.406935000000146, 5.559991000000139], [18.400831, 5.562772], [18.398049000000128, 5.566383], [18.396105, 5.574721000000125], [18.396657, 5.58305300000012], [18.397222000000113, 5.594999], [18.399158, 5.605554], [18.401379000000134, 5.618609], [18.397496, 5.634437000000162], [18.393327, 5.64305000000013], [18.385833000000105, 5.653326], [18.377496, 5.666109], [18.371943000000158, 5.679996], [18.370269, 5.686662], [18.373885, 5.696106], [18.378054, 5.69833], [18.38332600000018, 5.701108], [18.388884000000132, 5.703324], [18.393327, 5.706107000000145], [18.397216000000128, 5.708333], [18.398888000000113, 5.710553000000118], [18.402496, 5.716944], [18.40388000000013, 5.722219000000109], [18.403882000000124, 5.728604], [18.403332, 5.73166], [18.398881, 5.738325], [18.390824, 5.743331], [18.38027000000011, 5.748604], [18.36582600000014, 5.753332000000114], [18.34555500000016, 5.759159000000125], [18.318609, 5.759995000000174], [18.300274, 5.759442], [18.292218, 5.757221000000186], [18.285267, 5.752772000000107], [18.282218, 5.749439], [18.279163, 5.746666000000118], [18.275552, 5.745828], [18.271936, 5.747493000000134], [18.267497, 5.753326000000129], [18.26583200000016, 5.758602], [18.265552, 5.768051], [18.266109000000142, 5.778607], [18.264437, 5.787496], [18.263332, 5.791386000000102], [18.257497000000114, 5.797498], [18.249439, 5.801384], [18.239159, 5.804721000000143], [18.22722000000016, 5.804997], [18.20944400000019, 5.803328], [18.180823000000146, 5.799443], [18.147775, 5.797216], [18.141108, 5.795275000000174], [18.134714000000145, 5.792221], [18.131385, 5.790270000000135], [18.128327000000127, 5.788607], [18.123885000000143, 5.787773000000129], [18.118607, 5.790828], [18.109438000000125, 5.799714000000108], [18.103609, 5.805826], [18.095272, 5.811942], [18.086386, 5.814999], [18.078608, 5.814436000000171], [18.068602000000112, 5.810552000000143], [18.05943900000011, 5.805832], [18.050275, 5.800831000000187], [18.038884, 5.797775], [18.027769, 5.797221], [18.019721000000118, 5.80027200000012], [18.009995, 5.808329], [18.00694300000015, 5.812772000000166], [18.006108000000154, 5.818604], [18.00638700000013, 5.821936], [18.00860900000015, 5.834437], [18.005547, 5.850553000000161], [18.003606, 5.853608000000122], [17.998888000000136, 5.851935], [17.993053, 5.850548], [17.9875, 5.851382000000172], [17.9847180000001, 5.854161], [17.981939, 5.85749200000015], [17.9775, 5.86249400000014], [17.969439, 5.864994], [17.96138400000018, 5.866943], [17.942769, 5.876664000000176], [17.936102000000176, 5.881939000000159], [17.92610800000017, 5.891108000000145], [17.917219000000102, 5.897498], [17.906665, 5.904998], [17.893604000000153, 5.907497], [17.88110900000015, 5.904436000000146], [17.873332, 5.901106000000141], [17.853605000000186, 5.889994000000172], [17.845831000000146, 5.879995], [17.845366, 5.879157], [17.838883000000124, 5.867497000000185], [17.83110500000015, 5.854994], [17.82443700000016, 5.847772], [17.814714, 5.841107], [17.804437, 5.833884000000126], [17.79857500000014, 5.830651000000103], [17.751106, 5.80444400000016], [17.664438, 5.755272], [17.59888500000011, 5.716386000000114], [17.511937000000103, 5.71444200000019], [17.403602, 5.713324], [17.30329504600013, 5.723705331000076], [17.235363000000177, 5.730736], [17.176793443000065, 5.732053317000123], [17.175022474, 5.732093148000104], [17.17454, 5.732104000000163], [17.014443, 5.738880000000165], [17.012213, 5.743888], [17.009999, 5.748055], [17.00776900000011, 5.753054], [17.006106, 5.757770000000107], [17.003602000000114, 5.761938], [17.001108, 5.766106], [16.997772, 5.769996], [16.995268000000124, 5.774164000000155], [16.992494000000136, 5.778333], [16.989436, 5.781662], [16.986662, 5.786102], [16.98332500000015, 5.789441000000124], [16.980277, 5.793051], [16.97749400000015, 5.797491], [16.97527, 5.801658], [16.973048000000176, 5.806385000000148], [16.972771, 5.812498], [16.974714000000176, 5.818052], [16.978853000000186, 5.826619000000107], [16.978878089000034, 5.826712925000152], [16.980238, 5.831804000000147], [16.980632461000027, 5.833210885000085], [16.981777, 5.837293000000102], [16.98169087400015, 5.839510466000036], [16.981943, 5.845830000000149], [16.981908574000045, 5.846207328000105], [16.981386000000157, 5.851935], [16.98021022200004, 5.855259687000114], [16.980084, 5.855593], [16.978395, 5.858645], [16.954999, 5.852497], [16.948324000000184, 5.846381], [16.944159000000184, 5.840274], [16.94027, 5.835550000000126], [16.937769000000117, 5.832774], [16.93360200000012, 5.828882000000135], [16.925825, 5.827769], [16.912774, 5.826105], [16.894716000000187, 5.825551], [16.87305300000014, 5.824159000000122], [16.852497, 5.818883], [16.822219000000132, 5.805824], [16.800553, 5.794998], [16.779436, 5.792216], [16.763328, 5.797493], [16.75221500000015, 5.788883000000112], [16.745827, 5.778331000000151], [16.740553000000148, 5.771936], [16.726944000000174, 5.76166000000012], [16.688047, 5.741936], [16.681937, 5.733327], [16.67888100000016, 5.728606], [16.68166300000013, 5.71694100000019], [16.683605, 5.704718000000128], [16.679991, 5.697494000000177], [16.670274000000177, 5.686942000000158], [16.65944300000018, 5.678048], [16.64416, 5.671381000000167], [16.634166, 5.664717000000167], [16.62694100000016, 5.656942], [16.621104, 5.644994], [16.615270000000123, 5.630830000000117], [16.608326, 5.623606000000166], [16.596937, 5.61777700000016], [16.58555500000017, 5.614443000000165], [16.574437, 5.608604000000184], [16.566938, 5.599165], [16.561935000000176, 5.591382], [16.556383000000153, 5.584162], [16.554385, 5.577256], [16.548692, 5.567579], [16.517391, 5.554724], [16.514715, 5.568327000000124], [16.519721, 5.542493], [16.520269, 5.530825000000107], [16.518609, 5.51361], [16.509992000000125, 5.478324], [16.493881, 5.419163], [16.489717000000155, 5.402776000000188], [16.489437, 5.391381], [16.493882000000156, 5.378881], [16.502213, 5.365276], [16.51221700000019, 5.346105], [16.518881, 5.326102], [16.52388500000012, 5.299165], [16.524818, 5.274177903000066], [16.555550000000153, 5.287773], [16.57194, 5.297770000000128], [16.60777, 5.320549000000142], [16.642492, 5.346937], [16.690273, 5.380276000000151], [16.70083, 5.386938], [16.711107, 5.390554], [16.719714, 5.390276000000142], [16.728884000000107, 5.385277], [16.74194400000016, 5.377218], [16.752498000000116, 5.367494], [16.768051000000185, 5.354437], [16.788606, 5.346664000000146], [16.816381, 5.346383000000174], [16.838325000000168, 5.35083], [16.85861100000011, 5.35888000000017], [16.880554, 5.366110000000106], [16.892497, 5.371661], [16.906106, 5.373328000000129], [16.919160000000147, 5.370547], [16.932774000000165, 5.362493000000143], [16.960383584, 5.341197596000143], [16.97353239400013, 5.33233458899997], [16.99472, 5.318053], [17.035828, 5.289438000000132], [17.056943, 5.26804900000019], [17.074716000000137, 5.234438], [17.086660000000165, 5.208332], [17.10249700000014, 5.187214], [17.11611100000016, 5.17304600000017], [17.122217, 5.165269], [17.12111, 5.154993], [17.115551, 5.145554], [17.106110000000115, 5.139718], [17.095550000000173, 5.136661], [17.085553, 5.134713000000147], [17.068609, 5.131387000000132], [17.052771000000178, 5.12416], [17.043883, 5.116666000000123], [17.035554000000104, 5.108609000000172], [17.030269000000146, 5.102776000000176], [17.025831, 5.099164], [17.019163000000162, 5.097495], [17.009719000000132, 5.096385], [17.000548, 5.096106], [16.998053, 5.094161], [16.995829000000185, 5.092215000000181], [16.993886, 5.090548], [16.99416200000013, 5.086659000000168], [16.995826000000136, 5.082495], [16.998053, 5.079441], [17.021942, 5.046102000000189], [17.037498, 5.024164], [17.037945, 5.023006], [17.072788000000116, 5.015155], [17.08247, 5.024983], [17.10072, 5.021056000000158], [17.116688000000124, 5.024427], [17.13150800000011, 5.022356], [17.14643400000017, 5.014541], [17.152478, 5.004004], [17.158605, 4.993325], [17.1641580000001, 4.988054], [17.174162, 4.984721], [17.202216, 4.977215], [17.211104, 4.974717000000169], [17.219998, 4.971387000000163], [17.225548, 4.96777], [17.231661, 4.960553], [17.23638000000011, 4.951108], [17.2413820000001, 4.940270000000169], [17.24582900000013, 4.930826], [17.249995, 4.925831], [17.254995, 4.922776], [17.263882000000137, 4.919998], [17.282498000000146, 4.913606], [17.289992, 4.90972], [17.29416500000019, 4.901941000000136], [17.296382000000108, 4.893887], [17.298884, 4.884993000000122], [17.304716, 4.874721], [17.377775, 4.834159000000113], [17.390272, 4.828882000000135], [17.408880000000124, 4.82416], [17.417492, 4.823606], [17.42888500000015, 4.819443], [17.440828000000124, 4.813326000000188], [17.451665000000105, 4.807493], [17.458606, 4.800833000000182], [17.466944, 4.791936], [17.471110000000124, 4.785549000000174], [17.471664000000146, 4.779165], [17.47194100000013, 4.77111], [17.480825000000152, 4.761109], [17.489158, 4.756107], [17.500551, 4.749992], [17.507219000000134, 4.745548000000156], [17.511106, 4.739161], [17.51582800000017, 4.689441], [17.529997, 4.646665], [17.537214, 4.606942], [17.539721000000156, 4.584716], [17.548330000000135, 4.574165000000164], [17.556660000000136, 4.563885000000141], [17.55916500000012, 4.559158], [17.559992000000136, 4.553606000000173], [17.561663, 4.54471500000011], [17.57305600000018, 4.537498], [17.583609, 4.531938], [17.585887, 4.529255], [17.58971600000018, 4.524722], [17.602774, 4.522217], [17.611937, 4.52110800000014], [17.622216, 4.517221], [17.631381000000147, 4.511666000000162], [17.645832, 4.508603], [17.655915000000107, 4.509009], [17.658938, 4.513262], [17.6604880000001, 4.515917000000172], [17.66405900000018, 4.521639], [17.665370719000066, 4.523464297000146], [17.67138400000016, 4.527218000000119], [17.685273, 4.525829000000101], [17.694842, 4.524952], [17.709442000000138, 4.523606], [17.723329, 4.524159000000168], [17.735271, 4.527214000000129], [17.743883000000153, 4.532775000000186], [17.753327000000127, 4.537221000000159], [17.759997000000112, 4.539157000000102], [17.769996000000162, 4.537772000000132], [17.780274, 4.529437], [17.784439, 4.526104000000146], [17.792217, 4.52110400000015], [17.804165, 4.51860900000014], [17.813602000000174, 4.5166660000001], [17.820271, 4.513603], [17.824161, 4.50916], [17.826944, 4.48833], [17.829165, 4.478327000000149], [17.8324980000001, 4.46944], [17.839441, 4.464995], [17.847216000000174, 4.46416], [17.850825, 4.466387], [17.85443600000019, 4.468885000000171], [17.85972, 4.471105], [17.86694, 4.473327], [17.873326000000134, 4.471658000000104], [17.881107, 4.467769], [17.887775000000147, 4.462493000000109], [17.894718000000125, 4.456104000000153], [17.901111000000128, 4.449717000000135], [17.904719, 4.451384], [17.90888100000012, 4.456942], [17.9149910000001, 4.465276000000188], [17.920551000000103, 4.471380000000181], [17.925551, 4.474441000000127], [17.932213000000104, 4.476936], [17.936385000000143, 4.477777000000117], [17.940824, 4.478049], [17.94999900000016, 4.478608000000122], [17.957216, 4.477775000000122], [17.968882, 4.47555], [17.99082900000019, 4.468883000000176], [17.993329, 4.466108], [18.00277100000011, 4.46388300000018], [18.014442000000145, 4.462769], [18.030554, 4.462774], [18.043054000000154, 4.46221700000018], [18.04221500000017, 4.448605000000157], [18.043879000000175, 4.443882000000144], [18.04944300000011, 4.439721000000134], [18.061941, 4.436661], [18.078333, 4.441381]]]}}]}