{"type": "FeatureCollection", "features": [{"type": "Feature", "properties": {"entity_id": "cf-p-lobaye-v1", "name_fr": "Lobaye"}, "geometry": {"type": "Polygon", "coordinates": [[[17.355621, 3.646530000000155], [17.36444352700005, 3.620278760000076], [17.366958, 3.612797], [17.367190283000127, 3.612688263000052], [17.369130000000155, 3.61643], [17.372903879000035, 3.62372803400018], [17.376677818000076, 3.631026051000106], [17.38045181800004, 3.638324050999984], [17.384225879000155, 3.645622034000155], [17.388, 3.65292], [17.39110498499997, 3.657285006000052], [17.394210000000157, 3.66165], [17.39971997600003, 3.665550017000101], [17.40523000000013, 3.66945], [17.41238593000014, 3.671638115000064], [17.419541895000066, 3.673826173000066], [17.42669789500013, 3.676014173000112], [17.433853930000055, 3.678202115000147], [17.44101000000012, 3.68039], [17.446064962000037, 3.687050015000182], [17.451120000000117, 3.693710000000124], [17.45719, 3.696800000000167], [17.461910000000103, 3.699200000000133], [17.467984987000136, 3.701140021000185], [17.474060000000122, 3.70308000000017], [17.482880005000084, 3.70259504400002], [17.4917, 3.70211], [17.49913504200009, 3.697025032000113], [17.506570000000124, 3.69194], [17.51550335200011, 3.690993423000123], [17.524436686000115, 3.690046757000118], [17.533370000000104, 3.6891], [17.538520008999967, 3.687475015000189], [17.54367, 3.68585], [17.54939, 3.681], [17.553495027, 3.675120010000114], [17.5576, 3.669240000000116], [17.563755011000183, 3.667575021000118], [17.569910000000107, 3.66591000000011], [17.57821, 3.663660000000107], [17.582895014000144, 3.661000012000102], [17.587580000000173, 3.658340000000123], [17.59261000000015, 3.65349], [17.5951150140001, 3.648535004000109], [17.59762, 3.6435800000001], [17.606320000000153, 3.64125], [17.65328, 3.63904], [17.661397485000123, 3.639612610000142], [17.6695149790001, 3.640185147000182], [17.677632485000117, 3.640757610000037], [17.68575, 3.64133], [17.687660000000164, 3.64146], [17.69475, 3.639140000000111], [17.70092, 3.63428000000016], [17.70505, 3.6345], [17.710253292000118, 3.638090030000114], [17.715456625000115, 3.641680030000146], [17.72066000000018, 3.645270000000153], [17.7268549800001, 3.648245022000083], [17.733050000000162, 3.65122], [17.7383200000001, 3.65028], [17.74449, 3.646120000000167], [17.74517, 3.64312], [17.7589, 3.638940000000105], [17.766000024000107, 3.637937584000099], [17.77310003100007, 3.636935112000117], [17.780200024000123, 3.635932584000102], [17.787300000000187, 3.634930000000111], [17.78959, 3.6317], [17.79576, 3.62915], [17.79823000000016, 3.62914000000012], [17.803870000000188, 3.629125018000138], [17.80951, 3.629110000000139], [17.816600000000108, 3.62678000000011], [17.822785, 3.626760021000109], [17.82897, 3.626740000000154], [17.83332, 3.62328], [17.835590030000162, 3.617286673000024], [17.83786003, 3.611293339999975], [17.8401300000001, 3.6053], [17.84018666700007, 3.59924333400005], [17.840243334000036, 3.593186667000111], [17.840300000000127, 3.587130000000172], [17.842465010000183, 3.582980003000102], [17.84463000000011, 3.57883], [17.845060004000118, 3.571005001000117], [17.84549, 3.563180000000102], [17.84799, 3.55695], [17.850840012, 3.552915005000102], [17.85369, 3.548880000000111], [17.855340009000088, 3.544065001999968], [17.85699000000011, 3.53925], [17.85914, 3.532980000000123], [17.8667, 3.533190000000104], [17.87160660800015, 3.53877336000005], [17.87651327500015, 3.544356693000054], [17.881420000000162, 3.54994], [17.885899983000172, 3.553490011000065], [17.89038, 3.55704], [17.89633999300014, 3.558170019000045], [17.9023, 3.5593], [17.919300000000135, 3.573520000000144], [17.92989, 3.58982], [17.93127999300009, 3.594415001000129], [17.93267, 3.59901], [17.937720000000127, 3.602450000000147], [17.94388000000015, 3.59978], [17.945935011000074, 3.594770003], [17.94799, 3.589760000000183], [17.949340000000177, 3.583080000000109], [17.95755, 3.57131], [17.969430000000102, 3.560450000000174], [17.98498000000012, 3.5535], [17.99574, 3.55116], [17.99873, 3.55391], [17.999153326000055, 3.562230001999978], [17.999576659000184, 3.570550002000061], [18.000000000000114, 3.578870000000109], [18.004550004, 3.578130011000098], [18.015050000000144, 3.577430000000163], [18.01953500800016, 3.57574001100005], [18.024020000000178, 3.574050000000113], [18.03757, 3.570470000000171], [18.048810000000174, 3.56825], [18.053604987000142, 3.570710013000053], [18.05840000000012, 3.573170000000118], [18.064574993000065, 3.574250021000012], [18.07075, 3.575330000000122], [18.078900016999967, 3.573435036000035], [18.08705, 3.57154], [18.09308333400014, 3.571510040000078], [18.09911666700009, 3.571480040000097], [18.10515, 3.57145], [18.111273357000186, 3.569656708000025], [18.117396690000135, 3.567863374000183], [18.123520000000156, 3.56607], [18.128465012, 3.563805013000035], [18.13341, 3.56154], [18.13905502500006, 3.557440018000136], [18.1447, 3.55334], [18.148625018000075, 3.54911000900006], [18.15255, 3.54488], [18.156183379000083, 3.539076682000086], [18.159816712000065, 3.53327334800008], [18.163450000000125, 3.52747], [18.16625000000016, 3.52013], [18.1674433500001, 3.513693336000017], [18.16863668299999, 3.507256669000128], [18.16983, 3.50082], [18.176110000000108, 3.48820000000012], [18.1805, 3.48409], [18.188983578000148, 3.481172209000135], [18.18899000000016, 3.48117], [18.214860000000158, 3.48504000000014], [18.219764988000065, 3.487265013000126], [18.22467, 3.489490000000103], [18.23154, 3.4907], [18.24155000000013, 3.50044], [18.24289000000016, 3.504590000000178], [18.24630000000019, 3.5083], [18.24992, 3.514090000000181], [18.259750000000167, 3.54938], [18.26261, 3.56437000000011], [18.263316655000153, 3.572276669000189], [18.264023320999968, 3.580183335000129], [18.2647300000001, 3.58809], [18.26768, 3.59157], [18.27455, 3.59323], [18.280855004000045, 3.592585022000151], [18.28716, 3.59194], [18.29370001400008, 3.590035024000031], [18.30024, 3.588130000000149], [18.30873, 3.58704], [18.310566883000035, 3.587726549000081], [18.31376, 3.588920000000144], [18.32562, 3.596840000000157], [18.32948998600017, 3.600205008000046], [18.33336, 3.603570000000104], [18.3393, 3.60638], [18.34594, 3.60758], [18.352725030999977, 3.60337002600005], [18.35951000000017, 3.59916], [18.366395011000066, 3.59771502600006], [18.373280000000136, 3.59627], [18.379256699, 3.593780039000023], [18.38523336600008, 3.591290039000057], [18.39121, 3.588800000000163], [18.396967656000186, 3.584011948000125], [18.39696765700012, 3.584011948000125], [18.40595000000019, 3.57786], [18.41053, 3.57790000000017], [18.41345, 3.58689], [18.41293, 3.59472], [18.413474997000094, 3.599330000000123], [18.414020000000164, 3.60394], [18.41971, 3.60904], [18.42591, 3.60724], [18.431550023000113, 3.603485018000185], [18.43719, 3.59973], [18.44361, 3.598630000000128], [18.44863000000015, 3.601200000000119], [18.453860000000134, 3.607680000000187], [18.45448999500013, 3.615625001000012], [18.455120000000136, 3.62357], [18.461290000000133, 3.62615], [18.4679000000001, 3.63172], [18.471624969000175, 3.639230008000084], [18.475350000000105, 3.64674], [18.47853498900008, 3.649985006000179], [18.48172000000011, 3.653230000000121], [18.48676, 3.65327], [18.490900000000124, 3.65169], [18.49551502600002, 3.646655012000167], [18.500130000000127, 3.64162000000016], [18.504753391000122, 3.63597669100011], [18.509376724000163, 3.630333358000087], [18.514, 3.62469], [18.52121341000003, 3.619830058000048], [18.528426743000068, 3.614970058000097], [18.53564000000017, 3.610110000000134], [18.539930033000132, 3.603120011000101], [18.54422, 3.596130000000187], [18.54588501600017, 3.58728000200017], [18.54755, 3.578430000000139], [18.55132, 3.563490000000172], [18.5583, 3.54904], [18.563025022999966, 3.544585012000027], [18.56775, 3.54013], [18.57156501900016, 3.535435008000036], [18.57538, 3.53074], [18.57852758000007, 3.522765018000143], [18.581675106999967, 3.514790023999979], [18.584822580000093, 3.506815018000054], [18.58797, 3.498840000000143], [18.58950000900012, 3.493095002000132], [18.59103000000016, 3.487350000000163], [18.59011, 3.48734], [18.595, 3.47702], [18.599600000000123, 3.47383], [18.60373, 3.47271000000012], [18.610530005000044, 3.472373382000171], [18.6173300050001, 3.472036716], [18.62413, 3.4717], [18.62508316600008, 3.471646950000093], [18.625386469000034, 3.481957736000027], [18.624309759000084, 3.48716186200005], [18.62323303800008, 3.492365987000142], [18.619105659000127, 3.499364648000039], [18.61497821800009, 3.506363289999967], [18.608519525000133, 3.522466046999966], [18.60580883700004, 3.534470522000163], [18.60580883700004, 3.541828103000114], [18.60580883700004, 3.547636720000128], [18.60580883700004, 3.553445337000142], [18.606776934000095, 3.559253955000031], [18.607745042999966, 3.565062571000169], [18.607357805000106, 3.572226533000105], [18.606970561000026, 3.579390493000119], [18.60600246300004, 3.584424629000068], [18.605034355000043, 3.589458763000039], [18.603872632000105, 3.598752550000142], [18.603485391000163, 3.604561167000156], [18.605034355000043, 3.613467713000034], [18.6046471140001, 3.621599777000029], [18.60251729900017, 3.626633914000081], [18.60038746099997, 3.631668046000073], [18.600000220000027, 3.636314940000148], [18.59806376800003, 3.644643345000077], [18.596127281000122, 3.652971745000116], [18.594190758000025, 3.661300139], [18.59225419900008, 3.669628527000043], [18.590942720000044, 3.691923672000087], [18.591411103000155, 3.696701203000089], [18.591879490999986, 3.701478734000034], [18.590962080000054, 3.708558408000158], [18.590044654000167, 3.715638078999973], [18.59002530200013, 3.720923781000181], [18.590005949000044, 3.726209482000058], [18.58894511000011, 3.734886914000072], [18.587884250000116, 3.743564342000184], [18.58863824800011, 3.751295868000057], [18.58939225900008, 3.759027391000188], [18.590146284000014, 3.766758913000047], [18.592996107000033, 3.773796011], [18.59584597600019, 3.780833099000176], [18.598695890999977, 3.787870176000013], [18.601545852000186, 3.794907243000068], [18.60608679100011, 3.802570239000147], [18.610627811000143, 3.810233210000092], [18.615168911000183, 3.817896155000085], [18.61432399100005, 3.825176259000045], [18.613479056000074, 3.83245636200013], [18.612634108000123, 3.839736462000133], [18.611789144, 3.847016560000156], [18.610944167000184, 3.854296656000145], [18.611802079000142, 3.861503302000074], [18.612426710000022, 3.866750238000066], [18.599138, 3.869331000000102], [18.576546, 3.881879], [18.52944, 3.90805], [18.514163, 3.905269], [18.50648, 3.904366], [18.502677, 3.90644], [18.497216, 3.90972], [18.475826, 3.926941000000113], [18.464722, 3.939992], [18.46527, 3.948605], [18.46722000000011, 3.954720000000123], [18.464159000000166, 3.962499], [18.455269, 3.969716000000119], [18.44749000000013, 3.969442000000186], [18.437213000000156, 3.971662], [18.429161, 3.981666000000132], [18.41611, 3.980826], [18.414903, 3.982466], [18.409994, 3.98916], [18.404996, 4.002774000000102], [18.400554000000113, 4.020277], [18.392218000000128, 4.028883000000121], [18.377772, 4.039158000000157], [18.36249800000013, 4.049166], [18.350551000000166, 4.05916], [18.338327, 4.078603000000101], [18.335829000000103, 4.092216], [18.335550000000126, 4.098603], [18.339164000000153, 4.106942000000117], [18.347216, 4.128883], [18.349721, 4.138609000000145], [18.347499, 4.149159000000111], [18.342773, 4.165274000000181], [18.33888700000017, 4.184439000000111], [18.338325, 4.198324], [18.34194200000013, 4.206943000000138], [18.34471400000018, 4.215547], [18.34444100000013, 4.223325], [18.338332, 4.231381000000113], [18.33388500000018, 4.243332], [18.322773, 4.268047], [18.307783, 4.287631], [18.2868, 4.303928], [18.28659716200019, 4.304147470000089], [18.26744445800017, 4.324870567000062], [18.267335000000173, 4.324989000000187], [18.254438000000107, 4.328327000000172], [18.242221, 4.328886], [18.229438000000187, 4.329437000000155], [18.22055, 4.332221000000118], [18.206384000000128, 4.337774], [18.197491, 4.343602000000146], [18.192213, 4.348882], [18.18583000000018, 4.358882000000165], [18.17694, 4.380275], [18.171108000000117, 4.399442], [18.161936, 4.420276000000115], [18.149991000000114, 4.438882], [18.135271, 4.452496], [18.120274000000165, 4.462497], [18.10611, 4.458881], [18.096662, 4.451106000000152], [18.082347, 4.443514000000107], [18.078333, 4.441381], [18.061941, 4.436661], [18.04944300000011, 4.439721000000134], [18.043879000000175, 4.443882000000144], [18.04221500000017, 4.448605000000157], [18.043054000000154, 4.46221700000018], [18.030554, 4.462774], [18.014442000000145, 4.462769], [18.00277100000011, 4.46388300000018], [17.993329, 4.466108], [17.99082900000019, 4.468883000000176], [17.968882, 4.47555], [17.957216, 4.477775000000122], [17.94999900000016, 4.478608000000122], [17.940824, 4.478049], [17.936385000000143, 4.477777000000117], [17.932213000000104, 4.476936], [17.925551, 4.474441000000127], [17.920551000000103, 4.471380000000181], [17.9149910000001, 4.465276000000188], [17.90888100000012, 4.456942], [17.904719, 4.451384], [17.901111000000128, 4.449717000000135], [17.894718000000125, 4.456104000000153], [17.887775000000147, 4.462493000000109], [17.881107, 4.467769], [17.873326000000134, 4.471658000000104], [17.86694, 4.473327], [17.85972, 4.471105], [17.85443600000019, 4.468885000000171], [17.850825, 4.466387], [17.847216000000174, 4.46416], [17.839441, 4.464995], [17.8324980000001, 4.46944], [17.829165, 4.478327000000149], [17.826944, 4.48833], [17.824161, 4.50916], [17.820271, 4.513603], [17.813602000000174, 4.5166660000001], [17.804165, 4.51860900000014], [17.792217, 4.52110400000015], [17.784439, 4.526104000000146], [17.780274, 4.529437], [17.769996000000162, 4.537772000000132], [17.759997000000112, 4.539157000000102], [17.753327000000127, 4.537221000000159], [17.743883000000153, 4.532775000000186], [17.735271, 4.527214000000129], [17.723329, 4.524159000000168], [17.709442000000138, 4.523606], [17.694842, 4.524952], [17.685273, 4.525829000000101], [17.67138400000016, 4.527218000000119], [17.665370719000066, 4.523464297000146], [17.66405900000018, 4.521639], [17.6604880000001, 4.515917000000172], [17.658938, 4.513262], [17.655915000000107, 4.509009], [17.645832, 4.508603], [17.631381000000147, 4.511666000000162], [17.622216, 4.517221], [17.611937, 4.52110800000014], [17.602774, 4.522217], [17.58971600000018, 4.524722], [17.585887, 4.529255], [17.583609, 4.531938], [17.57305600000018, 4.537498], [17.561663, 4.54471500000011], [17.559992000000136, 4.553606000000173], [17.55916500000012, 4.559158], [17.556660000000136, 4.563885000000141], [17.548330000000135, 4.574165000000164], [17.539721000000156, 4.584716], [17.537214, 4.606942], [17.529997, 4.646665], [17.51582800000017, 4.689441], [17.511106, 4.739161], [17.507219000000134, 4.745548000000156], [17.500551, 4.749992], [17.489158, 4.756107], [17.480825000000152, 4.761109], [17.47194100000013, 4.77111], [17.471664000000146, 4.779165], [17.471110000000124, 4.785549000000174], [17.466944, 4.791936], [17.458606, 4.800833000000182], [17.451665000000105, 4.807493], [17.440828000000124, 4.813326000000188], [17.42888500000015, 4.819443], [17.417492, 4.823606], [17.408880000000124, 4.82416], [17.390272, 4.828882000000135], [17.377775, 4.834159000000113], [17.304716, 4.874721], [17.298884, 4.884993000000122], [17.296382000000108, 4.893887], [17.29416500000019, 4.901941000000136], [17.289992, 4.90972], [17.282498000000146, 4.913606], [17.263882000000137, 4.919998], [17.254995, 4.922776], [17.249995, 4.925831], [17.24582900000013, 4.930826], [17.2413820000001, 4.940270000000169], [17.23638000000011, 4.951108], [17.231661, 4.960553], [17.225548, 4.96777], [17.219998, 4.971387000000163], [17.211104, 4.974717000000169], [17.202216, 4.977215], [17.174162, 4.984721], [17.1641580000001, 4.988054], [17.158605, 4.993325], [17.152478, 5.004004], [17.14643400000017, 5.014541], [17.13150800000011, 5.022356], [17.116688000000124, 5.024427], [17.10072, 5.021056000000158], [17.08247, 5.024983], [17.072788000000116, 5.015155], [17.037945, 5.023006], [17.042775000000177, 5.010549], [17.04360600000018, 5.002491000000134], [17.042497, 4.993607000000111], [17.039993, 4.985549], [17.035829, 4.977217], [17.033324000000164, 4.971664000000146], [17.0274950000001, 4.966944], [17.018885, 4.963607], [17.004719, 4.959437], [16.993048000000158, 4.957492000000116], [16.986386, 4.957214], [16.977774, 4.956381], [16.97, 4.952217000000132], [16.964995, 4.948607], [16.958329, 4.938047], [16.953885, 4.928883], [16.94055200000014, 4.922493], [16.924164, 4.91638300000011], [16.917219000000102, 4.911936], [16.914719, 4.904438000000141], [16.906106, 4.899715000000185], [16.883048, 4.890549], [16.863328, 4.878885], [16.840398229000186, 4.876290404000031], [16.840222, 4.871135000000152], [16.840322000000185, 4.868407], [16.83444, 4.866666], [16.835, 4.860552], [16.8358300000001, 4.854166000000134], [16.836383, 4.848603], [16.837774, 4.843047000000126], [16.839717, 4.83805], [16.838332, 4.832773], [16.835554, 4.828603000000157], [16.830555000000118, 4.819999], [16.83277800000019, 4.815272000000107], [16.835552, 4.811105000000111], [16.836385, 4.805831000000182], [16.835548, 4.799721], [16.8341640000001, 4.794443000000115], [16.83277, 4.788886], [16.832222, 4.782775000000129], [16.831387, 4.776944000000128], [16.831386000000123, 4.769990000000121], [16.83055, 4.763880000000142], [16.831381, 4.757774], [16.83194200000014, 4.751660000000129], [16.83194200000014, 4.744995], [16.831106, 4.738884000000155], [16.829722000000118, 4.733607000000177], [16.828885000000128, 4.727216], [16.829717, 4.721381], [16.8302690000001, 4.715276000000131], [16.83166, 4.709720000000118], [16.833333, 4.704996], [16.835276000000135, 4.70027], [16.836659000000168, 4.694995000000176], [16.83805200000012, 4.689719], [16.839443, 4.684163000000126], [16.8399950000001, 4.678049000000158], [16.841386000000114, 4.672493000000145], [16.841942, 4.668052], [16.843325000000107, 4.662496], [16.844997, 4.657771], [16.846941000000186, 4.653055000000165], [16.851106000000186, 4.650277000000187], [16.855271000000187, 4.647499], [16.862769, 4.641104], [16.86916, 4.634721], [16.876107, 4.627777000000151], [16.88138300000014, 4.61944300000016], [16.884166000000164, 4.615277], [16.885829000000115, 4.610552], [16.888603000000103, 4.606385000000103], [16.890555000000177, 4.60194], [16.893329000000165, 4.597773], [16.896102, 4.593606], [16.898054000000116, 4.588881], [16.899996, 4.584165000000155], [16.902218, 4.579439], [16.903881000000183, 4.574443], [16.905825, 4.569998], [16.908607, 4.565831], [16.91138000000018, 4.561664], [16.913883000000112, 4.557769000000178], [16.916665, 4.553603], [16.922493, 4.546109000000172], [16.924436, 4.541384], [16.926657000000148, 4.536658000000102], [16.927218, 4.530553], [16.927217, 4.523608], [16.927769000000126, 4.517494], [16.929161, 4.512499000000162], [16.936658, 4.506105000000105], [16.941103, 4.504158000000132], [16.948607000000152, 4.500548], [16.953332000000103, 4.498609], [16.958326000000113, 4.496381], [16.96305100000012, 4.494442], [16.966665000000148, 4.491665000000125], [16.970828, 4.488887], [16.9749920000001, 4.486109000000113], [16.982498000000135, 4.479994], [16.985270000000128, 4.475828000000149], [16.990275, 4.467776], [16.993048000000158, 4.463609], [16.994438, 4.45805300000012], [16.99638000000016, 4.453328000000113], [16.99777, 4.447773], [16.999721, 4.443048], [17.002494000000127, 4.438881], [17.004718, 4.435276], [17.00666000000018, 4.430551], [17.009441, 4.426384], [17.010831000000167, 4.420829], [17.012773, 4.416104], [17.014163000000167, 4.410548], [17.016104000000155, 4.405272000000139], [17.017495000000167, 4.399997000000155], [17.019436000000155, 4.394991], [17.022217, 4.390824], [17.02472, 4.386939], [17.027492, 4.382772000000102], [17.033604, 4.374998000000119], [17.04027000000019, 4.368605000000173], [17.044442, 4.365827], [17.048886, 4.36360900000011], [17.055830000000128, 4.363608], [17.061103000000173, 4.364995], [17.067495, 4.364163000000133], [17.071387000000186, 4.361386], [17.073889, 4.357220000000154], [17.07444, 4.351106000000186], [17.074439, 4.344443], [17.07363700000019, 4.337438000000134], [17.058053, 4.336658], [17.032217, 4.337777], [17.003331, 4.340829], [16.987214, 4.346387000000163], [16.97888, 4.352214], [16.967497, 4.363329], [16.962769, 4.370829000000128], [16.95555300000018, 4.38083], [16.945824, 4.387221000000181], [16.936107, 4.391939], [16.923047, 4.399442], [16.90860400000014, 4.408603], [16.889437, 4.420272000000125], [16.87000000000012, 4.418051], [16.860548000000165, 4.413608000000124], [16.818052, 4.375272], [16.794164, 4.349440000000186], [16.778602, 4.336102], [16.769435000000158, 4.306381000000101], [16.762221000000125, 4.291106000000127], [16.751388000000134, 4.268605], [16.735128, 4.247553], [16.73527880000006, 4.24738079500014], [16.736995, 4.245421], [16.738884, 4.24361000000016], [16.743049, 4.241105000000175], [16.74722100000014, 4.238048], [16.754719, 4.231936], [16.759443, 4.229999], [16.763607, 4.227213], [16.769995000000108, 4.220272], [16.772769, 4.216106000000138], [16.775272, 4.21194], [16.778047000000186, 4.208325000000116], [16.779999, 4.203329], [16.781383000000176, 4.198054], [16.78304700000018, 4.193049], [16.78527, 4.188333000000114], [16.791936, 4.181382000000156], [16.796109, 4.178605], [16.800272, 4.175828000000138], [16.80499600000013, 4.173882], [16.812214, 4.167771000000187], [16.818881, 4.161109000000181], [16.825826000000177, 4.154166], [16.828329000000167, 4.149991], [16.8308320000001, 4.145826], [16.833606000000145, 4.14194], [16.834998, 4.136384], [16.836941, 4.131660000000181], [16.838884, 4.126663], [16.8408280000001, 4.122219], [16.84361, 4.118053], [16.846383, 4.114158000000145], [16.848886000000164, 4.109993000000145], [16.85138000000012, 4.105827], [16.854162, 4.101661000000149], [16.856105, 4.096936], [16.858887, 4.09277], [16.86166, 4.088604], [16.86444200000011, 4.084438], [16.870548000000156, 4.077217000000189], [16.876383000000146, 4.069716], [16.883049000000142, 4.062774000000161], [16.889993, 4.055831000000126], [16.89249500000011, 4.051665], [16.894998, 4.047771000000125], [16.897771, 4.043605000000184], [16.900273, 4.039440000000184], [16.902496000000156, 4.034995], [16.904998, 4.030829], [16.90722, 4.026104], [16.909163, 4.021388000000115], [16.911105000000134, 4.016383], [16.91332700000015, 4.011658000000125], [16.914161, 4.006104000000107], [16.916103000000135, 4.001388], [16.918324, 3.996102000000121], [16.920276000000115, 3.991387], [16.923048000000108, 3.987221], [16.925829, 3.983055000000149], [16.933324, 3.976942], [16.936935000000176, 3.973606], [16.94110600000016, 3.97083], [16.945268, 3.968053000000168], [16.9525, 3.961661000000106], [16.95999400000011, 3.955549000000133], [16.96665800000011, 3.948607], [16.970549000000176, 3.945830000000115], [16.97611, 3.944443000000149], [16.983051, 3.944435000000169], [16.989161, 3.943607], [16.996102, 3.943608000000154], [17.002494000000127, 3.943602000000169], [17.009444000000144, 3.94360300000011], [17.016384, 3.943604000000164], [17.021665, 3.942217], [17.02777600000013, 3.941379], [17.033048, 3.939992], [17.037768000000142, 3.937774], [17.042499, 3.935828000000186], [17.04666, 3.933051], [17.050830000000133, 3.930274000000168], [17.054991, 3.927497], [17.058882, 3.924721], [17.066105000000107, 3.918609000000117], [17.070275, 3.916103], [17.076381, 3.909994000000154], [17.080551, 3.907217], [17.085272, 3.904999], [17.089999, 3.90222000000017], [17.09499200000016, 3.900824000000114], [17.099992000000157, 3.898886000000175], [17.105272, 3.897499000000153], [17.110831, 3.895830000000103], [17.116381000000104, 3.894442], [17.121940000000166, 3.89305300000018], [17.12749200000019, 3.892497000000162], [17.133881, 3.891658], [17.14055100000013, 3.891659000000118], [17.147491, 3.891659000000118], [17.153609000000188, 3.890830000000108], [17.159159, 3.889442], [17.16416, 3.888054], [17.169159, 3.885827], [17.173049000000162, 3.883050000000139], [17.177217, 3.879721000000188], [17.18193700000012, 3.877774], [17.186657, 3.875547000000154], [17.19193700000011, 3.874159], [17.197495, 3.87277], [17.202775000000145, 3.871382000000153], [17.209163, 3.870552], [17.213883000000124, 3.868605], [17.219163, 3.867217000000153], [17.224161, 3.864998], [17.22861, 3.86277100000018], [17.23333, 3.860824], [17.237499000000128, 3.858047000000113], [17.241380000000106, 3.855270000000189], [17.248888000000136, 3.849166], [17.253048, 3.846388], [17.257776, 3.844161], [17.261665, 3.841384], [17.265555000000177, 3.838608], [17.269714, 3.83583], [17.274443000000133, 3.833883], [17.279442, 3.832215], [17.284161, 3.829997], [17.28944, 3.828608], [17.29388, 3.826382], [17.299438, 3.824993], [17.304996000000187, 3.823603], [17.309715, 3.821665], [17.314443, 3.819438], [17.319162, 3.817499000000169], [17.323330000000112, 3.814713], [17.330548000000135, 3.808329000000128], [17.337217, 3.801666000000182], [17.339444, 3.796661000000142], [17.34555200000011, 3.78916], [17.348051000000112, 3.784994], [17.350831, 3.78138], [17.353609, 3.777214000000129], [17.356388000000152, 3.773048], [17.358608000000117, 3.768884000000128], [17.36610500000012, 3.76277000000016], [17.367776, 3.761663], [17.369161, 3.754717000000142], [17.370391442000084, 3.752768032000176], [17.371219000000167, 3.751537], [17.372147, 3.749989], [17.3733, 3.748161], [17.362047000000132, 3.734781000000169], [17.360455959000035, 3.73187013], [17.351024, 3.714614], [17.348839000000112, 3.690780000000132], [17.351219824999987, 3.66678082500016], [17.35152, 3.662559000000158], [17.355621, 3.646530000000155]]]}}]}