{"type": "FeatureCollection", "features": [{"type": "Feature", "properties": {"entity_id": "cf-p-ouaka-v1", "name_fr": "Ouaka"}, "geometry": {"type": "Polygon", "coordinates": [[[19.90221600000018, 5.083332], [19.890322, 5.079944], [19.879123000000106, 5.077212000000145], [19.856918483000072, 5.059560797000074], [19.856918483000072, 5.059560795999971], [19.85735016000001, 5.058149141000172], [19.872449792000054, 5.032067958000027], [19.884804037000038, 5.012850244000163], [19.898532587000147, 4.997547845000099], [19.91431695400007, 4.98745540900012], [19.93559370800017, 4.983337327000129], [19.94177080000003, 4.984938861000103], [19.94794792300013, 4.986540338000168], [19.954125075000036, 4.988141756000175], [19.96206721599998, 4.986377151999989], [19.97000931500014, 4.984612452000022], [19.97795137200012, 4.982847655000114], [19.985893386000157, 4.981082763000074], [19.993835358000013, 4.979317775000084], [20.001777288000085, 4.977552691000028], [20.009719175000043, 4.975787511000021], [20.015896393000048, 4.972355864000178], [20.022073547000105, 4.968924158000107], [20.02825063800003, 4.965492395000126], [20.034427664000077, 4.962060573000031], [20.039460958000177, 4.956569837000131], [20.044494168000085, 4.951079062000133], [20.04952729600012, 4.945588247000103], [20.051929526000094, 4.941126997000083], [20.05433172400012, 4.936665737000112], [20.06016570600019, 4.932890855000039], [20.06599962200005, 4.929115921000175], [20.071037376000163, 4.924867563000021], [20.076075066000044, 4.920619167000041], [20.087962722999976, 4.911957248000022], [20.106494090000183, 4.900975698000025], [20.131876757999976, 4.891596979000042], [20.139086521000138, 4.889137347000087], [20.146296232000054, 4.886677637000162], [20.153505890000076, 4.884217848999981], [20.160715496000137, 4.88175798400016], [20.16666391600006, 4.87718239100019], [20.172612256000036, 4.872606745000155], [20.178560515000015, 4.868031046000169], [20.182449898000073, 4.860710036000171], [20.186339198000155, 4.853389003000075], [20.19022841300017, 4.846067945000073], [20.208817268000132, 4.824747027000058], [20.221800371000143, 4.813123293000046], [20.24033173800018, 4.800769048], [20.25954945100011, 4.78978749800001], [20.266183403000127, 4.787566220000087], [20.27281731200003, 4.78534487800016], [20.279451179000148, 4.783123472], [20.287001676000045, 4.780156762000047], [20.294552107000072, 4.777189968000073], [20.30210247400015, 4.774223091000181], [20.30965277600012, 4.771256130999973], [20.317031066000084, 4.769368796000037], [20.32440931500014, 4.767481382000028], [20.331787524000163, 4.765593888000183], [20.339165692999984, 4.763706315000036], [20.34568603000008, 4.759245091000082], [20.35220628400009, 4.754783805000045], [20.355866854000112, 4.749750614000106], [20.359527371000013, 4.744717404000028], [20.36318783500002, 4.739684173], [20.367306101000054, 4.731859871000097], [20.371424275000095, 4.724035542000138], [20.37554235600004, 4.716211187000113], [20.37966034500016, 4.708386806000135], [20.383778242000062, 4.700562399000148], [20.389612225000064, 4.696444342], [20.395446140000047, 4.692326236000156], [20.399564250000083, 4.687521820000029], [20.403682302999982, 4.68271737900011], [20.40579997900005, 4.678217359000143], [20.40642771300014, 4.676883435999969], [20.40917307799998, 4.671049482000114], [20.419457682000086, 4.659514128000069], [20.42907713900007, 4.651831768000022], [20.434357997000063, 4.648105049000151], [20.439638799000022, 4.644378290000077], [20.446025919000192, 4.638496202000113], [20.452412934000108, 4.632614055000033], [20.454471992000094, 4.626436936000118], [20.456531015000053, 4.62025981000005], [20.457217377000177, 4.612481214000013], [20.457903724, 4.604702616000168], [20.458590056000162, 4.59692401500007], [20.45378562700006, 4.582510730000081], [20.451126812000098, 4.576866240000015], [20.448468037999987, 4.571221739000123], [20.447837372000038, 4.564915140000096], [20.447206718000075, 4.558608540000023], [20.452412934000108, 4.536525487000063], [20.45833288000017, 4.520738960000131], [20.45833288000017, 4.520738959000084], [20.478049000000112, 4.537772000000132], [20.500277, 4.546104], [20.510647943000038, 4.551498757000161], [20.532016899000098, 4.562785189000181], [20.547298371000068, 4.571392322000065], [20.553657794, 4.575207890000115], [20.558372519000102, 4.578626522000036], [20.561055000000124, 4.580666000000178], [20.577157647000092, 4.592997488000151], [20.578654, 4.594546], [20.611664000000133, 4.628603000000112], [20.635551000000135, 4.653606], [20.658332, 4.679163000000131], [20.674436000000185, 4.698885000000189], [20.687769, 4.719717], [20.698326000000122, 4.738887], [20.71110700000014, 4.751385000000141], [20.719715, 4.754995], [20.728328, 4.75694], [20.738378, 4.789873000000171], [20.750938000000133, 4.793425], [20.771738, 4.80116], [20.78082, 4.811124], [20.786258, 4.81896300000011], [20.793147, 4.825608000000159], [20.797167, 4.82931], [20.79768300000012, 4.829822], [20.801186, 4.831303000000105], [20.807216, 4.835005000000137], [20.81163800000013, 4.840585], [20.812097000000108, 4.841838000000109], [20.81318800000014, 4.844743000000108], [20.814853, 4.84702], [20.827884, 4.846163], [20.842528000000186, 4.838226], [20.850244, 4.838150000000155], [20.860578, 4.843891000000156], [20.867372, 4.844645000000185], [20.878568, 4.851583000000119], [20.891206000000125, 4.850980000000163], [20.90011200000015, 4.847972000000141], [20.906358, 4.85095200000012], [20.907777, 4.850832000000139], [20.907215, 4.862491], [20.904437, 4.8844390000001], [20.899998000000153, 4.904997], [20.895273, 4.924713000000111], [20.893609, 4.939442], [20.896105, 4.952775], [20.904649, 4.969114], [20.90582700000016, 4.971381000000179], [20.910549, 4.976666000000137], [20.922776000000113, 4.99333], [20.929165, 5.003333000000168], [20.934592, 5.012179], [20.938609, 5.02166], [20.93860800000016, 5.031388000000106], [20.93638, 5.041937000000189], [20.927215, 5.060271000000114], [20.914991, 5.080830000000162], [20.905828, 5.099436], [20.901939, 5.110829], [20.90054600000019, 5.121380000000102], [20.903052, 5.136108], [20.90916, 5.15027], [20.916109, 5.163048000000174], [20.926659, 5.174999000000128], [20.940826000000186, 5.184999], [20.946936000000164, 5.195272000000102], [20.9541660000001, 5.213885], [20.95860400000015, 5.231381000000113], [20.960276, 5.245826], [20.960278, 5.268602000000101], [20.960547000000133, 5.294713000000115], [20.96388100000013, 5.314721], [20.961664, 5.333325000000116], [20.95666, 5.358885], [20.953497, 5.379748000000177], [20.953328, 5.380830000000174], [20.95860400000015, 5.392495], [20.966937, 5.400826000000166], [20.974997, 5.406110000000183], [20.98194100000012, 5.411107000000129], [20.988331, 5.417217000000107], [20.988886, 5.419713], [20.989163000000133, 5.424164], [20.987491000000148, 5.42943600000018], [20.984158, 5.43916], [20.982219, 5.446387], [20.981386, 5.453882000000135], [20.982216000000165, 5.464159000000109], [20.983045000000175, 5.474436], [20.982497000000137, 5.479714000000172], [20.979162, 5.487495], [20.973885, 5.491381], [20.96805000000012, 5.493330000000185], [20.960278, 5.495549], [20.953050000000133, 5.49833000000018], [20.945551000000137, 5.502770000000169], [20.941108, 5.507494], [20.938886, 5.512493000000177], [20.93833100000012, 5.518051000000128], [20.939159, 5.523604], [20.940554, 5.526658000000111], [20.943324, 5.529717000000119], [20.948887000000127, 5.531938], [20.958608, 5.534999000000141], [20.975828, 5.535553000000164], [20.984721, 5.535832000000141], [20.997214000000156, 5.536938], [21.006383, 5.540552], [21.016106, 5.543881000000169], [21.023053, 5.548048000000165], [21.026379, 5.551937], [21.028605, 5.559715], [21.028047, 5.566658], [21.025827, 5.576102], [21.024437000000148, 5.583332000000155], [21.02332500000017, 5.586106000000143], [21.021388000000115, 5.592496], [21.020828000000165, 5.599997], [21.022772, 5.603054], [21.02721700000012, 5.609163], [21.030547000000126, 5.612493], [21.036661, 5.617496000000131], [21.041386000000102, 5.621108], [21.048887, 5.628327000000127], [21.05277400000017, 5.633325000000127], [21.056659, 5.642498000000103], [21.058045, 5.65055400000017], [21.05749500000013, 5.657217], [21.055276, 5.660552000000166], [21.052827, 5.663938], [21.049992, 5.668048], [21.04583300000013, 5.672221], [21.03943900000013, 5.67916200000019], [21.033051, 5.686661000000186], [21.029998, 5.69444], [21.029997, 5.70638], [21.031935, 5.712217000000123], [21.034716000000117, 5.716110000000185], [21.040826, 5.71888], [21.044999, 5.719439], [21.050272, 5.718609000000185], [21.057774000000165, 5.717216], [21.064717000000144, 5.716387000000168], [21.074163000000112, 5.712769000000151], [21.081109, 5.708881000000133], [21.08749300000011, 5.703604000000155], [21.095271, 5.697772], [21.1022210000001, 5.688333000000171], [21.106105000000127, 5.680276000000163], [21.11054700000011, 5.668885], [21.115272000000118, 5.659713000000181], [21.120269, 5.654163000000153], [21.123332000000175, 5.651666000000148], [21.129995, 5.649994], [21.134436000000164, 5.64971300000019], [21.141386, 5.650548000000185], [21.15138500000012, 5.652771], [21.156504481000127, 5.654233144000102], [21.159158, 5.654991000000109], [21.163886, 5.65638], [21.167498000000137, 5.659994000000154], [21.169434, 5.662213], [21.17221700000016, 5.665547], [21.17360600000012, 5.667772000000127], [21.17972, 5.671935000000133], [21.186936000000117, 5.670832000000189], [21.19333200000017, 5.668604], [21.201386, 5.661943000000122], [21.210272, 5.656666000000143], [21.219441, 5.650272], [21.22860500000013, 5.646665], [21.23527200000018, 5.645550000000185], [21.244438, 5.64721400000019], [21.252494000000127, 5.650833000000148], [21.258326, 5.654718], [21.268051000000185, 5.661663], [21.277495000000158, 5.666660000000149], [21.284165000000144, 5.66916], [21.295549, 5.673325], [21.301381000000106, 5.678046], [21.309719, 5.688602], [21.314436000000114, 5.695547], [21.32083000000017, 5.704721], [21.328884, 5.711385], [21.334163, 5.714717], [21.33776900000015, 5.716107], [21.341664, 5.715272000000141], [21.345551000000114, 5.713602000000151], [21.349993, 5.709443], [21.352218000000164, 5.704437000000155], [21.353608, 5.70110300000016], [21.356662, 5.694721], [21.358603000000187, 5.69166], [21.364161000000138, 5.689440000000104], [21.369442000000106, 5.691387], [21.37332400000014, 5.694995000000176], [21.378332000000114, 5.702213], [21.381389, 5.709166], [21.384444, 5.717494000000102], [21.388324000000125, 5.724158000000102], [21.390548, 5.72721700000011], [21.394436, 5.73138200000011], [21.398047, 5.730829], [21.402213000000188, 5.726107], [21.40388700000011, 5.722491], [21.40527200000014, 5.720273], [21.40860800000013, 5.712773000000141], [21.410546, 5.705549000000133], [21.417777, 5.696387], [21.42277, 5.694992], [21.428606, 5.693605000000105], [21.438328000000126, 5.692219], [21.444714, 5.691105000000164], [21.450827000000118, 5.687215], [21.454991, 5.679994000000136], [21.457778, 5.669165000000135], [21.459997, 5.659719000000166], [21.464441, 5.649438], [21.471942000000126, 5.640553], [21.477492000000154, 5.636104], [21.482223, 5.632221000000129], [21.485833000000184, 5.623605], [21.489436, 5.612777000000165], [21.48944, 5.598609000000124], [21.486107000000118, 5.593333], [21.483049, 5.589438000000143], [21.48166300000014, 5.582495000000165], [21.483883000000162, 5.576385000000187], [21.490556, 5.56555], [21.498881, 5.554158000000143], [21.506662000000176, 5.540552], [21.5102720000001, 5.529437], [21.511377, 5.524615], [21.512498, 5.519713000000138], [21.5127710000001, 5.505273000000159], [21.531659, 5.504993], [21.53805100000011, 5.50388], [21.54471800000016, 5.499996000000181], [21.54944300000011, 5.491665], [21.55444, 5.481938000000127], [21.5619420000001, 5.467492000000163], [21.570001, 5.46388], [21.577221, 5.46304600000019], [21.584994000000165, 5.463607], [21.600833, 5.467774], [21.61270800000011, 5.466757], [21.618888, 5.473604], [21.636381, 5.482217000000105], [21.640274, 5.485553], [21.643603, 5.49222], [21.647774, 5.502769000000114], [21.649997, 5.514715000000137], [21.652498, 5.525831], [21.656108000000188, 5.535828], [21.659164, 5.542776], [21.662769, 5.549161], [21.661941000000127, 5.597213], [21.685554, 5.619714], [21.719443, 5.644996], [21.742775, 5.663881], [21.752768000000174, 5.672497000000135], [21.762772, 5.676666], [21.771108, 5.678607000000113], [21.779996, 5.675547], [21.797771000000125, 5.6633250000001], [21.820548, 5.644999], [21.844441000000188, 5.621108], [21.853605, 5.614991], [21.858331000000135, 5.615824], [21.861381, 5.629721000000188], [21.866381, 5.640828000000113], [21.87777, 5.650825], [21.892492, 5.661384], [21.901105, 5.671664000000135], [21.903333, 5.680269000000123], [21.90388800000011, 5.694437000000164], [21.904164, 5.704718000000128], [21.906388, 5.721102], [21.91082500000016, 5.729159], [21.919159, 5.74138100000016], [21.924997000000133, 5.752492], [21.931101000000183, 5.778052000000116], [21.940271, 5.820826], [21.941939, 5.843331000000148], [21.938882, 5.8572190000001], [21.941385, 5.878887], [21.944996, 5.894443], [21.94462600000014, 5.894125], [21.94359100000014, 5.910542], [21.93671502300009, 5.925579384], [21.934718000000146, 5.927499], [21.926940000000172, 5.933048000000156], [21.918326, 5.939992], [21.913469, 5.946071000000131], [21.909441000000186, 5.951107], [21.905831, 5.962218000000178], [21.904993, 5.963325000000111], [21.89944000000014, 5.979716], [21.89638, 6.006666], [21.895549, 6.018326], [21.887768, 6.037217], [21.87665900000013, 6.042775], [21.859445000000107, 6.043882000000167], [21.839163, 6.042217], [21.826659, 6.043327], [21.818604, 6.049996000000135], [21.817777, 6.059161000000131], [21.819443, 6.076658], [21.821109, 6.090553000000114], [21.817777, 6.100271], [21.808331, 6.110552000000155], [21.801661, 6.120277000000101], [21.799160000000143, 6.131108], [21.79943900000012, 6.141104], [21.799712000000113, 6.151944000000128], [21.796666000000187, 6.164993000000152], [21.789713, 6.179996000000187], [21.775826000000166, 6.191944], [21.761106, 6.197775], [21.746382, 6.20472], [21.739436000000183, 6.210551], [21.736939000000177, 6.220269], [21.740825, 6.231388000000152], [21.747771, 6.241659000000141], [21.75999400000012, 6.257216], [21.776662, 6.276937000000146], [21.794442, 6.304719], [21.803047, 6.322772], [21.811657, 6.342496], [21.813325, 6.355276], [21.809163000000183, 6.369166000000178], [21.803054, 6.377773000000161], [21.794436, 6.392218], [21.784717, 6.406937], [21.77749100000011, 6.424158], [21.773886, 6.441385], [21.776387, 6.460552], [21.779441000000133, 6.481383], [21.781935, 6.502499000000114], [21.786659000000157, 6.512498], [21.790273, 6.523329], [21.794438, 6.538331000000142], [21.79527400000012, 6.544995000000142], [21.794991000000152, 6.55527700000016], [21.794442, 6.561106], [21.791382000000112, 6.568605000000161], [21.781102, 6.580272], [21.77832700000016, 6.581658000000175], [21.772214, 6.584715000000131], [21.75832400000013, 6.586665], [21.75083, 6.587216000000126], [21.736108000000172, 6.587497], [21.729167000000132, 6.585829000000103], [21.71444300000013, 6.58665800000017], [21.707773000000145, 6.587772000000143], [21.704160000000172, 6.589717000000121], [21.701105000000155, 6.593047000000126], [21.698609, 6.599164], [21.695827, 6.606103000000189], [21.69526900000011, 6.611386000000152], [21.693886, 6.619438], [21.691660000000127, 6.623602000000176], [21.684716, 6.629717], [21.681936, 6.630833000000166], [21.674441, 6.634160000000122], [21.66666000000015, 6.64027700000014], [21.664442000000122, 6.643048], [21.66194, 6.651386], [21.656659000000104, 6.663608], [21.65138400000012, 6.67166], [21.643884, 6.679993], [21.639439000000152, 6.686938000000168], [21.636102, 6.694721], [21.635828000000117, 6.706938], [21.635830000000112, 6.718325000000107], [21.63555, 6.732772000000125], [21.633611, 6.746108000000106], [21.62805200000014, 6.756385], [21.620275, 6.760275], [21.612221, 6.763054000000125], [21.607221, 6.768884], [21.606387, 6.780831], [21.607776000000115, 6.786384000000112], [21.610551, 6.789438000000189], [21.617216, 6.793607000000179], [21.619995000000188, 6.794998], [21.630827, 6.801383000000158], [21.639717, 6.805826], [21.643606, 6.81138], [21.644999, 6.817221000000188], [21.645831, 6.8227720000001], [21.646107, 6.831657], [21.641657000000123, 6.839438], [21.63833, 6.845272000000136], [21.637776, 6.851382000000115], [21.63888, 6.852499], [21.642214, 6.856938000000127], [21.646664, 6.861387], [21.651107, 6.867221], [21.653603, 6.870826], [21.653884000000176, 6.879998000000114], [21.65083, 6.892496], [21.648329000000103, 6.899442], [21.639997000000108, 6.911943], [21.636109, 6.917498000000137], [21.63277, 6.924995000000138], [21.631107000000156, 6.937214], [21.634164000000112, 6.950554000000125], [21.636940000000152, 6.960553], [21.637772, 6.969161], [21.635271, 6.980547], [21.625275, 6.98666500000013], [21.618328, 6.988327], [21.609437, 6.989998], [21.60444200000012, 6.991659], [21.603880000000117, 6.995828000000131], [21.60303954900013, 7.00021816900005], [21.602498, 7.003047], [21.601662000000147, 7.02472], [21.600829000000147, 7.052217], [21.598325, 7.069716], [21.59499200000016, 7.09777], [21.588884000000178, 7.126107], [21.582774, 7.143048], [21.57582600000012, 7.17610800000017], [21.57833200000016, 7.207495000000108], [21.580000000000155, 7.232494000000145], [21.583333, 7.266664000000105], [21.583047, 7.273608], [21.581941, 7.284715000000119], [21.575549, 7.296943], [21.565276, 7.307214], [21.553602000000183, 7.311664], [21.538601000000142, 7.311388], [21.528054, 7.308602000000178], [21.5183320000001, 7.305552], [21.509994000000177, 7.303605], [21.497496, 7.302213000000165], [21.476945, 7.303049], [21.461386000000175, 7.303605], [21.447213, 7.304160000000138], [21.430271000000175, 7.306938000000116], [21.420553, 7.313047], [21.414441000000124, 7.319437000000107], [21.409993000000156, 7.32888800000012], [21.40915800000016, 7.342216000000121], [21.411381, 7.352776000000119], [21.41360200000014, 7.36444100000017], [21.41610900000012, 7.380832000000112], [21.41999800000019, 7.410555], [21.423604000000125, 7.438609], [21.424998000000187, 7.459996], [21.423886, 7.477491], [21.420552, 7.492771], [21.412491, 7.509442], [21.403608000000133, 7.524714000000188], [21.392493000000115, 7.540828000000147], [21.381659, 7.553332000000182], [21.360551, 7.568883], [21.335271, 7.585826], [21.321661000000177, 7.595549000000176], [21.300274, 7.602219000000161], [21.279996000000153, 7.604160000000149], [21.26471800000013, 7.604714000000172], [21.244998, 7.606664], [21.226388, 7.612491], [21.213881, 7.619714000000158], [21.199157, 7.631943000000149], [21.187773000000107, 7.648325], [21.176936000000183, 7.663881], [21.163049000000115, 7.683052000000146], [21.1499960000001, 7.693882], [21.141661, 7.70055], [21.131558198999983, 7.703638251000029], [21.130826, 7.703324], [21.123888000000136, 7.699996], [21.114719, 7.694442], [21.109159, 7.687216], [21.105272000000127, 7.677772], [21.10082800000015, 7.663333], [21.098884, 7.652213], [21.09832900000015, 7.641102], [21.098054000000104, 7.633881], [21.09666300000015, 7.628602000000114], [21.094162000000154, 7.623887], [21.090554, 7.61999800000018], [21.08499400000011, 7.616387], [21.076106, 7.610827], [21.069442, 7.606944000000112], [21.06083, 7.601108], [21.055271000000175, 7.594996], [21.053052, 7.583331], [21.054994, 7.563051000000144], [21.057220000000143, 7.559718], [21.064158, 7.549166], [21.068605000000105, 7.542213000000118], [21.074997, 7.531939], [21.078333000000157, 7.52555], [21.080272, 7.513332], [21.0752710000001, 7.504441], [21.066383000000144, 7.496664000000123], [21.056942, 7.488608], [21.046664000000135, 7.481938], [21.03027200000014, 7.470548], [21.019438, 7.460825], [21.006383, 7.442216], [20.991103, 7.41694], [20.97472100000016, 7.391939], [20.954436, 7.362776], [20.935828000000186, 7.340832], [20.932476000000122, 7.338555], [20.92356089100008, 7.339410992000069], [20.923415, 7.339425000000119], [20.923123, 7.339715000000183], [20.888886000000184, 7.283880000000124], [20.884166000000107, 7.274437], [20.881108, 7.270832], [20.87749600000012, 7.26749500000011], [20.873047, 7.264997], [20.868047000000104, 7.263046], [20.86333, 7.261388], [20.857776, 7.260551], [20.851665, 7.259163000000171], [20.846939000000134, 7.257496], [20.841937000000144, 7.256102], [20.837773, 7.253330000000176], [20.833328000000165, 7.251110000000153], [20.82972100000012, 7.24749300000019], [20.825278, 7.244715], [20.820269, 7.242772], [20.815552, 7.241104], [20.810554, 7.238603], [20.806662000000188, 7.235277], [20.803887, 7.231109000000117], [20.799994, 7.2283240000001], [20.795830000000137, 7.22555], [20.790268, 7.224721], [20.783602, 7.224995000000149], [20.77804700000013, 7.226938000000132], [20.772495000000106, 7.228332], [20.76832400000012, 7.231382000000167], [20.764718, 7.234165000000189], [20.75972, 7.236659000000145], [20.75443600000017, 7.238607], [20.748051000000146, 7.238328], [20.741941000000168, 7.239161], [20.736662, 7.240831000000185], [20.73194300000017, 7.243330000000185], [20.727768, 7.246110000000158], [20.723049, 7.24861], [20.716106, 7.249165000000175], [20.711385, 7.247217], [20.706388000000118, 7.245552], [20.699435, 7.246107000000109], [20.693329, 7.245824000000141], [20.687776, 7.244435000000124], [20.683051000000148, 7.242217], [20.679719000000148, 7.238882], [20.67638000000011, 7.234999], [20.674997, 7.229713], [20.672492, 7.224720000000104], [20.669721000000152, 7.220830000000149], [20.667771, 7.215551000000175], [20.667498, 7.208883000000185], [20.666943000000174, 7.201939], [20.66693700000019, 7.196384], [20.66443500000014, 7.191662000000122], [20.661102, 7.187498], [20.659157, 7.183327], [20.658051, 7.176939000000175], [20.657498, 7.171661], [20.656935, 7.164717], [20.654161, 7.160547000000122], [20.651111, 7.156659000000161], [20.647495, 7.153606000000138], [20.644994, 7.148883000000126], [20.644162000000108, 7.14277], [20.64388700000012, 7.135832000000164], [20.641381, 7.131388000000186], [20.638328, 7.12722], [20.634718000000134, 7.123888], [20.62972200000013, 7.12222], [20.625549, 7.119993], [20.62027, 7.11805], [20.616943000000106, 7.114993], [20.614443, 7.110269000000187], [20.611382, 7.106110000000115], [20.608885, 7.101657000000102], [20.606107, 7.097773], [20.602214000000174, 7.094165], [20.598888000000102, 7.09110800000019], [20.59472, 7.08861], [20.590825, 7.08555], [20.587216000000183, 7.082217000000128], [20.581659000000116, 7.081104], [20.577771, 7.077774], [20.574444, 7.074717], [20.571107, 7.070831], [20.567772, 7.067773000000159], [20.563051, 7.064993000000186], [20.558326, 7.06333], [20.552215, 7.063331000000176], [20.545833, 7.062497], [20.540268, 7.064437000000169], [20.535827000000154, 7.066939], [20.529716, 7.067777000000149], [20.523609000000135, 7.068886], [20.518052, 7.067772], [20.512768, 7.066106], [20.50861, 7.063606000000163], [20.505829000000176, 7.059442], [20.50249600000012, 7.055826], [20.499995000000126, 7.05083000000019], [20.498055, 7.046107], [20.494164000000126, 7.043325], [20.490552, 7.03972], [20.486388000000147, 7.037499000000139], [20.48027400000018, 7.037220000000104], [20.474164, 7.035824000000105], [20.469439, 7.034159000000159], [20.465833, 7.031103], [20.461936, 7.027771], [20.458607000000143, 7.024442], [20.454713, 7.021380000000136], [20.450547, 7.018889], [20.444999, 7.017773], [20.438888000000134, 7.017772], [20.432490000000143, 7.01721600000019], [20.427774, 7.019441], [20.424715, 7.023053000000175], [20.42193600000013, 7.027498], [20.42027000000013, 7.032219], [20.417496000000142, 7.036386], [20.413884, 7.039715000000172], [20.407776, 7.040831000000139], [20.403047, 7.038049000000171], [20.400273, 7.034442000000126], [20.397775, 7.029715000000181], [20.394443, 7.026105], [20.389439, 7.024442], [20.383881, 7.02638], [20.379164, 7.028605], [20.373047000000156, 7.029721000000109], [20.366658, 7.03083], [20.361939000000177, 7.028884000000176], [20.359163, 7.024998000000153], [20.355275000000177, 7.021664000000158], [20.351111, 7.019442], [20.345551000000114, 7.018055000000174], [20.339992, 7.019992], [20.334439000000145, 7.021659000000113], [20.328884, 7.02304700000019], [20.32527, 7.026385000000175], [20.32055, 7.028331], [20.316386, 7.031666000000143], [20.312499, 7.034719000000109], [20.306936, 7.034719000000109], [20.301661, 7.033887], [20.294721000000152, 7.034164], [20.28777600000012, 7.03472], [20.281935, 7.033327], [20.278333, 7.030548000000181], [20.272216, 7.030275000000131], [20.265273, 7.030272], [20.260270000000162, 7.03277], [20.254160000000184, 7.033884000000171], [20.248052, 7.03361], [20.243053, 7.031666000000143], [20.236936, 7.031383000000176], [20.231382, 7.033049000000176], [20.228329, 7.036660000000154], [20.225554000000102, 7.040827000000149], [20.223331, 7.045276], [20.220555, 7.049442000000113], [20.217494, 7.053054], [20.21416100000016, 7.056659], [20.211109, 7.06027], [20.206384, 7.062774], [20.201382000000137, 7.064722000000131], [20.195271, 7.065826000000186], [20.188324, 7.066381], [20.18221300000016, 7.067495], [20.175831, 7.068602000000169], [20.169996, 7.069442], [20.166106, 7.072495], [20.161527398000146, 7.084707658000127], [20.158609, 7.092492000000107], [20.148608, 7.068328], [20.14583, 7.057771], [20.145548000000133, 7.048610000000167], [20.149441, 7.034438], [20.153887, 7.021386], [20.154716, 7.01554700000014], [20.153046, 7.008050000000139], [20.14944400000013, 7.001944], [20.144999, 6.988882000000103], [20.143885, 6.976937000000135], [20.142775, 6.969443000000183], [20.138049, 6.961105], [20.129443, 6.952494], [20.12360200000012, 6.943609000000151], [20.114992, 6.903602], [20.111380000000167, 6.890547], [20.107218, 6.881662000000119], [20.101662, 6.873881], [20.091103, 6.863603], [20.077217, 6.854162000000144], [20.060272, 6.843608000000131], [20.050548, 6.835554], [20.046382000000108, 6.829443], [20.045829, 6.818886], [20.04666400000019, 6.811659], [20.039994, 6.799715000000162], [20.031665000000146, 6.786941000000184], [20.023327000000165, 6.785270000000139], [20.014715, 6.783332], [20.003606, 6.773605], [19.998327, 6.764439000000152], [19.991379000000165, 6.753325000000189], [19.983603000000187, 6.746663000000183], [19.97222200000016, 6.737496], [19.96443900000014, 6.727498], [19.954162000000167, 6.717769], [19.941935000000115, 6.711385000000178], [19.93305, 6.706382000000133], [19.921937000000128, 6.694992], [19.914718, 6.684437000000173], [19.907221, 6.672216000000105], [19.900274, 6.661658000000159], [19.89305000000013, 6.654166], [19.881385, 6.644997], [19.870830000000126, 6.634167000000161], [19.86444, 6.623331000000121], [19.859158, 6.607769000000189], [19.857771, 6.586661], [19.86110500000018, 6.554166], [19.869995000000188, 6.514442], [19.876385, 6.483604000000128], [19.879442, 6.468881000000124], [19.88110500000016, 6.459995000000163], [19.879717, 6.452499], [19.876109000000156, 6.448324000000127], [19.871381, 6.445827000000122], [19.861385, 6.447491000000127], [19.84944000000013, 6.456386000000123], [19.83583, 6.469443000000126], [19.816379, 6.47971600000011], [19.79416, 6.481388], [19.768600000000106, 6.482495], [19.74666400000018, 6.480826], [19.74305, 6.476108000000181], [19.742776000000163, 6.472774], [19.740553, 6.470271], [19.7380500000001, 6.464713], [19.736939, 6.455824000000177], [19.736938000000123, 6.448881], [19.738051, 6.443605000000105], [19.740831000000185, 6.437214000000154], [19.745269, 6.428887], [19.752769000000114, 6.42027], [19.762221, 6.411382000000117], [19.77277000000015, 6.402213000000131], [19.783331, 6.396381], [19.794436, 6.39277], [19.802491, 6.389720000000125], [19.81277, 6.387496000000112], [19.822217, 6.384991000000184], [19.835834, 6.379436000000112], [19.856382, 6.363610000000165], [19.868324, 6.349714], [19.873332, 6.342771], [19.87554900000015, 6.335277000000133], [19.875552, 6.324991000000125], [19.868328, 6.304992], [19.85749800000019, 6.279717000000119], [19.844718, 6.250825], [19.840826, 6.236103000000185], [19.841666, 6.225548000000117], [19.845276, 6.219439], [19.850832, 6.215277], [19.856105, 6.210829000000103], [19.861382, 6.206661], [19.864993, 6.199713], [19.864161, 6.192491000000189], [19.856385000000103, 6.183331], [19.84194300000013, 6.174998000000187], [19.831389000000115, 6.168324], [19.827218000000187, 6.160275], [19.826943000000142, 6.157771], [19.825825, 6.149722000000111], [19.827777, 6.144439], [19.831388, 6.141386000000182], [19.83722200000011, 6.134166000000164], [19.841658000000166, 6.129718], [19.843327, 6.128053000000136], [19.84471500000012, 6.126102000000174], [19.844722, 6.121937000000173], [19.841666, 6.118602], [19.834721000000116, 6.114437], [19.829159000000175, 6.111935000000187], [19.82472100000018, 6.106106000000182], [19.823417, 6.103314], [19.82082800000012, 6.097775], [19.816105000000107, 6.088333], [19.81166500000012, 6.082215000000133], [19.809996, 6.080824000000177], [19.802492, 6.072497], [19.797768, 6.060828000000186], [19.795833, 6.05583200000018], [19.789157000000102, 6.045271000000128], [19.784713000000124, 6.03972], [19.779165, 6.035550000000171], [19.76860900000014, 6.036382], [19.759721000000127, 6.040553], [19.749717, 6.042769], [19.744439000000114, 6.042770000000189], [19.73972, 6.042775], [19.732221, 6.041109], [19.726945, 6.039163000000144], [19.719995000000154, 6.036383000000171], [19.71582800000016, 6.033606], [19.714161000000104, 6.031384], [19.711389, 6.027495], [19.707772, 6.020547000000136], [19.704444, 6.012776], [19.702498, 6.005273], [19.701152, 5.997548], [19.608332000000132, 5.939442], [19.602768, 5.935277], [19.59944400000012, 5.931941], [19.59694, 5.928607], [19.593329, 5.923325], [19.590826000000106, 5.913606000000186], [19.593609000000185, 5.909164], [19.596387000000163, 5.897769], [19.612770000000182, 5.845554], [19.618331, 5.829718000000184], [19.620832000000178, 5.810832], [19.622774000000106, 5.802772000000175], [19.623326000000134, 5.797492], [19.62333200000012, 5.79610300000013], [19.621941000000106, 5.793328], [19.619161000000133, 5.790275000000179], [19.617777, 5.789439000000129], [19.60638500000016, 5.783607], [19.60444000000018, 5.780277], [19.603880000000174, 5.777774], [19.604438000000187, 5.772215000000188], [19.606383000000164, 5.767771], [19.60888400000016, 5.765271], [19.612217, 5.763332], [19.620831000000123, 5.76082700000012], [19.633325, 5.757217], [19.646102, 5.754164000000173], [19.657222, 5.751107], [19.663053, 5.748606], [19.668884, 5.743888], [19.672496, 5.73861], [19.675828, 5.727771], [19.676386, 5.714439000000141], [19.673883000000103, 5.701105000000155], [19.671381, 5.687770000000114], [19.665274000000124, 5.671661], [19.654436, 5.656941000000131], [19.639439, 5.646664000000158], [19.61055400000015, 5.624999000000116], [19.589439, 5.609158], [19.571941, 5.594162], [19.55665800000014, 5.578047], [19.546937000000128, 5.572215], [19.530828, 5.572493000000179], [19.518328, 5.571660000000179], [19.506383, 5.570553], [19.490551000000153, 5.567219], [19.47833, 5.565274000000102], [19.473056000000156, 5.564160000000129], [19.471103, 5.563047], [19.468051000000116, 5.559435000000121], [19.464999, 5.544999000000132], [19.467774000000134, 5.53944], [19.473054, 5.535269], [19.481108, 5.53027400000019], [19.48777500000017, 5.523883], [19.493605, 5.51638], [19.498882, 5.503604000000109], [19.501940000000104, 5.496104], [19.505825, 5.488607], [19.5111050000001, 5.483326], [19.676942, 5.487217000000101], [19.837214000000188, 5.489437000000123], [20.015272, 5.491102], [20.017497, 5.481936000000132], [20.018053, 5.466663000000153], [20.01415900000012, 5.448328000000117], [20.01138, 5.434165000000121], [20.007770000000107, 5.426110000000165], [20.001665, 5.418608], [19.994615, 5.412078000000179], [19.994162, 5.411658], [19.987495, 5.404719], [19.982777, 5.390832000000159], [19.980551000000105, 5.379160000000184], [19.97638000000012, 5.37055], [19.972491, 5.365553], [19.966382000000124, 5.358608], [19.961104, 5.350827], [19.956939, 5.336106], [19.953887000000122, 5.322213], [19.953604000000155, 5.314996], [19.955826000000172, 5.310552], [19.957499, 5.299443000000167], [19.956381, 5.286661], [19.956382000000133, 5.278883], [19.958332, 5.270827000000168], [19.959715, 5.266102], [19.958884, 5.261106], [19.955826000000172, 5.256380000000149], [19.952498000000105, 5.250548], [19.95, 5.241662], [19.947774, 5.233053], [19.947497, 5.225277], [19.947497, 5.218327], [19.95027400000015, 5.210274], [19.952498000000105, 5.200269], [19.950272000000155, 5.185829000000183], [19.937770000000114, 5.125831000000119], [19.911382, 5.088887000000113], [19.90221600000018, 5.083332]]]}}]}