{"type": "FeatureCollection", "features": [{"type": "Feature", "properties": {"entity_id": "cf-p-mambere-kadei-v1", "name_fr": "Mambéré-Kadéï"}, "geometry": {"type": "Polygon", "coordinates": [[[15.753718, 3.83256], [15.749260000000106, 3.841024000000118], [15.74800174699999, 3.849787733000028], [15.746416236000186, 3.858874238000169], [15.742661000000169, 3.870357], [15.741434250000111, 3.873773371000027], [15.73768200000012, 3.884223], [15.734968741000102, 3.894549989000154], [15.733401000000129, 3.900517], [15.732978000000116, 3.907110000000102], [15.737031000000115, 3.932907], [15.769007000000101, 3.946007], [15.797631, 3.958659], [15.881433000000186, 3.996335], [15.896951, 4.002398], [15.993649764000054, 3.992801590999989], [16.027736, 3.989306], [16.028401405000068, 3.989364555], [16.060827, 3.99221800000015], [16.078328, 3.993054], [16.086387000000173, 3.991659], [16.09388600000017, 3.988881], [16.099716, 3.98388000000017], [16.112575000000163, 3.954544000000112], [16.11716100000018, 3.926964], [16.118611263, 3.915422058000047], [16.118709, 3.913290000000188], [16.118980774000136, 3.912481301000184], [16.121741, 3.890514], [16.121166193000022, 3.881039580000049], [16.120038, 3.862443834000089], [16.11968, 3.856543], [16.131709, 3.84868200000011], [16.147942396000133, 3.850299404000168], [16.16890500000011, 3.852388000000133], [16.17958291000008, 3.852687359000129], [16.191838000000132, 3.853945000000181], [16.214825599000108, 3.853945000000181], [16.217101000000127, 3.853945000000181], [16.233188436000034, 3.86409891500017], [16.24635300000017, 3.872408000000121], [16.284744058, 3.895048400000064], [16.29799400000013, 3.903622000000155], [16.275605, 3.931753000000185], [16.26505484400019, 3.93989142700002], [16.252556262999974, 3.949532876000092], [16.251672, 3.950215], [16.28489610800017, 3.965424857000073], [16.28624200000013, 3.966041000000132], [16.28870680500006, 3.968136382000125], [16.304857, 3.981866], [16.327461, 4.004285], [16.331112813000118, 4.004072060000055], [16.350064, 4.002967], [16.367350000000158, 4.017473], [16.372668000000147, 4.03066100000018], [16.381976, 4.039892000000123], [16.388904395, 4.049818492000043], [16.393942, 4.057036], [16.39503347400006, 4.056185454000172], [16.412557000000106, 4.04253], [16.418358078000153, 4.040028378000045], [16.443139, 4.029342], [16.457765000000165, 4.034617], [16.462851151999985, 4.03335579000003], [16.465683189000117, 4.033948424000016], [16.53222049700014, 4.047801886000173], [16.54392599900001, 4.05977682300005], [16.558699000000104, 4.077771], [16.56542804999998, 4.079004279], [16.586744000000124, 4.082911], [16.614034741000125, 4.07626159], [16.616787, 4.075591000000145], [16.615494611000145, 4.098756259000083], [16.612867, 4.119221], [16.612987, 4.147082], [16.611939, 4.171662], [16.632214, 4.202215], [16.665555000000154, 4.25971600000014], [16.665162000000123, 4.26494], [16.663872, 4.267338000000166], [16.659904, 4.268605], [16.656816, 4.26980500000019], [16.652013, 4.271139], [16.646992, 4.272051], [16.64422100000013, 4.271967000000188], [16.642153, 4.271535], [16.639004000000114, 4.271718], [16.633674, 4.272158], [16.631437, 4.272738], [16.62270700000016, 4.272475000000156], [16.620063, 4.272765000000163], [16.601794000000154, 4.273001000000136], [16.594792, 4.273714000000155], [16.589685, 4.274392], [16.583613, 4.274903000000108], [16.56736000000018, 4.280281000000116], [16.562248000000125, 4.28419300000013], [16.555538, 4.288934], [16.549671000000103, 4.288804], [16.545735, 4.28748400000012], [16.543917, 4.286459], [16.538753, 4.284502000000145], [16.5339790000001, 4.286391], [16.512156000000118, 4.297053000000176], [16.50354300000015, 4.299012], [16.499048000000187, 4.302387], [16.493344, 4.307529000000102], [16.483359, 4.312033], [16.477852, 4.315239000000133], [16.473543, 4.31705], [16.468403, 4.321885], [16.463081, 4.3281], [16.461784, 4.331202000000189], [16.46119, 4.331000000000188], [16.459371, 4.333024000000137], [16.45613100000014, 4.337685000000135], [16.449367, 4.350278], [16.446877, 4.3561160000001], [16.447864, 4.361643000000186], [16.447009, 4.365452], [16.447724000000164, 4.37231], [16.44672500000013, 4.379302], [16.446448, 4.383821], [16.448318000000143, 4.38919], [16.448005, 4.393385], [16.446991, 4.397835000000157], [16.445337, 4.402036000000123], [16.44397700000013, 4.404212], [16.438697, 4.40604], [16.434966, 4.407082000000173], [16.430882, 4.407606], [16.425465, 4.407859000000144], [16.418052, 4.408375], [16.412219, 4.408616], [16.406327000000147, 4.409316000000103], [16.40197, 4.411172], [16.39823700000011, 4.412307000000112], [16.395409, 4.414070000000152], [16.391559, 4.414508000000126], [16.389728, 4.413899], [16.384829, 4.412319], [16.380265, 4.41038], [16.373869, 4.407878], [16.368022000000167, 4.405577000000164], [16.365998, 4.406111000000124], [16.343839000000116, 4.412979000000121], [16.342838499000038, 4.413089233000107], [16.325142, 4.415039], [16.315448000000117, 4.416413], [16.311192107000124, 4.415960730999984], [16.308589000000154, 4.415478000000121], [16.302423000000147, 4.414507], [16.297068, 4.414254], [16.29286900000011, 4.413989000000186], [16.292245618000038, 4.413947309000037], [16.27666900000014, 4.412292], [16.266148608000094, 4.415190510000116], [16.266017, 4.415214000000105], [16.262630000000115, 4.41562000000016], [16.261291087000075, 4.415878152000175], [16.257861150000053, 4.416057248000072], [16.25517600000012, 4.41595], [16.250879, 4.415867000000162], [16.244658, 4.415218], [16.241398000000174, 4.4144730000001], [16.238862000000154, 4.414259000000129], [16.235604384000055, 4.41386028200003], [16.234429, 4.413666], [16.226552278000042, 4.41196721600005], [16.218502, 4.410231000000124], [16.21355323800003, 4.408022459000108], [16.20608, 4.405281000000173], [16.200598000000184, 4.403129], [16.19513200000017, 4.4004240000001], [16.19481666700011, 4.400232834000121], [16.192727000000104, 4.398966], [16.191095, 4.398527], [16.190421109000056, 4.396521056000154], [16.189401, 4.396681], [16.189309, 4.396728], [16.186175000000162, 4.399630000000172], [16.184325, 4.40076], [16.181885000000136, 4.403192], [16.179297, 4.404931], [16.175916, 4.406679], [16.175003, 4.408262], [16.171697, 4.412275000000136], [16.170272, 4.413817000000165], [16.168078, 4.417356], [16.166066, 4.420523000000117], [16.164095, 4.423181000000113], [16.164142, 4.423181000000113], [16.160866, 4.437277], [16.160189000000173, 4.442927], [16.15874, 4.446365], [16.155276, 4.452693000000181], [16.150632, 4.45783200000011], [16.147538, 4.460132000000158], [16.143349, 4.464340000000163], [16.139835, 4.466645], [16.134406000000126, 4.472300000000132], [16.132768000000112, 4.475556], [16.129769000000124, 4.481833000000165], [16.1291480000001, 4.484429], [16.127954, 4.489669000000163], [16.126786, 4.493197], [16.124499000000185, 4.500529], [16.122069, 4.503793], [16.118675, 4.508271], [16.116255, 4.512321000000156], [16.113887, 4.516833], [16.11074, 4.52621], [16.1097850000001, 4.531956], [16.10997, 4.5357], [16.110466, 4.541939], [16.110597, 4.545036], [16.11497500000013, 4.556274], [16.11601400000012, 4.561211], [16.116526, 4.568791000000147], [16.115879000000177, 4.573053000000186], [16.115813208000077, 4.57348959400008], [16.115181500000176, 4.577681569999982], [16.114732000000117, 4.584689], [16.114078139000128, 4.585821732000113], [16.11263, 4.589323], [16.10986, 4.59148], [16.106963000000178, 4.5946110000001], [16.105097564, 4.595957836000139], [16.103776, 4.596912], [16.10144300000013, 4.600499000000184], [16.09874200000013, 4.604506], [16.096980927000175, 4.607279305000134], [16.09622800000011, 4.608465], [16.093092000000183, 4.618767], [16.089426630000162, 4.625088450000078], [16.089395, 4.625143000000151], [16.086981, 4.629702], [16.084745, 4.633612], [16.082851000000176, 4.638720000000149], [16.081357, 4.642344000000151], [16.07941749200012, 4.64845433500011], [16.07757, 4.651268], [16.073142983000082, 4.657474482000055], [16.070624000000123, 4.660176000000149], [16.06693345600013, 4.662638652000169], [16.06324, 4.663045], [16.059135613000024, 4.663045], [16.050367, 4.663045], [16.049867421000044, 4.665495294999971], [16.049936000000116, 4.667987], [16.048209, 4.671567], [16.04752254100015, 4.672019688999967], [16.04235100000011, 4.676024], [16.040381808000063, 4.67592421], [16.034779035000042, 4.675640286000146], [16.032879, 4.675544000000173], [16.03095400000018, 4.676584], [16.026431204000062, 4.678708688000029], [16.025445941000157, 4.679171538000105], [16.01782, 4.682754], [16.003004, 4.686600000000112], [15.984140000000139, 4.689041000000145], [15.978649160000032, 4.688865401999976], [15.959443342000043, 4.68825119800016], [15.948743, 4.687909000000104], [15.944960579000167, 4.687909000000104], [15.939488770000139, 4.687909000000104], [15.930781000000138, 4.687233000000106], [15.922947000000136, 4.686856], [15.916178274000174, 4.686293429999978], [15.893900662000078, 4.681459643000153], [15.887086, 4.679981000000112], [15.882917476999978, 4.679145278000078], [15.882203157000049, 4.679002068000102], [15.860884629000054, 4.674728045000052], [15.855774483, 4.673703543000045], [15.845347000000118, 4.671613], [15.807619040000077, 4.668004860000053], [15.802591, 4.667524], [15.795401270000127, 4.674952870000141], [15.791948, 4.678521000000103], [15.790401592000137, 4.679719210000144], [15.779566000000159, 4.688115], [15.778443623999976, 4.691039395000189], [15.777303000000131, 4.693024], [15.770026, 4.696203000000139], [15.76502100000016, 4.698524000000134], [15.763074185000107, 4.700800215000072], [15.762154, 4.701547000000176], [15.761979764000046, 4.701719821000154], [15.759445000000142, 4.704234], [15.757685503000118, 4.705599752000126], [15.755085367000106, 4.707618023], [15.754105, 4.708379], [15.747695000000135, 4.713907000000177], [15.744913665000126, 4.717584682000165], [15.74435000000011, 4.71833], [15.740547040000024, 4.721264860000019], [15.739334, 4.722201], [15.739107548000106, 4.722357031000058], [15.715394280000055, 4.738696062000088], [15.711738874000162, 4.740871225000035], [15.711183000000176, 4.741202000000101], [15.69686, 4.747566000000177], [15.69575966900004, 4.748094147000074], [15.689414, 4.751140000000134], [15.68791046400014, 4.752506867000136], [15.678853000000174, 4.760072], [15.672270547000096, 4.762378892000072], [15.66735100000011, 4.764103], [15.658065, 4.764487], [15.648345095000025, 4.759459827000057], [15.634397, 4.751543], [15.629504748000045, 4.748839611000108], [15.629242401000113, 4.74873838700006], [15.628965459000085, 4.748518675000014], [15.624469, 4.745666], [15.62072, 4.743517000000168], [15.61646749700003, 4.739508794000187], [15.603690700000072, 4.727120854000134], [15.603405, 4.726747000000103], [15.601336109000044, 4.724757213999965], [15.600902399, 4.724205631000075], [15.582997, 4.687348], [15.582439289000035, 4.68710216300002], [15.575046885000177, 4.683843618000139], [15.57255, 4.682743], [15.571024569000087, 4.681188163000058], [15.565919000000122, 4.676778000000127], [15.564605236000148, 4.670635738000158], [15.564402, 4.669940000000111], [15.564437961000067, 4.668115947000103], [15.563953, 4.650537], [15.563511731000176, 4.65070109300018], [15.563898220999988, 4.648397737000039], [15.563964937000037, 4.648000128999968], [15.564744056000109, 4.643356820000122], [15.565275597000095, 4.640011507000168], [15.565327, 4.639688000000149], [15.564656040999978, 4.63307589100009], [15.564573000000166, 4.632211], [15.561752000000126, 4.628637], [15.553429, 4.618098], [15.5518110000001, 4.616036000000179], [15.546919000000173, 4.613074], [15.54438, 4.611386], [15.539215, 4.609715000000108], [15.536173, 4.609319], [15.533499000000177, 4.608829000000185], [15.5280130000001, 4.607851], [15.52790327800011, 4.60784083600015], [15.519625000000133, 4.607074000000125], [15.514556, 4.606968], [15.50562, 4.607852], [15.499308, 4.608030000000156], [15.49115300000011, 4.608219000000133], [15.484565, 4.608582000000183], [15.478806000000134, 4.608664], [15.470421, 4.609085], [15.465262, 4.609532], [15.461392000000103, 4.609602], [15.458582, 4.609804], [15.450197000000173, 4.61004], [15.44706600000012, 4.611027000000149], [15.443981000000122, 4.611737000000119], [15.438317, 4.612969], [15.434498000000133, 4.614881], [15.432288, 4.615355000000136], [15.428328000000135, 4.616577000000177], [15.426534, 4.617417], [15.424186, 4.618353], [15.420975000000112, 4.623438000000135], [15.419971, 4.626714000000106], [15.417952000000128, 4.629857000000129], [15.414728, 4.630292], [15.409887, 4.629171], [15.400063, 4.625825], [15.395406, 4.624381], [15.394069, 4.624435], [15.381816000000185, 4.625570000000153], [15.379839, 4.62701], [15.373896000000173, 4.627324000000158], [15.369843, 4.627902000000176], [15.364777, 4.628716], [15.361462, 4.629519], [15.35667, 4.629642000000104], [15.344455000000153, 4.627738], [15.343028, 4.628345], [15.335153, 4.62996], [15.331287, 4.631596000000116], [15.326775000000112, 4.632591], [15.324564000000123, 4.632835000000114], [15.318948, 4.634804000000145], [15.314115000000129, 4.636814000000186], [15.31117200000017, 4.638721], [15.306984, 4.640496], [15.29555100000016, 4.638266], [15.292599000000166, 4.637133000000119], [15.287432, 4.634817000000169], [15.285542000000135, 4.634690000000148], [15.274628, 4.636923000000138], [15.271911000000102, 4.637262000000135], [15.265594, 4.635644000000184], [15.262966, 4.634923], [15.261442, 4.633782000000167], [15.258209, 4.631039], [15.257654000000173, 4.630398000000127], [15.256254000000183, 4.623914], [15.256619000000171, 4.622438000000159], [15.254849, 4.615588], [15.254566000000125, 4.613334], [15.254240000000152, 4.612], [15.253837408000038, 4.60989470800007], [15.253365, 4.611611000000153], [15.251295, 4.615480000000161], [15.248881, 4.621485000000177], [15.247791000000177, 4.622610000000179], [15.24519, 4.628339], [15.244617000000119, 4.630477], [15.235159, 4.635589], [15.233443000000136, 4.638343], [15.233606000000123, 4.640472000000159], [15.230488, 4.653204], [15.226625000000183, 4.65714000000014], [15.225554, 4.659933], [15.221836, 4.664470000000165], [15.221712000000139, 4.665676000000133], [15.224708, 4.670321], [15.222634, 4.669882000000143], [15.216976000000102, 4.669622000000118], [15.212562000000105, 4.669627000000162], [15.198031, 4.669423000000165], [15.194307000000151, 4.669465], [15.189517000000137, 4.668732], [15.186997000000133, 4.669456], [15.179502000000127, 4.669403000000102], [15.177660000000174, 4.669146000000183], [15.17364700000013, 4.667988], [15.170608000000186, 4.667652], [15.168311, 4.667771], [15.166155000000174, 4.668166], [15.163951, 4.668470000000184], [15.155771, 4.668795], [15.15154500000017, 4.669168], [15.149856, 4.67016], [15.137946000000113, 4.670019], [15.132756, 4.670449000000133], [15.130229, 4.670663000000104], [15.122593, 4.670288000000141], [15.108384000000171, 4.670126], [15.103419, 4.670183000000179], [15.099838, 4.670641], [15.096313, 4.671979], [15.094293000000107, 4.672188000000119], [15.094942000000174, 4.672690000000102], [15.080618000000186, 4.670445], [15.077902000000165, 4.670151], [15.077123, 4.670392], [15.070363, 4.670284], [15.068707000000188, 4.670257], [15.065108000000123, 4.66914], [15.061473, 4.668903000000114], [15.058576000000187, 4.668798000000152], [15.048502000000155, 4.668357], [15.045085, 4.667145000000176], [15.041458000000148, 4.667558], [15.029902, 4.666207000000156], [15.024434, 4.666502], [15.021076, 4.666355000000181], [15.01928, 4.666051], [15.009401, 4.666582000000119], [15.006652, 4.667447], [15.004680000000178, 4.667887], [15.001565, 4.668849], [14.998068, 4.668658000000107], [14.99167800000015, 4.668731], [14.983352000000139, 4.668317000000116], [14.978850000000136, 4.668646], [14.976225, 4.668259000000148], [14.973051000000112, 4.668157], [14.971539, 4.66863700000016], [14.964412000000152, 4.668534000000136], [14.958194000000105, 4.66763200000014], [14.950459, 4.666701], [14.947929, 4.666591000000153], [14.944476000000122, 4.666168000000141], [14.940666, 4.666675000000168], [14.935849, 4.667564], [14.933833, 4.668236], [14.930380000000184, 4.667812], [14.929091000000142, 4.667688000000112], [14.927991, 4.667978000000176], [14.919744, 4.666498000000104], [14.915776000000108, 4.665246], [14.911855, 4.664132], [14.908126, 4.663712000000146], [14.902831, 4.663077], [14.89676500000013, 4.663286], [14.895658, 4.663021000000185], [14.893817, 4.662857], [14.891287, 4.662747], [14.888206, 4.662643000000173], [14.88696700000014, 4.662842000000126], [14.885086000000115, 4.6632350000001], [14.882225, 4.662341], [14.87912000000017, 4.664183], [14.877511, 4.664202], [14.875496000000169, 4.664874], [14.872839, 4.665738], [14.871319, 4.665478], [14.867236, 4.666266], [14.866084000000171, 4.666001000000165], [14.864526, 4.666529], [14.86389400000013, 4.667509], [14.862342000000126, 4.668500000000165], [14.861293, 4.66925300000014], [14.860242000000142, 4.669821], [14.856101, 4.669544], [14.854088, 4.670355], [14.852802, 4.670509000000152], [14.851976, 4.670657000000119], [14.849951, 4.670449000000133], [14.848154, 4.670145], [14.845306000000107, 4.670363000000123], [14.844016000000124, 4.670146000000102], [14.840365, 4.668474000000174], [14.839117000000158, 4.667932], [14.838288000000148, 4.667756], [14.834791000000166, 4.667518], [14.833725, 4.666789], [14.833703, 4.668874], [14.833294000000137, 4.669342], [14.833222, 4.671011], [14.833654, 4.672628000000145], [14.833542, 4.6749], [14.83361, 4.676752000000135], [14.83357800000016, 4.678004000000158], [14.833867000000112, 4.679159000000141], [14.834067000000118, 4.6805], [14.833715000000154, 4.681941000000108], [14.834205000000168, 4.684530000000109], [14.83449000000013, 4.685314000000119], [14.83463600000016, 4.686008000000186], [14.834282000000144, 4.687263], [14.834301000000153, 4.688838], [14.834547, 4.690318000000104], [14.83489, 4.692075000000159], [14.834716000000185, 4.692957000000149], [14.835202, 4.695222000000115], [14.835036, 4.69684500000011], [14.835467000000165, 4.698277000000132], [14.835481, 4.699481000000105], [14.83528600000011, 4.702588000000105], [14.834735, 4.702641], [14.836146, 4.70535800000016], [14.83707900000013, 4.706552], [14.835139, 4.705787000000157], [14.834679000000165, 4.705699000000152], [14.832752, 4.706046], [14.831046000000129, 4.705648], [14.829567000000111, 4.705017], [14.827081000000135, 4.704721], [14.825197, 4.704835], [14.821187, 4.703908000000126], [14.821294, 4.705204], [14.818525, 4.704356], [14.815263000000186, 4.704532], [14.812416, 4.704889], [14.810902000000112, 4.705092], [14.808372, 4.704982000000143], [14.805798, 4.705104000000119], [14.80290500000018, 4.705369000000189], [14.8013, 4.705758], [14.800433, 4.70637], [14.79712, 4.706084], [14.795275000000174, 4.70554900000019], [14.794499, 4.706114000000184], [14.792285, 4.705491000000166], [14.790628, 4.705278000000135], [14.790443, 4.705234], [14.783736, 4.705728], [14.782868000000178, 4.706201000000135], [14.781674000000123, 4.706261], [14.781117, 4.70585], [14.773965, 4.7076], [14.773554000000104, 4.707837], [14.771299, 4.707631000000106], [14.770513, 4.707269], [14.76880100000011, 4.706316], [14.764568000000168, 4.706086], [14.763047, 4.705780000000118], [14.762729, 4.706108], [14.759871, 4.705399], [14.757338, 4.705057000000124], [14.756466, 4.705206], [14.749198000000149, 4.704873], [14.748094, 4.704839], [14.747268000000133, 4.704987], [14.742142, 4.707039000000179], [14.740481000000102, 4.706548], [14.73785800000013, 4.706346], [14.734449, 4.705737000000113], [14.732193, 4.705485], [14.72993600000018, 4.705094], [14.729106, 4.704871], [14.726356, 4.705598000000123], [14.724061, 4.705949], [14.722654, 4.706364000000121], [14.722596543000122, 4.706434559000172], [14.722578960000021, 4.706482415000039], [14.72259594999997, 4.706496252000022], [14.722595359000024, 4.706557709000037], [14.722494835000077, 4.70660503400012], [14.722515587000032, 4.706733794000115], [14.722438380000085, 4.706816984999989], [14.722432740000158, 4.706933007000032], [14.722371582000108, 4.707020513000145], [14.722356141000148, 4.707132280000053], [14.722302198000023, 4.707221936000053], [14.722281607000184, 4.707331572000044], [14.722231780000072, 4.707422517], [14.722208009000155, 4.707530873999985], [14.722160845000133, 4.707622676000142], [14.722134913000104, 4.707730180000169], [14.722089614000026, 4.707822595000096], [14.722062119000157, 4.707929489000037], [14.722018198000171, 4.708022363000111], [14.721989518999976, 4.708128800999987], [14.721946660000071, 4.708222031000105], [14.721917052000151, 4.708328113000164], [14.721875035000096, 4.7084216290001], [14.721844679000071, 4.708527426000046], [14.721803347000048, 4.708621176000179], [14.72177237700015, 4.708726740000031], [14.721718559000124, 4.708850769000037], [14.721695776000104, 4.708926013000053], [14.72160978100004, 4.709125195000013], [14.72149817200011, 4.70932413100013], [14.721360951000065, 4.709522821000064], [14.721198116000153, 4.709721264000052], [14.721052481000072, 4.709874435000017], [14.721014972000091, 4.709919513000045], [14.720869604000143, 4.710072918000037], [14.72083187800007, 4.710117761000106], [14.720686722000096, 4.710271354000099], [14.720648821000111, 4.710316010000042], [14.72050383800007, 4.710469757000055], [14.720465790000162, 4.710514259000036], [14.720279216000165, 4.710712475000093], [14.720075677000125, 4.710910527000124], [14.719855173000155, 4.711108416000059], [14.719617704000143, 4.711306141000023], [14.719363269000155, 4.711503704000108], [14.71909187000017, 4.711701103000166], [14.718803504999983, 4.711898340000062], [14.71849817500015, 4.7120954130001], [14.718353054000147, 4.712184076000085], [14.718548126000087, 4.711406141000111], [14.718660000000114, 4.71096], [14.718601, 4.710279000000185], [14.718108, 4.708978], [14.71762, 4.702749000000154], [14.718497000000127, 4.701207], [14.719428, 4.698291], [14.719991000000107, 4.696435000000122], [14.72119, 4.692165000000159], [14.721062, 4.689995000000181], [14.719879000000105, 4.687625], [14.718888000000163, 4.685643], [14.718578, 4.685085000000186], [14.718019, 4.684588], [14.716529, 4.683530000000133], [14.71803, 4.677092000000187], [14.719037, 4.669903], [14.720224, 4.666167], [14.720666, 4.662452], [14.720983000000103, 4.658731000000103], [14.719806, 4.656066], [14.718813000000182, 4.653704], [14.71882, 4.648066], [14.719014, 4.643664000000115], [14.721134000000177, 4.640634], [14.725994000000128, 4.637236], [14.728667000000144, 4.632215], [14.730486, 4.627817], [14.730825, 4.62061], [14.729976, 4.616449], [14.73065, 4.611269000000107], [14.736642, 4.610312000000135], [14.738092000000165, 4.605631], [14.743155, 4.602698], [14.744359, 4.601895], [14.744421000000159, 4.601618], [14.744637, 4.598746], [14.744822000000113, 4.595814000000132], [14.749798, 4.58944], [14.751307, 4.585234000000128], [14.755917, 4.583341000000189], [14.759828, 4.583999000000119], [14.763903, 4.583999000000119], [14.76423300000016, 4.583835], [14.764644, 4.583547000000181], [14.765097, 4.583135], [14.765385, 4.582641], [14.765261000000123, 4.582023], [14.765056, 4.581653000000131], [14.764644, 4.581241000000148], [14.764068, 4.580706000000134], [14.765014000000122, 4.577660000000151], [14.767402000000175, 4.576837000000125], [14.770448000000158, 4.574038000000144], [14.774462, 4.569072000000119], [14.77582000000018, 4.566201], [14.77977200000015, 4.563237000000129], [14.782303000000127, 4.561694], [14.783075, 4.56116900000012], [14.783384, 4.560922000000119], [14.783971000000122, 4.560335], [14.785730000000171, 4.5566], [14.785730000000171, 4.556168], [14.785668, 4.555797], [14.785514, 4.555272000000173], [14.78536000000014, 4.554809], [14.785113, 4.554346000000123], [14.784804000000122, 4.553914], [14.79067, 4.547986], [14.793726, 4.546473], [14.796721000000105, 4.544652], [14.799129, 4.54313900000011], [14.800395000000151, 4.541349000000139], [14.802556, 4.538292000000126], [14.802340000000129, 4.53647100000012], [14.803575, 4.533661000000109], [14.805828, 4.531624], [14.808483, 4.527332000000115], [14.81012, 4.524554000000137], [14.810397, 4.524338], [14.810737000000188, 4.524338], [14.811177000000157, 4.524404000000175], [14.811594000000184, 4.524543000000108], [14.812289000000135, 4.524873], [14.812462, 4.525047], [14.814911, 4.527634], [14.816213000000118, 4.528329], [14.817464, 4.528728000000172], [14.818176000000165, 4.528624], [14.820815, 4.527218000000119], [14.82571200000018, 4.525461], [14.828136, 4.524083], [14.828383, 4.523774000000117], [14.828723, 4.523249], [14.82897, 4.52272500000015], [14.829155000000128, 4.522231000000147], [14.829247000000123, 4.521768], [14.829000000000121, 4.521397], [14.827704000000153, 4.519452], [14.826747, 4.518341], [14.826407000000131, 4.518186000000128], [14.826253000000179, 4.51797], [14.826345000000174, 4.517631], [14.826654000000133, 4.516735000000153], [14.827271, 4.51584], [14.82758, 4.515624], [14.830328, 4.514976000000104], [14.833106, 4.514759], [14.835298, 4.514852000000133], [14.839837, 4.514049000000114], [14.847678, 4.513278000000128], [14.850488, 4.513772000000131], [14.85058, 4.508461000000182], [14.851013, 4.505004], [14.85249400000015, 4.501361000000145], [14.853853000000129, 4.502441000000147], [14.858577, 4.498983], [14.864535, 4.497378], [14.869999, 4.496761], [14.870462, 4.49666800000017], [14.870802, 4.49639], [14.871018, 4.49602], [14.871080000000177, 4.495587], [14.871296, 4.492747000000122], [14.87142, 4.490339000000176], [14.871296, 4.49003], [14.871512, 4.489567], [14.872531000000151, 4.487468], [14.873087000000112, 4.486819], [14.873766, 4.486048], [14.874013, 4.485770000000116], [14.874692, 4.485152], [14.875124, 4.484782000000109], [14.875495, 4.484473], [14.875989, 4.484103], [14.87639, 4.483825000000138], [14.876853000000153, 4.48364], [14.877162000000169, 4.483578000000136], [14.87744, 4.483609], [14.877717, 4.483732], [14.879632, 4.483084000000133], [14.881855000000144, 4.481509000000187], [14.882071, 4.481262000000186], [14.882040000000188, 4.481046], [14.881824, 4.48083000000014], [14.881299000000126, 4.480336000000136], [14.88043400000015, 4.479626000000167], [14.87947800000012, 4.478885000000162], [14.87957, 4.476848000000189], [14.884973, 4.472402], [14.889573, 4.468790000000126], [14.895346000000131, 4.467864], [14.897322, 4.468265], [14.900286000000108, 4.468882000000121], [14.909362, 4.464709000000141], [14.916231, 4.461927000000173], [14.92141800000013, 4.459959], [14.92202, 4.459727], [14.922807, 4.459102], [14.924405, 4.457782], [14.92466000000013, 4.457551000000137], [14.924868000000117, 4.457204], [14.924984000000109, 4.456787], [14.929777, 4.454147], [14.935172, 4.451369], [14.939618000000166, 4.449285], [14.941493, 4.447641000000147], [14.941030000000126, 4.445418], [14.941586000000143, 4.440069000000165], [14.941701, 4.439421], [14.941864, 4.439074], [14.942141, 4.438726], [14.942396, 4.438425], [14.942767000000117, 4.438286], [14.943021, 4.438309000000174], [14.943322, 4.438425], [14.949065, 4.438495000000103], [14.949412000000166, 4.438194], [14.949713, 4.437985], [14.951172, 4.437082], [14.954228, 4.436596], [14.955502, 4.437406], [14.960109000000102, 4.440023], [14.965968, 4.439722], [14.967218000000116, 4.439606], [14.967635, 4.43949], [14.972312000000102, 4.43692], [14.973609000000124, 4.436156], [14.978772, 4.436133], [14.980717, 4.434304000000111], [14.982199, 4.430923000000121], [14.98206000000016, 4.427427], [14.983889000000147, 4.425713], [14.98676, 4.42569], [14.993128, 4.424972000000139], [14.997110000000191, 4.423398000000134], [15.001302000000123, 4.421962000000121], [15.003895, 4.42224], [15.00544600000012, 4.423189], [15.006465000000105, 4.424069], [15.006882000000132, 4.424208], [15.007414, 4.42425500000013], [15.007854, 4.424208], [15.00813200000016, 4.424023000000147], [15.009961000000146, 4.422263], [15.01017, 4.421823000000188], [15.010285000000124, 4.421407], [15.01017, 4.421036], [15.009938, 4.420642], [15.009567, 4.420249000000183], [15.009243, 4.420156000000134], [15.010031, 4.418373], [15.011883000000182, 4.417216], [15.012763000000177, 4.414946000000157], [15.012415000000146, 4.413488000000143], [15.011328000000105, 4.410709], [15.011142000000177, 4.406541000000175], [15.011304, 4.405962], [15.011536, 4.405337], [15.012763000000177, 4.402304], [15.013527000000124, 4.401609000000121], [15.015634, 4.400984000000108], [15.016676000000132, 4.398368000000175], [15.016676000000132, 4.397048], [15.013527000000124, 4.394617000000153], [15.013018000000159, 4.393366], [15.014453, 4.391097], [15.01619, 4.388573000000122], [15.018158, 4.387809000000118], [15.018505000000118, 4.387601000000188], [15.018783, 4.387369000000149], [15.020103000000177, 4.385911000000135], [15.020265, 4.385309], [15.02177, 4.379636000000175], [15.023321000000124, 4.373754], [15.0236230000001, 4.371971000000144], [15.025567, 4.367896], [15.025753000000122, 4.367595], [15.027072, 4.367063], [15.027535000000114, 4.366947], [15.028114, 4.36697], [15.030708000000118, 4.36722500000019], [15.031171, 4.367364000000123], [15.031565000000114, 4.367526], [15.031958000000145, 4.367827], [15.032190000000128, 4.368105000000185], [15.032352, 4.368591], [15.032190000000128, 4.369286], [15.031958000000145, 4.369888], [15.032421, 4.372736], [15.034598, 4.374495], [15.035014, 4.374773000000118], [15.035431, 4.374912000000108], [15.035802, 4.374889000000167], [15.036126, 4.37475], [15.036334000000181, 4.374472], [15.040873, 4.368082], [15.042655, 4.365720000000181], [15.042794000000185, 4.365396], [15.043466, 4.363752], [15.04328100000015, 4.3628250000001], [15.041313, 4.360603], [15.03897400000011, 4.359468000000163], [15.038742000000127, 4.357523000000185], [15.041822, 4.353448000000185], [15.043906000000163, 4.351109], [15.04411400000015, 4.350901], [15.044485000000122, 4.350646000000154], [15.044786000000158, 4.350553000000104], [15.045133, 4.3506], [15.045411000000172, 4.350739], [15.051755000000185, 4.345552], [15.055275000000108, 4.340875], [15.059165, 4.332215000000133], [15.060508, 4.328973000000133], [15.064745, 4.324551], [15.066829, 4.322745000000168], [15.06841900000012, 4.320912], [15.0695, 4.318627000000106], [15.069993000000181, 4.316559], [15.06987, 4.316281000000174], [15.06987, 4.315849000000128], [15.070024, 4.315386], [15.070209, 4.314861000000121], [15.070487000000185, 4.314336], [15.070827, 4.314058000000102], [15.071228, 4.314058000000102], [15.074686000000156, 4.314645], [15.077403, 4.313811000000101], [15.07941, 4.309551], [15.082127000000128, 4.304704000000129], [15.085491000000104, 4.301925], [15.085924, 4.297634], [15.087406000000101, 4.294361], [15.089876, 4.291274], [15.090123, 4.289638], [15.089876, 4.287785000000156], [15.088579, 4.286983], [15.087714, 4.28525400000018], [15.089474000000166, 4.281456000000162], [15.089536000000123, 4.274232], [15.087591000000145, 4.272503000000142], [15.086325, 4.269756], [15.08685000000014, 4.268459], [15.089598000000137, 4.266359], [15.093364000000179, 4.265032000000133], [15.094047, 4.263427], [15.093204, 4.260779000000184], [15.091520000000173, 4.254913000000101], [15.090738000000101, 4.251634], [15.093415000000107, 4.24631], [15.089324, 4.243151000000182], [15.088151000000153, 4.24023300000016], [15.088632000000132, 4.236202], [15.089595, 4.235119000000168], [15.0914, 4.234337], [15.093295000000126, 4.234277000000134], [15.093806000000143, 4.229313000000104], [15.093716000000143, 4.226726], [15.097446, 4.224049], [15.099011, 4.222665000000177], [15.101146, 4.219416], [15.101237, 4.218935000000101], [15.101056000000142, 4.218544], [15.100725, 4.218002000000183], [15.099492, 4.216438], [15.099161, 4.216197], [15.098740000000191, 4.216137], [15.0979880000001, 4.216167], [15.095551000000114, 4.214212], [15.094167, 4.212226000000101], [15.094047, 4.210692], [15.094047, 4.209068000000116], [15.094077, 4.208676], [15.096664, 4.20254000000017], [15.097837, 4.200674000000163], [15.099943, 4.1992], [15.100033, 4.196734000000106], [15.099582, 4.195651], [15.098439000000155, 4.194387], [15.097597000000121, 4.19183], [15.097266, 4.189574000000107], [15.098589000000118, 4.18452], [15.098740000000191, 4.18073], [15.098800000000153, 4.180279], [15.099071, 4.180038000000138], [15.099402, 4.179948], [15.100695, 4.180098000000157], [15.102049, 4.180369], [15.102951, 4.180609000000118], [15.104215, 4.181031], [15.104696, 4.181271], [15.106261000000188, 4.181362], [15.107253, 4.179827000000103], [15.107434, 4.179346], [15.107524, 4.178955], [15.107313, 4.178624], [15.105990000000133, 4.177541000000133], [15.104456, 4.176458], [15.103162000000111, 4.174473000000148], [15.104034000000127, 4.171344], [15.104756, 4.169208], [15.104065, 4.163673], [15.1053280000001, 4.159101000000135], [15.105990000000133, 4.157566], [15.10647100000017, 4.156243], [15.106681000000151, 4.154708], [15.105599000000154, 4.153234000000168], [15.103279, 4.150783], [15.10007, 4.149232000000154], [15.099214000000131, 4.145595000000128], [15.099214000000131, 4.141103], [15.10167500000017, 4.134525], [15.102263000000164, 4.133562000000154], [15.102798, 4.133027000000141], [15.104562000000158, 4.132011], [15.106755, 4.127305], [15.10638100000017, 4.12644900000015], [15.106167, 4.125914], [15.106167, 4.125487000000135], [15.106809, 4.12324000000018], [15.107557000000156, 4.120887], [15.107932, 4.120406000000173], [15.108413, 4.120299], [15.109055, 4.120299], [15.11130100000014, 4.120299], [15.112371, 4.120299], [15.11295900000016, 4.12051300000013], [15.113601000000187, 4.120887], [15.114243, 4.120941], [15.115152, 4.120941], [15.117023000000188, 4.120727000000102], [15.117558, 4.12056600000011], [15.118628000000115, 4.119283000000166], [15.118948000000103, 4.11880200000013], [15.119376000000159, 4.117892], [15.119697, 4.116983000000118], [15.119697, 4.116235], [15.11959000000013, 4.115325], [15.119216, 4.114684000000125], [15.118948000000103, 4.114042000000154], [15.119163000000128, 4.11324], [15.120125000000144, 4.111903], [15.12082, 4.111207], [15.12205100000017, 4.11078], [15.12296, 4.110566000000119], [15.124297000000183, 4.110726], [15.125366, 4.110887], [15.126329000000112, 4.110940000000141], [15.127238, 4.110619], [15.129591000000175, 4.109015], [15.13034000000016, 4.1080520000001], [15.131463000000167, 4.106555], [15.132158000000118, 4.105539], [15.132586000000174, 4.104629], [15.132533, 4.10372000000018], [15.132158000000118, 4.102758000000165], [15.131570000000124, 4.101528000000144], [15.131356, 4.100137000000188], [15.131463000000167, 4.098479000000111], [15.13183700000019, 4.096768000000111], [15.132318, 4.095163], [15.132693000000131, 4.094201], [15.133174000000167, 4.093345], [15.13419, 4.091955000000155], [15.135046000000159, 4.09120600000017], [15.138186, 4.087452], [15.140925, 4.080353000000173], [15.141262, 4.079443], [15.141363, 4.078365000000133], [15.141363, 4.076984], [15.141194, 4.075805], [15.140116, 4.074356], [15.139644, 4.074087], [15.140251, 4.071729000000175], [15.143485000000112, 4.06836], [15.144061, 4.068087000000105], [15.144125000000145, 4.068057], [15.144833, 4.067942000000187], [15.145956, 4.068316], [15.147614000000146, 4.069119], [15.150983, 4.07083], [15.152694000000167, 4.071953], [15.154245, 4.072541], [15.155957000000171, 4.073183], [15.157294, 4.073557], [15.158791000000178, 4.073771], [15.160396000000105, 4.073664], [15.162107000000105, 4.07345], [15.164193000000182, 4.073130000000106], [15.166011, 4.072809000000177], [15.168257, 4.072220000000129], [15.170076, 4.071579], [15.171413, 4.070777], [15.172429, 4.069760000000144], [15.173070000000166, 4.068798000000129], [15.173391, 4.067835], [15.173391, 4.066659], [15.175903, 4.061827000000108], [15.178864, 4.058126000000129], [15.176772558999971, 4.055982598000071], [15.176449000000162, 4.055651000000182], [15.176358, 4.055572], [15.175742343000024, 4.055269053000075], [15.172448, 4.05364800000018], [15.16934700000013, 4.052301000000114], [15.161568, 4.049548], [15.1609, 4.049287000000106], [15.155274000000134, 4.047759], [15.153071000000125, 4.047447], [15.149949, 4.047232], [15.143588, 4.044847000000118], [15.138383, 4.040844], [15.135356, 4.037389000000132], [15.12933100000015, 4.034968], [15.123842, 4.033520000000124], [15.118414000000143, 4.03345800000011], [15.112625, 4.031817], [15.106448, 4.031088000000125], [15.10063700000012, 4.030529], [15.091739000000189, 4.027507000000128], [15.08860900000019, 4.026134], [15.085395000000176, 4.02438], [15.083460000000116, 4.023313], [15.080598000000123, 4.021731000000102], [15.078803000000107, 4.020809], [15.077666, 4.020574000000124], [15.076786, 4.020756], [15.076373000000103, 4.020896000000107], [15.076191000000165, 4.020917], [15.076065, 4.020922], [15.075844, 4.020847000000117], [15.075417, 4.020636], [15.075006, 4.020411000000138], [15.073453, 4.019521], [15.073456705000126, 4.019512726000016], [15.102507000000116, 3.954646], [15.107032051000147, 3.947122645999968], [15.111557020000191, 3.93959926600013], [15.116081908000126, 3.932075861000158], [15.120606714000019, 3.924552429000073], [15.125131440000132, 3.917028971000036], [15.129656085000136, 3.909505488000036], [15.134180650000133, 3.901981977999981], [15.138705133000144, 3.89445844300019], [15.143229537000025, 3.886934882000048], [15.147753859999966, 3.879411296000171], [15.152278103000128, 3.871887684000058], [15.15680226699999, 3.864364046], [15.161326350000138, 3.85684038300019], [15.165850353999986, 3.849316694000038], [15.170374279000157, 3.84179298000015], [15.174898124000094, 3.834269240000026], [15.179421891000175, 3.826745476000156], [15.183945578000078, 3.819221685000116], [15.188469186000134, 3.81169787000016], [15.192992716000106, 3.80417403000007], [15.197516168000107, 3.796650164000141], [15.202039540999976, 3.789126274000068], [15.206562836000046, 3.7816023580001], [15.211086053000145, 3.774078417000112], [15.215609191999988, 3.766554452000094], [15.220132254000134, 3.759030462000169], [15.224655238000082, 3.751506446000064], [15.229178144000059, 3.743982406000157], [15.233700973999987, 3.736458342000049], [15.238223726000115, 3.728934252000101], [15.242746401000147, 3.721410138000181], [15.24727, 3.713886], [15.252802512000017, 3.708110755000121], [15.258334953000144, 3.702335475000154], [15.26386732200018, 3.696560159000114], [15.269399619000069, 3.690784807999989], [15.274931845000026, 3.685009422000178], [15.280465, 3.679233], [15.282430587000022, 3.677149064000105], [15.282430587000022, 3.677149063000059], [15.293756000000144, 3.686566], [15.327990000000113, 3.710425], [15.334740727999986, 3.713152502000128], [15.337075941000023, 3.714096], [15.352953090000028, 3.720510858000182], [15.354436000000135, 3.72111], [15.363211516000035, 3.725598381000054], [15.376845239000033, 3.732571572000154], [15.378332, 3.733332000000189], [15.396664, 3.744714000000101], [15.399932245000173, 3.747711117], [15.40333, 3.750827000000186], [15.40395678300007, 3.751360048000038], [15.414499, 3.761816], [15.4163115180001, 3.763613912000153], [15.418611000000112, 3.76611], [15.423054, 3.771663], [15.429441, 3.77583], [15.430064987000037, 3.776068358000032], [15.435316000000114, 3.779251000000102], [15.441591826000149, 3.780140533000065], [15.45474600000017, 3.782005], [15.46407283800005, 3.783326022000097], [15.465284141000154, 3.783326551000073], [15.469017417000146, 3.784725433000176], [15.477499, 3.781659], [15.484998000000132, 3.777493000000106], [15.489166, 3.773609], [15.491938, 3.770269000000155], [15.49361, 3.766107], [15.494992, 3.755828], [15.498046000000102, 3.74222], [15.499998000000119, 3.739161], [15.506941, 3.738324], [15.51749500000011, 3.738327], [15.52777, 3.73833000000019], [15.539442, 3.740277000000162], [15.549998000000187, 3.743048000000101], [15.559997, 3.747493], [15.566943000000151, 3.752220000000136], [15.574161000000117, 3.759163000000115], [15.578325, 3.764716], [15.586553000000151, 3.784039000000121], [15.589382101000183, 3.781968966000079], [15.591036570000028, 3.780546969000113], [15.591675000000123, 3.779936], [15.595929514000034, 3.772093657000028], [15.596376, 3.771042000000136], [15.598902000000123, 3.76930300000015], [15.603519, 3.769059], [15.605499009000027, 3.768995709000023], [15.606979013000114, 3.768948400000113], [15.610434324000096, 3.768953691000092], [15.61259500000017, 3.768957000000114], [15.620519000000115, 3.769162], [15.626816353000095, 3.769129194000129], [15.628965000000164, 3.769118000000105], [15.63645, 3.765032], [15.642549056000178, 3.760214431000179], [15.64446, 3.758705], [15.65276890500013, 3.762101875000042], [15.66326400000014, 3.765797000000134], [15.664069459000075, 3.765868215000069], [15.669643000000178, 3.766361], [15.674108922000016, 3.766386066000052], [15.6771260000001, 3.766403], [15.682236788000182, 3.765892678000057], [15.684557000000154, 3.765661], [15.686649326000065, 3.766184081000119], [15.688531656, 3.766654664000043], [15.693079, 3.766564000000187], [15.694545426000047, 3.766223972000091], [15.699419, 3.764362], [15.703666230000124, 3.761097790000179], [15.704646, 3.760059000000183], [15.710991, 3.755907], [15.715364768000143, 3.75252814300012], [15.72035000000011, 3.748454], [15.726229, 3.744457000000182], [15.732777061000093, 3.738721869000187], [15.7343, 3.737388], [15.73609691500019, 3.733145585000102], [15.738815000000102, 3.728351], [15.740170872000022, 3.726074083000128], [15.7416300000001, 3.724469000000113], [15.743175, 3.721497], [15.752921683000125, 3.719050131000017], [15.757616000000155, 3.717892], [15.759302866999974, 3.710986845999969], [15.760387, 3.708266], [15.763352221, 3.706820557000128], [15.766452990000175, 3.705309039000156], [15.767921704000173, 3.704409961000181], [15.77299777900015, 3.70130262400005], [15.776452391000191, 3.701695827000151], [15.777886, 3.701859], [15.786311, 3.703965], [15.791101837999975, 3.704189211000028], [15.794173000000114, 3.704088], [15.799643250000088, 3.703808189000142], [15.799862, 3.703797000000179], [15.801355000000115, 3.737746000000186], [15.799014, 3.749154000000146], [15.78851200000014, 3.770551], [15.791162, 3.798218], [15.777256000000136, 3.816418], [15.762882000000104, 3.828147000000115], [15.753718, 3.83256]]]}}]}