{"type": "FeatureCollection", "features": [{"type": "Feature", "properties": {"entity_id": "cf-p-bangui-v1", "name_fr": "Bangui"}, "geometry": {"type": "Polygon", "coordinates": [[[18.52944, 3.90805], [18.576546, 3.881879], [18.599138, 3.869331000000102], [18.612426710000022, 3.866750238000066], [18.612660006000112, 3.868709945000148], [18.61351794600006, 3.87591658700012], [18.614375902000177, 3.883123226000123], [18.614604681, 3.889300349000109], [18.61483346300014, 3.895477472000039], [18.61506224900006, 3.90165459300016], [18.61574859100017, 3.908174889000179], [18.616434943000115, 3.914695184000095], [18.61780762899997, 3.919156440000108], [18.619180330000177, 3.923617694000086], [18.62089618600004, 3.929108472], [18.62261206500017, 3.934599245000015], [18.62612772200015, 3.938402913000175], [18.62964341100019, 3.942206565999982], [18.634326314000134, 3.946463785000105], [18.63900926400015, 3.95072097700006], [18.64667223400005, 3.963492595000048], [18.650630401000058, 3.978742201000045], [18.650752288000092, 3.979211794000094], [18.652124982000032, 3.992938732000084], [18.65143864100014, 3.999802202000069], [18.650752288000092, 4.006665671000121], [18.649379609000164, 4.015245009000182], [18.648006901000088, 4.023824343000172], [18.647778122000034, 4.030230249000169], [18.647549340000126, 4.036636153000131], [18.647320554000032, 4.043042057000093], [18.646138439000026, 4.051562956000168], [18.644956299000057, 4.060083851000059], [18.644778019000057, 4.067215235000162], [18.644599736000146, 4.074346619000096], [18.644421450000152, 4.081478000000175], [18.644243161000077, 4.088609381000026], [18.643896270000027, 4.094925811000053], [18.643549374000088, 4.101242239000044], [18.643202471999984, 4.107558667000092], [18.63927060000009, 4.113841034000188], [18.6353386670001, 4.120123381000155], [18.63140667200014, 4.126405708000107], [18.623298412000167, 4.154916604000107], [18.621239411999966, 4.162695209000049], [18.619180371000084, 4.170473808000168], [18.617121290000114, 4.178252399000087], [18.6140328030001, 4.184601128000054], [18.610944267000036, 4.190949843000169], [18.607855681000103, 4.19729854600007], [18.60476704500013, 4.203647235], [18.603165595000178, 4.210053144000085], [18.60156411900016, 4.216459048000047], [18.599962617000187, 4.222864948], [18.594290522999984, 4.226337871000055], [18.588618378000092, 4.229810753000152], [18.574146753000036, 4.247062540000172], [18.562794875000122, 4.265982337000025], [18.559431425000184, 4.27397071200005], [18.556067905000077, 4.281959071000131], [18.552704316000018, 4.289947414000039], [18.549925757999972, 4.295726826000021], [18.54714715900002, 4.301506228], [18.54436851700018, 4.307285618000037], [18.54230947600007, 4.316894475000026], [18.543682170000125, 4.32307159700008], [18.544346037000082, 4.324069306000126], [18.54765903700013, 4.329048329000045], [18.55013183799997, 4.335325651000062], [18.552604680000115, 4.341602964000117], [18.556705313000066, 4.345253913000136], [18.56080598600016, 4.348904840000159], [18.56615451300013, 4.350331136000023], [18.571503060000055, 4.351757393000184], [18.575650185000086, 4.352586835000068], [18.576851589000057, 4.352827120000143], [18.58220013300007, 4.353896808000172], [18.59035376000014, 4.358075290000045], [18.59515818800014, 4.364252412000099], [18.599962617000187, 4.370429534000095], [18.608202388999985, 4.36941056400002], [18.61089031600011, 4.365575951000096], [18.613578216000064, 4.361741328000164], [18.61999645999998, 4.356749361000027], [18.628554119000114, 4.357462499000064], [18.632832938000035, 4.359245357000134], [18.63711177800019, 4.361028190000127], [18.642650351000043, 4.361582047000013], [18.644243161000077, 4.361741328000164], [18.64923512600018, 4.362097914000174], [18.654227096000056, 4.362454467000077], [18.659575632999974, 4.362454486], [18.66492417000012, 4.362454467000077], [18.673838385000067, 4.363524227000141], [18.682752626000024, 4.364593881000189], [18.689623703000166, 4.364479614000061], [18.696494778000158, 4.364365285000076], [18.709851878999984, 4.366733296000177], [18.720548953000105, 4.37172526400002], [18.734558264000043, 4.38086177100007], [18.736951132000172, 4.382422337000037], [18.75549272700016, 4.396685102000049], [18.772173969000164, 4.413556759000073], [18.783305117999987, 4.425923770000054], [18.78532020400013, 4.43215082800009], [18.787335324000026, 4.438377879000086], [18.78959903600014, 4.443204471000115], [18.79186277700012, 4.448031056000104], [18.79611930300001, 4.45555872500006], [18.80037591500013, 4.463086367000074], [18.805180344000064, 4.478872346000173], [18.805652940000073, 4.483776141000078], [18.806125542000075, 4.48867993600004], [18.807841953000093, 4.496433198000091], [18.80955840000007, 4.504186455000081], [18.81127488400017, 4.511939706000021], [18.812979026000107, 4.519207987000016], [18.81468320099998, 4.52647626300012], [18.816091195000126, 4.535088002000066], [18.817499222000038, 4.543699736000121], [18.818907282, 4.552311466000162], [18.821309475000078, 4.558488593000106], [18.82371171000017, 4.564665711000146], [18.825616528000012, 4.568203254000025], [18.825502000000142, 4.568295000000148], [18.824842, 4.568601], [18.824888000000158, 4.568646], [18.823586, 4.568916], [18.822604000000183, 4.569273], [18.820476000000156, 4.57104], [18.819246000000135, 4.571606], [18.816426, 4.573223], [18.813976, 4.57337200000012], [18.81258800000012, 4.574101], [18.81081, 4.576342000000182], [18.81039200000015, 4.57762700000012], [18.807554000000152, 4.579541000000177], [18.805986, 4.580500000000143], [18.803610000000162, 4.580923000000155], [18.801818, 4.5806970000001], [18.799960000000112, 4.580587], [18.79673600000018, 4.579584000000182], [18.794186, 4.579141000000106], [18.792484, 4.578801], [18.79132, 4.579160000000115], [18.78981800000014, 4.579936], [18.787324000000183, 4.580223000000103], [18.786704, 4.580095], [18.78410600000018, 4.579631000000177], [18.782692, 4.580131000000165], [18.7812, 4.579924], [18.779502, 4.579903000000115], [18.776212, 4.580590000000143], [18.77462, 4.579928], [18.77111200000013, 4.57982], [18.768824000000166, 4.578597], [18.764972000000114, 4.578493000000151], [18.762452000000167, 4.578507], [18.761610000000132, 4.578999000000124], [18.760244, 4.579635000000167], [18.757732, 4.580334], [18.75623400000012, 4.579739], [18.754566000000125, 4.580106], [18.753236, 4.580057], [18.751172000000167, 4.57995000000011], [18.74853, 4.581244], [18.746614000000136, 4.581912000000102], [18.745506000000148, 4.581265], [18.74289, 4.582742], [18.74067, 4.58298], [18.738460000000146, 4.582373], [18.734928, 4.582241000000124], [18.730264, 4.582972], [18.729532, 4.583074000000124], [18.724706, 4.582322], [18.723366, 4.581610000000126], [18.721850000000188, 4.579783000000134], [18.719948, 4.57812], [18.716456000000107, 4.576001], [18.713352000000157, 4.573786], [18.709400000000187, 4.573158], [18.707256, 4.572321], [18.705356, 4.570933], [18.702522, 4.568257000000187], [18.69967, 4.566014], [18.697266, 4.564588], [18.69577, 4.561001], [18.692922000000124, 4.557457000000113], [18.69223, 4.555480000000159], [18.691268, 4.554010000000176], [18.690764000000115, 4.552464000000157], [18.690502, 4.550161], [18.689636, 4.547251000000131], [18.689346, 4.544743], [18.689552, 4.543072], [18.689832, 4.540214], [18.691694000000155, 4.5374], [18.691976, 4.534679000000153], [18.69204200000013, 4.531366000000162], [18.691784, 4.52931400000017], [18.691614, 4.528586000000132], [18.692302, 4.527092], [18.692186000000163, 4.525426], [18.692408, 4.523253000000125], [18.69233400000013, 4.519715000000133], [18.69274800000011, 4.516694000000143], [18.694276, 4.514525000000106], [18.6954080000001, 4.511973000000125], [18.69563, 4.509778], [18.696576000000107, 4.507046000000173], [18.696956000000114, 4.504757], [18.696840000000122, 4.50153900000015], [18.696738, 4.499142], [18.69516, 4.497909000000163], [18.69372, 4.498181000000102], [18.69178200000016, 4.498803], [18.689428, 4.500916], [18.688328000000183, 4.502576000000147], [18.68693800000011, 4.503190000000131], [18.684922, 4.503151000000116], [18.683006, 4.502265], [18.679622000000165, 4.502862000000164], [18.67710600000015, 4.503287000000171], [18.67426, 4.502963], [18.672228000000132, 4.502011], [18.670202000000188, 4.501355], [18.667562, 4.501142000000129], [18.66439400000013, 4.500732000000141], [18.661545457999978, 4.500948967000056], [18.66144000000014, 4.500957000000142], [18.65892200000019, 4.501268], [18.65625, 4.501878], [18.65488, 4.50228600000014], [18.652952, 4.502131], [18.65005, 4.502813], [18.647232, 4.502877000000183], [18.643790000000138, 4.502584], [18.640752000000134, 4.503314000000103], [18.637668, 4.505620000000135], [18.634806, 4.507488000000137], [18.632188, 4.51035800000011], [18.629464000000155, 4.51224800000017], [18.626944, 4.515482], [18.622736, 4.516251], [18.620712, 4.517285000000186], [18.61867400000017, 4.517520000000104], [18.615474, 4.519691000000137], [18.613328, 4.52196], [18.61092, 4.52501], [18.608744000000115, 4.526731000000154], [18.606254, 4.52896], [18.603824, 4.530503000000124], [18.602020000000152, 4.532493000000102], [18.601368, 4.535037000000102], [18.601118, 4.538444], [18.60093200000017, 4.541438], [18.600342, 4.543365000000108], [18.599902, 4.546272000000158], [18.598226000000125, 4.547644000000162], [18.597374000000116, 4.550671000000136], [18.596072, 4.55254], [18.595652000000143, 4.553574], [18.595812, 4.553617], [18.595196, 4.555339], [18.5935, 4.556939], [18.591866, 4.558196000000123], [18.590598000000114, 4.559265000000153], [18.588828, 4.560524], [18.588478, 4.561694], [18.586224, 4.562755], [18.58558, 4.564134000000138], [18.584062, 4.565321], [18.580976000000135, 4.566028000000131], [18.579084, 4.566764000000148], [18.578452, 4.567412000000104], [18.57624200000015, 4.568312000000105], [18.57557000000014, 4.569464], [18.573912, 4.570561], [18.573004, 4.571168000000171], [18.572924, 4.571992000000137], [18.571208000000183, 4.572154], [18.57019400000013, 4.573333000000105], [18.56913, 4.574239], [18.56807600000019, 4.574300000000164], [18.566154000000154, 4.57458], [18.563888, 4.574818], [18.562474000000122, 4.575295], [18.561276000000134, 4.576432000000182], [18.560388, 4.576856], [18.557598, 4.577399], [18.556114, 4.577832000000171], [18.554908000000125, 4.578397], [18.55389, 4.57928], [18.550768, 4.580581000000109], [18.548330000000135, 4.58169], [18.547352, 4.582161], [18.545726000000116, 4.582231], [18.545080000000155, 4.582034], [18.54335600000013, 4.581694], [18.542250000000138, 4.581208000000117], [18.540574, 4.581118000000117], [18.53934, 4.581364], [18.538462, 4.58245], [18.537906, 4.583623], [18.537004, 4.584687], [18.537092, 4.586056], [18.536732, 4.588094000000183], [18.536292000000117, 4.589402], [18.535888, 4.591577], [18.535502000000122, 4.593456], [18.534872, 4.59584000000018], [18.534154000000115, 4.596878], [18.533352, 4.598557], [18.532840000000135, 4.599615], [18.531500000000108, 4.602078], [18.530554000000166, 4.603257], [18.52975, 4.60470700000019], [18.529172, 4.605949000000123], [18.528964, 4.607459000000176], [18.527862, 4.610467], [18.52704400000016, 4.612557], [18.524904, 4.61523700000015], [18.523862000000122, 4.617719], [18.521958, 4.620784], [18.521184, 4.622668], [18.519952000000103, 4.624787], [18.519376, 4.626166], [18.519828000000132, 4.627255000000105], [18.517436000000146, 4.629825], [18.516520000000185, 4.631551000000115], [18.515880000000152, 4.633273000000145], [18.515258, 4.634676], [18.513266, 4.636349000000109], [18.511748, 4.637627000000123], [18.510226, 4.63854], [18.500928928000178, 4.646670992000054], [18.498418595000032, 4.648866468000165], [18.498245954000026, 4.649017456000024], [18.49461500000018, 4.652193], [18.492974000000117, 4.653629], [18.48979153300013, 4.656413415000145], [18.489704, 4.656490000000133], [18.488180666000176, 4.657194237000056], [18.479903, 4.661021], [18.473491282000168, 4.662487333000172], [18.47325, 4.662441000000115], [18.470964, 4.662794], [18.469272000000103, 4.663115000000118], [18.467668, 4.66323], [18.466160000000173, 4.663480000000106], [18.464166, 4.663487], [18.462632, 4.663623], [18.46128000000016, 4.663666], [18.459468000000186, 4.663555000000144], [18.45774800000015, 4.663489], [18.455042, 4.663459000000159], [18.452322, 4.664001], [18.45083000000011, 4.663932], [18.447708, 4.663612], [18.44534, 4.663098000000161], [18.442668387000083, 4.662683927999979], [18.442514000000187, 4.66266000000013], [18.43743200000017, 4.661477000000161], [18.435710000000142, 4.661297000000161], [18.43452, 4.661406000000113], [18.432756000000154, 4.661454], [18.43124977800005, 4.661989448999975], [18.431141195, 4.662028049000185], [18.429149615000085, 4.66295080500015], [18.424988, 4.664879], [18.423336, 4.666364], [18.414996, 4.669797000000187], [18.412264000000164, 4.66954], [18.410602000000154, 4.66881], [18.407286, 4.667717], [18.405462000000114, 4.666716000000179], [18.402834, 4.665703], [18.400544, 4.664298000000144], [18.39891200000011, 4.662472], [18.397254, 4.660349], [18.395342, 4.657979], [18.393768000000136, 4.655398], [18.391444, 4.653171000000157], [18.390004, 4.651913], [18.388240000000167, 4.65187], [18.385102, 4.652053], [18.383316, 4.652216], [18.381538, 4.65288100000015], [18.380546, 4.654061], [18.378586, 4.654888000000142], [18.377552, 4.656251000000111], [18.377432000000113, 4.657509000000118], [18.376584, 4.659165000000144], [18.376582000000155, 4.660581], [18.375062000000128, 4.660033], [18.375132, 4.660237], [18.375576, 4.660710000000108], [18.374958, 4.662386], [18.373934, 4.662904], [18.370954, 4.664523], [18.367924000000187, 4.6658], [18.364546, 4.666808000000174], [18.354324, 4.670109], [18.351996000000156, 4.670782], [18.345666000000108, 4.672176], [18.344208, 4.672859], [18.337556000000177, 4.672522], [18.328072, 4.672934], [18.31568, 4.670374000000152], [18.313792, 4.669831000000158], [18.308314, 4.668266000000187], [18.30681600000014, 4.66774], [18.305604000000187, 4.66472], [18.30322200000012, 4.661649000000182], [18.298904, 4.656299000000161], [18.29611400000016, 4.653508000000159], [18.292082000000107, 4.648907000000122], [18.289478000000145, 4.646364], [18.287916, 4.644583000000125], [18.285124000000167, 4.640102000000127], [18.283222, 4.636932000000172], [18.281278, 4.632461], [18.279926000000103, 4.627731], [18.279352, 4.626003], [18.27841, 4.619508], [18.277984, 4.616957000000184], [18.277170000000183, 4.61304], [18.277294, 4.610504], [18.27810600000015, 4.606312000000116], [18.278828, 4.597532000000172], [18.280524, 4.592780000000118], [18.28118000000012, 4.590578000000164], [18.28213, 4.586431], [18.282792, 4.583018], [18.282746, 4.579867000000149], [18.283708, 4.573504000000185], [18.284004, 4.570074], [18.28530400000011, 4.566470000000152], [18.2861860000001, 4.564082], [18.286604, 4.56279700000016], [18.287062000000105, 4.558017], [18.288056, 4.557021], [18.287086703000114, 4.556186074000095], [18.28657, 4.555741], [18.28403400000019, 4.55463600000013], [18.2829660000001, 4.553715000000125], [18.281508, 4.552800000000104], [18.278916, 4.551102], [18.27534, 4.549395], [18.272034000000133, 4.547502000000122], [18.268546000000185, 4.545612], [18.264486000000147, 4.543866], [18.260522, 4.540818], [18.258882, 4.539883000000145], [18.254744, 4.537499], [18.25105, 4.535635], [18.248438, 4.534165], [18.245826, 4.53265000000016], [18.243636, 4.531746000000112], [18.23646200000013, 4.52863], [18.233004000000165, 4.527287000000172], [18.23155400000013, 4.526806000000136], [18.217524, 4.52194], [18.215886000000125, 4.521256000000108], [18.203112000000147, 4.517605], [18.199540000000184, 4.516332], [18.19456, 4.514372], [18.190568000000155, 4.512512000000129], [18.18821, 4.511085], [18.178906000000154, 4.506493], [18.1736, 4.504172], [18.1705520000001, 4.502618], [18.166418, 4.500462], [18.163734, 4.498697000000163], [18.158962, 4.49678], [18.154414000000145, 4.494517], [18.150836, 4.492833000000132], [18.144864, 4.490385], [18.138572000000124, 4.486503], [18.136142000000177, 4.484894000000111], [18.133642, 4.483194], [18.131554000000165, 4.481466000000182], [18.127864, 4.478277000000105], [18.12511, 4.474823000000129], [18.124472, 4.473439], [18.123814000000152, 4.47244400000011], [18.12202000000019, 4.468816000000118], [18.120704, 4.466551000000152], [18.120862000000102, 4.466389], [18.120274000000165, 4.462497], [18.135271, 4.452496], [18.149991000000114, 4.438882], [18.161936, 4.420276000000115], [18.171108000000117, 4.399442], [18.17694, 4.380275], [18.18583000000018, 4.358882000000165], [18.192213, 4.348882], [18.197491, 4.343602000000146], [18.206384000000128, 4.337774], [18.22055, 4.332221000000118], [18.229438000000187, 4.329437000000155], [18.242221, 4.328886], [18.254438000000107, 4.328327000000172], [18.267335000000173, 4.324989000000187], [18.26744445800017, 4.324870567000062], [18.28659716200019, 4.304147470000089], [18.2868, 4.303928], [18.307783, 4.287631], [18.322773, 4.268047], [18.33388500000018, 4.243332], [18.338332, 4.231381000000113], [18.34444100000013, 4.223325], [18.34471400000018, 4.215547], [18.34194200000013, 4.206943000000138], [18.338325, 4.198324], [18.33888700000017, 4.184439000000111], [18.342773, 4.165274000000181], [18.347499, 4.149159000000111], [18.349721, 4.138609000000145], [18.347216, 4.128883], [18.339164000000153, 4.106942000000117], [18.335550000000126, 4.098603], [18.335829000000103, 4.092216], [18.338327, 4.078603000000101], [18.350551000000166, 4.05916], [18.36249800000013, 4.049166], [18.377772, 4.039158000000157], [18.392218000000128, 4.028883000000121], [18.400554000000113, 4.020277], [18.404996, 4.002774000000102], [18.409994, 3.98916], [18.414903, 3.982466], [18.41611, 3.980826], [18.429161, 3.981666000000132], [18.437213000000156, 3.971662], [18.44749000000013, 3.969442000000186], [18.455269, 3.969716000000119], [18.464159000000166, 3.962499], [18.46722000000011, 3.954720000000123], [18.46527, 3.948605], [18.464722, 3.939992], [18.475826, 3.926941000000113], [18.497216, 3.90972], [18.502677, 3.90644], [18.50648, 3.904366], [18.514163, 3.905269], [18.52944, 3.90805]]]}}]}