{"type": "FeatureCollection", "features": [{"type": "Feature", "properties": {"entity_id": "cf-p-nana-gribizi-v1", "name_fr": "Nana-Gribizi"}, "geometry": {"type": "Polygon", "coordinates": [[[18.65555300000011, 6.966384], [18.651383, 6.961108000000138], [18.649436, 6.949999], [18.650429, 6.940728], [18.65143111100008, 6.938781992000088], [18.656310636000114, 6.92930640700007], [18.656385, 6.929162000000133], [18.669438, 6.920827], [18.684713, 6.912493], [18.701112, 6.89777700000019], [18.708051000000125, 6.888604], [18.716103, 6.8588850000001], [18.721936, 6.831936], [18.723885000000166, 6.824717], [18.727221000000156, 6.816936], [18.730825, 6.815825000000132], [18.734998, 6.815829000000122], [18.739443000000108, 6.81611], [18.747774, 6.816660000000127], [18.753609, 6.815549], [18.757222000000127, 6.814438000000109], [18.758605, 6.811105], [18.754443, 6.806659], [18.749161, 6.802214000000163], [18.741936000000123, 6.790552000000162], [18.738887, 6.776943000000188], [18.740277, 6.762777000000142], [18.745833000000175, 6.752497], [18.7686020000001, 6.734438000000125], [18.788053000000104, 6.719437], [18.806937, 6.706102], [18.83582600000011, 6.697771000000159], [18.848326000000156, 6.693882], [18.856660000000147, 6.690548], [18.862497, 6.687777000000153], [18.874997000000178, 6.672496], [18.876109000000156, 6.666936], [18.875276000000156, 6.657492], [18.873326, 6.649437], [18.86916, 6.644163000000162], [18.861663000000192, 6.636666000000162], [18.849163000000146, 6.631104], [18.825553, 6.621104], [18.80666300000013, 6.612213000000168], [18.787774000000127, 6.599719000000107], [18.77444400000013, 6.586938], [18.766657000000123, 6.57416], [18.759444000000144, 6.553604000000121], [18.756939, 6.538610000000119], [18.75249200000013, 6.514720000000182], [18.793609, 6.515550000000133], [18.824162000000115, 6.518325], [18.868049, 6.525274], [18.902776000000188, 6.533608000000129], [18.943326000000127, 6.542218], [18.969158000000164, 6.548603], [18.986382000000106, 6.552772], [19.002771, 6.554166], [19.014719000000127, 6.553051], [19.026944000000128, 6.548332000000187], [19.038762, 6.540046], [19.042452, 6.533783], [19.042519116999983, 6.533667052000055], [19.047216, 6.525553000000173], [19.056383, 6.503054], [19.071386, 6.47721300000012], [19.084437, 6.464438], [19.10193800000019, 6.45444300000014], [19.121387, 6.444441], [19.145269, 6.437218], [19.16305100000011, 6.433328000000131], [19.18166100000019, 6.433609000000104], [19.196102, 6.436938], [19.210831, 6.44361], [19.226105, 6.450549], [19.24416, 6.456939], [19.264994, 6.453607], [19.281104, 6.452768000000106], [19.30610200000018, 6.455832000000157], [19.335828000000163, 6.460271], [19.368327, 6.468328], [19.413326, 6.484996], [19.44471900000019, 6.494436000000178], [19.47777500000018, 6.501387000000136], [19.492165000000114, 6.503243], [19.507769000000167, 6.505828], [19.546106000000123, 6.504438000000164], [19.600828, 6.495825], [19.642495, 6.489718], [19.678332000000125, 6.486105000000123], [19.714158, 6.480552], [19.74305, 6.476108000000181], [19.74666400000018, 6.480826], [19.768600000000106, 6.482495], [19.79416, 6.481388], [19.816379, 6.47971600000011], [19.83583, 6.469443000000126], [19.84944000000013, 6.456386000000123], [19.861385, 6.447491000000127], [19.871381, 6.445827000000122], [19.876109000000156, 6.448324000000127], [19.879717, 6.452499], [19.88110500000016, 6.459995000000163], [19.879442, 6.468881000000124], [19.876385, 6.483604000000128], [19.869995000000188, 6.514442], [19.86110500000018, 6.554166], [19.857771, 6.586661], [19.859158, 6.607769000000189], [19.86444, 6.623331000000121], [19.870830000000126, 6.634167000000161], [19.881385, 6.644997], [19.89305000000013, 6.654166], [19.900274, 6.661658000000159], [19.907221, 6.672216000000105], [19.914718, 6.684437000000173], [19.921937000000128, 6.694992], [19.93305, 6.706382000000133], [19.941935000000115, 6.711385000000178], [19.954162000000167, 6.717769], [19.96443900000014, 6.727498], [19.97222200000016, 6.737496], [19.983603000000187, 6.746663000000183], [19.991379000000165, 6.753325000000189], [19.998327, 6.764439000000152], [20.003606, 6.773605], [20.014715, 6.783332], [20.023327000000165, 6.785270000000139], [20.031665000000146, 6.786941000000184], [20.039994, 6.799715000000162], [20.04666400000019, 6.811659], [20.045829, 6.818886], [20.046382000000108, 6.829443], [20.050548, 6.835554], [20.060272, 6.843608000000131], [20.077217, 6.854162000000144], [20.091103, 6.863603], [20.101662, 6.873881], [20.107218, 6.881662000000119], [20.111380000000167, 6.890547], [20.114992, 6.903602], [20.12360200000012, 6.943609000000151], [20.129443, 6.952494], [20.138049, 6.961105], [20.142775, 6.969443000000183], [20.143885, 6.976937000000135], [20.144999, 6.988882000000103], [20.14944400000013, 7.001944], [20.153046, 7.008050000000139], [20.154716, 7.01554700000014], [20.153887, 7.021386], [20.149441, 7.034438], [20.145548000000133, 7.048610000000167], [20.14583, 7.057771], [20.148608, 7.068328], [20.158609, 7.092492000000107], [20.156388, 7.096382000000119], [20.151663, 7.098886000000164], [20.147492, 7.096103], [20.14277600000014, 7.093884000000173], [20.138055000000122, 7.091936000000146], [20.13305300000013, 7.093055000000163], [20.129439000000104, 7.095825], [20.12749200000013, 7.10083], [20.127221, 7.107213000000115], [20.128326000000186, 7.113328000000138], [20.12861, 7.118606], [20.125277000000153, 7.12222], [20.119157, 7.121937000000116], [20.114165000000185, 7.119991], [20.108326, 7.118885], [20.102769, 7.118054], [20.098328, 7.120275000000106], [20.094167, 7.123331000000178], [20.09138, 7.127498000000173], [20.087769, 7.130548], [20.080829000000108, 7.131102000000112], [20.076108, 7.133326000000125], [20.075833000000102, 7.139439], [20.07304900000014, 7.143885000000125], [20.068602, 7.147215000000188], [20.063887, 7.14833], [20.056937000000175, 7.148884], [20.052772000000175, 7.151661000000161], [20.050553, 7.155831], [20.04860900000017, 7.161106], [20.043884, 7.163051], [20.038609, 7.164992], [20.034444, 7.167769000000135], [20.032776, 7.172771000000125], [20.032491, 7.179714000000104], [20.032216, 7.185827000000131], [20.02749400000016, 7.188051000000144], [20.021939, 7.189996000000122], [20.016381, 7.191661], [20.013331000000164, 7.194993], [20.011383, 7.199998000000107], [20.009158, 7.204439], [20.00499200000013, 7.20721600000013], [19.999437, 7.20916], [19.993331, 7.210273], [19.98804900000016, 7.211665000000153], [19.982499000000132, 7.21333], [19.976943000000176, 7.215274], [19.97304800000012, 7.218048000000181], [19.970551000000114, 7.222491000000105], [19.96721300000013, 7.225827], [19.961665, 7.227771000000132], [19.956939, 7.227219000000105], [19.951939, 7.225551000000166], [19.947216, 7.223602], [19.942219, 7.224720000000104], [19.93749600000018, 7.226943], [19.93582600000019, 7.231937], [19.93555, 7.238051], [19.9322140000001, 7.241657000000146], [19.927499, 7.243881000000101], [19.921943000000113, 7.245825], [19.918046, 7.248607000000163], [19.916103, 7.253325], [19.915273000000127, 7.259166], [19.912773, 7.26333000000011], [19.908049000000176, 7.265554000000122], [19.901661000000104, 7.266660000000172], [19.898328, 7.270554000000118], [19.89749400000011, 7.276107], [19.898608, 7.282215], [19.89888800000017, 7.288883000000169], [19.896388, 7.293047000000115], [19.894718000000125, 7.298051], [19.892495, 7.302771000000178], [19.890828000000113, 7.308054], [19.890831, 7.314165000000173], [19.890555, 7.320271], [19.89194, 7.326386], [19.893607, 7.331938], [19.894165, 7.33833200000015], [19.891382000000135, 7.34305], [19.886943, 7.344992000000161], [19.88222100000013, 7.347495000000151], [19.878884, 7.351110000000119], [19.877214, 7.35610400000013], [19.875551000000144, 7.360828], [19.873610000000156, 7.365825], [19.871937, 7.370549], [19.867775000000165, 7.373885000000143], [19.862770000000125, 7.374435000000176], [19.860825, 7.369994], [19.858327, 7.365271000000121], [19.854715000000112, 7.36193800000018], [19.848608, 7.361662], [19.843606, 7.364159], [19.838881, 7.366383], [19.834715000000188, 7.36943900000017], [19.832494, 7.373610000000156], [19.829716, 7.378049], [19.82805500000012, 7.383052000000134], [19.826381, 7.387776], [19.822215, 7.390832000000103], [19.81888600000019, 7.394439], [19.815825, 7.397771], [19.811659000000134, 7.401666000000148], [19.808607, 7.404999], [19.806102, 7.409714], [19.804438, 7.414438000000132], [19.803053, 7.419997], [19.802768, 7.426104000000123], [19.802491, 7.432219], [19.799165, 7.436105], [19.793610000000115, 7.436102000000119], [19.78944100000018, 7.433884], [19.785274000000186, 7.431108000000108], [19.78055400000011, 7.428887], [19.774713000000133, 7.42999500000019], [19.769992000000173, 7.43194], [19.76526900000016, 7.434443000000158], [19.761659, 7.438052], [19.76166200000017, 7.444165], [19.76333000000011, 7.449719], [19.765548, 7.454437000000155], [19.765274, 7.459164000000101], [19.764161000000172, 7.464721], [19.761659, 7.468887000000109], [19.75916, 7.473331], [19.758883, 7.479438000000187], [19.76027100000016, 7.484995], [19.762213, 7.489996000000133], [19.761939000000154, 7.496382], [19.759997, 7.50138], [19.757495000000176, 7.505555000000186], [19.753325, 7.507493000000125], [19.747215, 7.508055], [19.74166, 7.507214000000147], [19.736941, 7.50694], [19.731942000000117, 7.509158], [19.729717, 7.51305], [19.729166000000134, 7.519719], [19.731662, 7.524164000000155], [19.733328, 7.529439000000139], [19.732774, 7.535829], [19.731109000000117, 7.540553000000102], [19.725553000000104, 7.542218], [19.721382000000176, 7.539991000000157], [19.715831, 7.538888], [19.711390986000026, 7.542389792000051], [19.70850819000009, 7.544663422000042], [19.708046, 7.551659], [19.706384000000185, 7.556663], [19.701665, 7.558887], [19.696659, 7.557219], [19.692774, 7.553888000000143], [19.689994000000127, 7.549996], [19.686109, 7.546665], [19.681941000000165, 7.543888], [19.677216, 7.542216], [19.670828, 7.542221], [19.66610500000013, 7.544165], [19.664106000000118, 7.548163], [19.663885000000107, 7.548608000000115], [19.661102, 7.552776000000165], [19.65860800000013, 7.556942], [19.655270000000144, 7.560828], [19.649719, 7.562213], [19.643607, 7.561935000000176], [19.638602, 7.560275000000161], [19.633053, 7.56194], [19.629721, 7.565555], [19.627498000000173, 7.569718], [19.622498000000178, 7.569437], [19.61860300000012, 7.566106000000161], [19.613052, 7.566661], [19.60610600000018, 7.566942], [19.602493, 7.569713], [19.598324, 7.572769], [19.593604, 7.570826], [19.589722, 7.567773], [19.585276, 7.568605000000161], [19.581106, 7.571661], [19.57833, 7.57583], [19.577494000000115, 7.581385000000125], [19.577216, 7.587493000000109], [19.578332, 7.593884], [19.57777300000015, 7.599995000000149], [19.578052000000127, 7.606666], [19.581386000000123, 7.61082400000015], [19.585555000000113, 7.613603], [19.588886000000173, 7.61666], [19.59221700000012, 7.620548], [19.593885000000114, 7.626103000000114], [19.59471900000017, 7.632218], [19.594992, 7.639159000000177], [19.59554900000012, 7.644717000000128], [19.59472, 7.649992000000168], [19.591944, 7.654161000000101], [19.587771000000146, 7.656938], [19.582495, 7.658888000000104], [19.576111, 7.658605000000136], [19.571103000000164, 7.65694400000018], [19.56555, 7.658329], [19.563886, 7.663325], [19.565823, 7.668607], [19.568051, 7.673327], [19.571661000000177, 7.676941], [19.575825, 7.67916], [19.580275, 7.681935], [19.584719, 7.684160000000134], [19.587493, 7.688333000000114], [19.58999100000011, 7.69277], [19.586667, 7.696386], [19.580270000000155, 7.697492000000125], [19.575548, 7.695549000000142], [19.571936000000164, 7.692495], [19.568049, 7.689163], [19.563331000000176, 7.687491], [19.556939000000114, 7.688326], [19.553609000000108, 7.692221], [19.550553, 7.695554000000186], [19.544436000000132, 7.69666500000011], [19.540274, 7.697215000000142], [19.536109, 7.699992], [19.53388400000017, 7.704164000000105], [19.528333, 7.70582800000011], [19.524162000000103, 7.708884000000182], [19.52305500000017, 7.714443], [19.525552000000175, 7.718881], [19.522221, 7.722776000000124], [19.517498000000103, 7.724991], [19.514436, 7.728604], [19.511659000000122, 7.732773], [19.506939, 7.735276000000169], [19.50055, 7.736381000000108], [19.495827, 7.734437], [19.492215000000158, 7.731382], [19.488328, 7.72805], [19.48416600000013, 7.72527], [19.478606000000184, 7.724436], [19.473052, 7.723331], [19.466937000000144, 7.723052], [19.461942, 7.725269], [19.45805, 7.728331], [19.454164, 7.731105], [19.450832, 7.734991], [19.449164, 7.739717], [19.44638700000013, 7.743886], [19.44416100000018, 7.748049], [19.441386, 7.752498000000116], [19.436382, 7.754715], [19.431662, 7.753051], [19.430549000000156, 7.746938000000171], [19.431109000000106, 7.740825000000143], [19.43138000000016, 7.734716], [19.428325000000143, 7.730553], [19.422771000000125, 7.72943800000013], [19.418604000000187, 7.732215], [19.41610300000019, 7.73694], [19.415272000000186, 7.742217], [19.412494, 7.746386], [19.40777300000019, 7.748888], [19.404718000000173, 7.752492000000188], [19.401111000000185, 7.75611], [19.398047000000133, 7.759714], [19.394717000000128, 7.763050000000135], [19.390547, 7.766386000000125], [19.385554000000127, 7.768052000000125], [19.380832, 7.765277], [19.378883, 7.760553000000129], [19.377771, 7.754439000000161], [19.375274, 7.749991], [19.372491, 7.745825], [19.367775, 7.743609], [19.36333000000019, 7.745829], [19.359994, 7.749435], [19.356939, 7.753048], [19.353609, 7.756383], [19.350827, 7.761103000000162], [19.34832500000016, 7.764998], [19.34554700000018, 7.769158000000118], [19.34249400000016, 7.773051], [19.339166000000148, 7.776666], [19.33611, 7.78027], [19.332774, 7.783885], [19.329715, 7.787218000000166], [19.326939, 7.791658], [19.324720000000184, 7.796661], [19.321941, 7.80083], [19.31943600000011, 7.805276], [19.319719, 7.81083000000018], [19.321938, 7.815552], [19.32638400000019, 7.817771], [19.331105, 7.819437], [19.33638400000018, 7.821665000000166], [19.34054900000018, 7.823886], [19.344721, 7.826658000000123], [19.34777300000013, 7.83055], [19.34999, 7.834993000000168], [19.349719, 7.841103000000146], [19.346666, 7.844995], [19.341940000000136, 7.847218], [19.33554700000019, 7.848331], [19.330824, 7.850824000000159], [19.327774, 7.854166], [19.325833, 7.858886000000155], [19.323331000000167, 7.863603000000182], [19.321381000000144, 7.868332000000123], [19.321109, 7.874443], [19.322217, 7.879158], [19.325828, 7.882775], [19.329162000000167, 7.885825000000125], [19.334438, 7.887773], [19.338605, 7.889994000000115], [19.342777000000126, 7.892775], [19.346108, 7.896384000000182], [19.34943900000013, 7.899994000000106], [19.351940000000127, 7.904713], [19.353051, 7.910547000000179], [19.351104, 7.915547000000174], [19.348605, 7.91971400000017], [19.34472000000011, 7.922776], [19.33972200000011, 7.924993000000143], [19.33666000000011, 7.928886], [19.334719, 7.933607000000165], [19.333610000000135, 7.939166], [19.33471800000018, 7.943882], [19.338324000000114, 7.946938], [19.342497, 7.949718], [19.346936, 7.951936], [19.350554, 7.955272], [19.353602000000137, 7.959443], [19.35583, 7.963885], [19.35833200000019, 7.968604], [19.3588850000001, 7.975553000000161], [19.356109000000117, 7.979994], [19.352772, 7.983610000000112], [19.349442, 7.98693800000018], [19.347498000000144, 7.992217000000153], [19.345829, 7.996944], [19.344162000000154, 8.014715], [19.345832000000144, 8.020272], [19.349442, 8.023608], [19.354166, 8.025272], [19.358051, 8.027215], [19.363055, 8.028885], [19.368605000000173, 8.029999], [19.37333200000012, 8.031942], [19.377772000000164, 8.034159000000159], [19.37916100000018, 8.040548000000115], [19.375553, 8.044159], [19.370826, 8.046383000000105], [19.365269, 8.048048], [19.360825, 8.050549], [19.356665, 8.053327], [19.353328, 8.056944000000158], [19.350832, 8.061381], [19.349715, 8.066941], [19.350830000000144, 8.073054000000127], [19.353325000000154, 8.077773], [19.356106, 8.081379], [19.359164, 8.086388], [19.361388, 8.091110000000128], [19.364440000000172, 8.094721000000163], [19.36555600000014, 8.100825000000157], [19.365553, 8.106382], [19.361938000000123, 8.109443], [19.356384000000105, 8.111388], [19.353052000000105, 8.114716], [19.354714000000115, 8.120273000000111], [19.357218, 8.124991], [19.355272000000127, 8.129992], [19.35055, 8.131937000000107], [19.346105000000136, 8.134438000000102], [19.341938, 8.13749600000017], [19.339720000000113, 8.142499], [19.33972200000011, 8.148606000000143], [19.339444, 8.154716000000121], [19.339166000000148, 8.1608260000001], [19.336939, 8.16583], [19.333332, 8.168882000000167], [19.328332, 8.171109], [19.323054000000184, 8.17277200000018], [19.318886, 8.175829000000135], [19.31499600000012, 8.178604], [19.311658, 8.182213], [19.308323, 8.186109], [19.305823, 8.190277], [19.30304600000011, 8.194718], [19.300828, 8.198883], [19.297215000000108, 8.202214], [19.293608, 8.205275], [19.288606, 8.207493000000113], [19.28388, 8.209998], [19.279162, 8.212493], [19.276110000000187, 8.215827], [19.274712, 8.221381], [19.275831, 8.226106], [19.27332500000017, 8.2305530000001], [19.269437000000153, 8.233608000000117], [19.266663000000165, 8.237499000000184], [19.26499, 8.242776000000163], [19.262218, 8.246938], [19.257771, 8.249439], [19.252217, 8.250833000000114], [19.246666, 8.249999], [19.243882, 8.253881], [19.242215, 8.258888000000127], [19.244994000000133, 8.263054000000182], [19.249721, 8.265548000000138], [19.248884, 8.270275], [19.244162000000188, 8.272491000000116], [19.237222, 8.273052000000177], [19.234163000000137, 8.276666], [19.236385, 8.281108], [19.239436000000126, 8.285271], [19.243049, 8.288607], [19.245552, 8.293055], [19.24582500000014, 8.299999000000128], [19.242495000000133, 8.303607], [19.237773, 8.305832], [19.233325, 8.308325000000139], [19.229714, 8.311936000000117], [19.22888600000016, 8.317493000000184], [19.22971900000016, 8.323331], [19.228607000000125, 8.329442000000142], [19.226384, 8.333327], [19.223603, 8.337498], [19.220827, 8.342219], [19.21777400000019, 8.345554000000106], [19.214437, 8.349442], [19.211384000000123, 8.352777000000174], [19.207220000000177, 8.355555000000152], [19.20360200000016, 8.359437000000185], [19.199999000000105, 8.362218], [19.19666100000012, 8.366106], [19.193327000000124, 8.369444], [19.190829, 8.373882], [19.185825, 8.37611], [19.181385, 8.378611], [19.175273000000118, 8.379714000000149], [19.168885, 8.380548], [19.164156, 8.383053000000189], [19.16083, 8.386381], [19.158331, 8.390829000000167], [19.155549, 8.394991000000118], [19.15332800000016, 8.399165000000153], [19.149157000000173, 8.402213], [19.145825000000173, 8.405831000000148], [19.144162, 8.410549], [19.142497000000162, 8.41582700000015], [19.141665, 8.421936], [19.138601, 8.425271000000123], [19.136664000000167, 8.430552], [19.135826000000122, 8.43611], [19.135547000000145, 8.442221000000131], [19.13277, 8.446943], [19.129722, 8.450828000000115], [19.126939, 8.4549990000001], [19.124717, 8.4591640000001], [19.118331000000126, 8.460269], [19.112776, 8.46194300000019], [19.108609, 8.464721000000168], [19.105551000000162, 8.468606], [19.103602, 8.473608], [19.102769, 8.47888600000016], [19.10305200000016, 8.485832], [19.101108, 8.490553], [19.099442, 8.495832000000178], [19.096659, 8.499994000000129], [19.09583, 8.505552], [19.09693700000014, 8.51165900000018], [19.098328, 8.51722], [19.09943600000014, 8.523327000000165], [19.098332, 8.528608000000133], [19.096382, 8.53361], [19.094716, 8.538888000000156], [19.09193900000014, 8.54277100000013], [19.09111, 8.548329], [19.089991, 8.553881000000104], [19.088881, 8.559443], [19.08694, 8.564444], [19.077610753000044, 8.56804168300016], [19.074716, 8.569158], [19.074166, 8.558326], [19.073055000000124, 8.55194], [19.072495000000174, 8.54527700000017], [19.073333, 8.538888000000156], [19.074166, 8.53361], [19.075276, 8.528048000000126], [19.076386, 8.52249600000016], [19.074714, 8.516937], [19.07055400000013, 8.514436000000103], [19.064158000000134, 8.51555], [19.060551, 8.512221000000125], [19.058879000000104, 8.506662], [19.058607, 8.499716], [19.060270000000116, 8.494997000000183], [19.063603, 8.49138], [19.06916, 8.489716], [19.073055000000124, 8.486941000000115], [19.074993, 8.481660000000147], [19.073887, 8.475553], [19.071102, 8.471936], [19.066379, 8.469161], [19.06165700000014, 8.467496], [19.059161000000188, 8.462775], [19.058326, 8.4566650000001], [19.058045, 8.449720000000127], [19.058884, 8.444161], [19.061662000000183, 8.43944], [19.063881, 8.434995000000185], [19.066665, 8.430833], [19.066384, 8.423888], [19.068047, 8.41916], [19.072770000000162, 8.416666], [19.076939000000152, 8.413329], [19.07583, 8.407772000000136], [19.07249700000017, 8.403602], [19.066937, 8.40221600000018], [19.059993000000134, 8.402775], [19.054435000000126, 8.401659000000109], [19.052493, 8.396941], [19.052773000000116, 8.390829000000167], [19.054434, 8.385831000000167], [19.056388, 8.381109], [19.058607, 8.376664], [19.060832, 8.371940000000109], [19.059717, 8.365824], [19.057219, 8.36083200000013], [19.053047, 8.35861000000017], [19.047492000000148, 8.358604000000184], [19.041944000000115, 8.35916600000013], [19.038603, 8.354995], [19.040826000000152, 8.349991], [19.042498000000137, 8.345272], [19.044992, 8.341104000000144], [19.046662, 8.336106000000143], [19.046383, 8.32916], [19.04555, 8.32305], [19.04388, 8.317499000000169], [19.042769000000135, 8.311663], [19.039990000000103, 8.307495000000188], [19.035272000000134, 8.304998000000182], [19.030553000000168, 8.303331000000128], [19.0241630000001, 8.303053], [19.019995, 8.300270000000125], [19.01749100000012, 8.295549000000165], [19.017212000000143, 8.288603], [19.017775, 8.282496000000151], [19.017212000000143, 8.276943], [19.016108, 8.27082700000011], [19.016381000000138, 8.264714], [19.017774, 8.259159000000125], [19.019439, 8.254441], [19.022769, 8.250554000000136], [19.026663000000156, 8.247771], [19.030826, 8.244715], [19.034992000000102, 8.241939000000173], [19.03888, 8.238606000000118], [19.043607, 8.236663], [19.049158000000148, 8.237491], [19.052772, 8.23833000000019], [19.058051, 8.236381], [19.059434, 8.230827], [19.058877000000166, 8.224163], [19.058607, 8.217218], [19.061937, 8.213331000000153], [19.06555, 8.21055100000018], [19.06555, 8.205272], [19.063882, 8.199721], [19.06194100000016, 8.194163000000117], [19.060547, 8.188880000000154], [19.059997, 8.181937000000175], [19.060270000000116, 8.175825], [19.062493000000188, 8.170831000000135], [19.065547, 8.167497], [19.06749500000018, 8.162217000000112], [19.065823, 8.157216], [19.0627750000001, 8.153050000000121], [19.057774, 8.151106], [19.052768, 8.149442], [19.048051, 8.147774], [19.04749700000019, 8.14222100000012], [19.04943900000012, 8.13722], [19.05110900000011, 8.132213], [19.052773000000116, 8.127495], [19.055554, 8.123054], [19.058605, 8.119441], [19.059992, 8.114166000000182], [19.06027200000011, 8.10777400000012], [19.058326, 8.102497000000142], [19.056384, 8.097499000000141], [19.050825, 8.096661], [19.045554, 8.094719000000168], [19.04193800000013, 8.091659000000107], [19.040547000000174, 8.087495], [19.04222, 8.082776], [19.047221, 8.080272], [19.051662, 8.078053000000182], [19.055824000000143, 8.074998], [19.058326, 8.070831], [19.05860900000016, 8.064719], [19.055553, 8.06055300000014], [19.05193400000013, 8.057214000000101], [19.047772, 8.054719], [19.045271, 8.04999700000019], [19.044997000000137, 8.043331], [19.045549000000165, 8.036936], [19.044438, 8.030829000000153], [19.041104, 8.026936], [19.035829, 8.027213], [19.030271, 8.026383000000124], [19.027216, 8.022217], [19.025549000000183, 8.016665], [19.024995, 8.009992], [19.026108, 8.004441], [19.028054000000168, 7.99888], [19.02971300000013, 7.993603], [19.030269, 7.987497], [19.028608000000133, 7.98249600000014], [19.026106, 7.977493], [19.023325, 7.973604], [19.019999000000155, 7.96944], [19.019435, 7.963606], [19.020274, 7.957777], [19.024438, 7.954993], [19.030274000000134, 7.953881], [19.03221900000017, 7.94916], [19.03111, 7.943052], [19.02916, 7.938054], [19.025828, 7.933330000000183], [19.023051, 7.92972], [19.019163000000106, 7.926382000000103], [19.01582900000011, 7.923328], [19.011105, 7.920549000000108], [19.006382, 7.91888], [19.00138500000014, 7.91694200000012], [18.99666200000013, 7.915273], [18.99138500000015, 7.913329000000147], [18.989348368000037, 7.912650394000138], [18.986382000000106, 7.911662], [18.984993, 7.907497], [18.987496, 7.903331000000151], [18.991658, 7.900277], [18.99805300000014, 7.896109], [19.002771, 7.893609], [19.006384, 7.88999200000012], [19.007214000000147, 7.884163000000115], [19.005555000000186, 7.879161000000124], [19.003329, 7.874435], [18.998885, 7.871662000000129], [18.994719000000146, 7.869436000000178], [18.989158, 7.868054], [18.98416500000019, 7.866387000000145], [18.979721, 7.863605000000177], [18.97694500000017, 7.859994], [18.975828, 7.853885000000105], [18.977771000000132, 7.848885000000109], [18.980829, 7.844993000000159], [18.984164, 7.841659000000163], [18.987222000000145, 7.837776], [18.990828, 7.834439000000145], [18.992491, 7.829441000000145], [18.991663, 7.82333], [18.989157, 7.8186070000001], [18.9863840000001, 7.814436000000114], [18.982491, 7.811387], [18.978886, 7.808054], [18.97666, 7.803328000000135], [18.976106, 7.796384], [18.977495, 7.791109], [18.979166, 7.786103], [18.97944400000017, 7.779999], [18.979992, 7.773884], [18.98221500000011, 7.769721000000175], [18.9863840000001, 7.766658], [18.99055600000014, 7.763884], [18.996106000000168, 7.763327000000118], [19.003053000000136, 7.763054000000125], [19.00722000000013, 7.76555], [19.01138800000018, 7.768047], [19.016108, 7.765827], [19.020268, 7.762774], [19.021662000000106, 7.759999000000107], [18.88416000000018, 7.694161], [18.759444000000144, 7.636939000000154], [18.72943700000019, 7.620832], [18.724164000000144, 7.614721], [18.720271, 7.60916600000013], [18.71729, 7.602477], [18.720276000000183, 7.585550000000126], [18.794159, 7.395550000000185], [18.846384, 7.251110000000153], [18.842496, 7.241386], [18.836938, 7.236107000000118], [18.830273, 7.232498000000135], [18.819436, 7.227218], [18.808327000000133, 7.223881000000176], [18.796386000000155, 7.21944], [18.788052, 7.217217000000176], [18.781657, 7.214435], [18.776384, 7.210832000000153], [18.774165, 7.20805200000018], [18.771659, 7.205554], [18.769437, 7.202494], [18.769441, 7.197493000000122], [18.76943800000015, 7.191661], [18.771661, 7.17193600000013], [18.77138, 7.166386000000102], [18.769993, 7.162498], [18.767496, 7.15888], [18.763049, 7.153329000000156], [18.756659000000127, 7.146665000000155], [18.747221, 7.14082800000017], [18.737492000000145, 7.136935000000108], [18.727768, 7.13249100000013], [18.72165600000011, 7.129995000000179], [18.71388400000012, 7.126663000000178], [18.709718, 7.122218], [18.707083000000125, 7.11332], [18.709284, 7.105137], [18.717221000000166, 7.102215000000115], [18.728328, 7.099995], [18.743051, 7.098053000000164], [18.746381, 7.097494], [18.748053, 7.091937], [18.747776, 7.08443700000015], [18.745551, 7.077495], [18.740549000000158, 7.073608000000149], [18.733047, 7.071105000000159], [18.72555, 7.069161], [18.719435, 7.066104000000109], [18.714161000000104, 7.059718], [18.706660000000113, 7.04833], [18.703883, 7.029719000000171], [18.704162, 7.014721000000179], [18.696663, 6.991939], [18.690276, 6.982771000000184], [18.684993, 6.980826], [18.673608000000115, 6.977213], [18.664156000000162, 6.973603000000139], [18.65555300000011, 6.966384]]]}}]}