{"type": "FeatureCollection", "features": [{"type": "Feature", "properties": {"entity_id": "cf-p-ouham-pende-v1", "name_fr": "Ouham Pendé"}, "geometry": {"type": "Polygon", "coordinates": [[[16.470553, 5.623327000000131], [16.481665, 5.612491], [16.492221, 5.603610000000174], [16.505552, 5.58916], [16.514715, 5.568327000000124], [16.517391, 5.554724], [16.548692, 5.567579], [16.554385, 5.577256], [16.556383000000153, 5.584162], [16.561935000000176, 5.591382], [16.566938, 5.599165], [16.574437, 5.608604000000184], [16.58555500000017, 5.614443000000165], [16.596937, 5.61777700000016], [16.608326, 5.623606000000166], [16.615270000000123, 5.630830000000117], [16.621104, 5.644994], [16.62694100000016, 5.656942], [16.634166, 5.664717000000167], [16.64416, 5.671381000000167], [16.65944300000018, 5.678048], [16.670274000000177, 5.686942000000158], [16.679991, 5.697494000000177], [16.683605, 5.704718000000128], [16.68166300000013, 5.71694100000019], [16.67888100000016, 5.728606], [16.681937, 5.733327], [16.688047, 5.741936], [16.726944000000174, 5.76166000000012], [16.740553000000148, 5.771936], [16.745827, 5.778331000000151], [16.75221500000015, 5.788883000000112], [16.763328, 5.797493], [16.779436, 5.792216], [16.800553, 5.794998], [16.822219000000132, 5.805824], [16.852497, 5.818883], [16.87305300000014, 5.824159000000122], [16.894716000000187, 5.825551], [16.912774, 5.826105], [16.925825, 5.827769], [16.93360200000012, 5.828882000000135], [16.937769000000117, 5.832774], [16.94027, 5.835550000000126], [16.944159000000184, 5.840274], [16.948324000000184, 5.846381], [16.954999, 5.852497], [16.978395, 5.858645], [16.976940000000127, 5.860829], [16.97333, 5.86388], [16.96916, 5.866661000000136], [16.966666, 5.871110000000158], [16.964715000000126, 5.876108000000158], [16.964438, 5.882221], [16.964436, 5.889165000000105], [16.96472000000017, 5.893052], [16.965826, 5.899440000000141], [16.96527, 5.905554000000109], [16.962774, 5.909713000000124], [16.959445000000187, 5.913052000000164], [16.956389, 5.916942000000176], [16.95305100000013, 5.920272000000182], [16.95138, 5.925269], [16.947771, 5.928609], [16.94526700000017, 5.933048000000156], [16.94138500000014, 5.935829], [16.938047, 5.939159], [16.93499, 5.943049], [16.932767000000126, 5.947776], [16.933324, 5.954718], [16.934717, 5.960274], [16.93583100000012, 5.966383000000178], [16.934712000000104, 5.971938], [16.93276900000012, 5.976665], [16.93027300000017, 5.980833], [16.928330000000187, 5.985550000000103], [16.927212, 5.991106000000116], [16.926104, 5.996942000000161], [16.924994, 6.002498000000116], [16.923885, 6.008053], [16.922775000000115, 6.013328], [16.921656, 6.018884], [16.921380000000113, 6.024997], [16.924158000000148, 6.029165000000148], [16.926657000000148, 6.033605], [16.92805, 6.03916], [16.926939000000175, 6.044436000000189], [16.92360200000013, 6.048327], [16.91944, 6.051108000000113], [16.917214, 6.055275000000108], [16.913605, 6.058887], [16.912776, 6.064441], [16.910554, 6.0694400000001], [16.910277, 6.075554], [16.909992, 6.081658], [16.908602, 6.087215000000128], [16.906939, 6.091940000000136], [16.90610900000013, 6.097495], [16.904721, 6.103332], [16.904435, 6.109436000000187], [16.90606041000018, 6.11089553700009], [16.908253262000073, 6.112864609000098], [16.918184, 6.123652000000106], [16.97037477000015, 6.122527297000033], [16.970899, 6.122516], [16.970647, 6.130482], [16.970410040000047, 6.138025582000125], [16.96994500000011, 6.140947], [16.960082000000114, 6.154492000000118], [16.958676824, 6.173298953000028], [16.954282, 6.191279], [16.959408109000037, 6.202110344000118], [16.96235800000011, 6.209425000000124], [16.963622577000024, 6.21042852700009], [16.966151, 6.212435000000141], [16.968427000000133, 6.216950000000111], [16.976773, 6.240277], [16.976629000000173, 6.241561996000087], [16.976629000000173, 6.247415855000156], [16.976629000000173, 6.247540000000186], [16.978921000000128, 6.249813000000131], [16.973244184000066, 6.265168233000111], [16.97222100000016, 6.267367], [16.975524559000178, 6.275149878000093], [16.977202000000148, 6.279933], [16.978855473000124, 6.288952073000132], [16.979362589000118, 6.291718201000037], [16.984063975000083, 6.295799088000081], [16.985118, 6.296714000000122], [16.989351601000067, 6.296014174000106], [17.002414, 6.294140000000141], [17.012727, 6.29755], [17.013383757000042, 6.300589650000177], [17.014237410000078, 6.304540589000112], [17.014446000000135, 6.30550600000015], [17.026862451000113, 6.301587815000062], [17.027052, 6.301528000000189], [17.027052, 6.305722183], [17.027052, 6.318576000000121], [17.033159000000182, 6.327086000000122], [17.039658, 6.329374], [17.044815, 6.341308], [17.038512, 6.350969], [17.047847568000122, 6.359683538000183], [17.048090000000116, 6.359924], [17.048090000000116, 6.361291081000047], [17.047387915, 6.366585062000127], [17.047151729000177, 6.368365997000126], [17.051884000000143, 6.369707000000176], [17.06402300000019, 6.368954], [17.064363278000087, 6.369741604000183], [17.06487, 6.370914456000037], [17.066299000000186, 6.374222], [17.07294426800007, 6.383275919000084], [17.082059000000186, 6.394727000000159], [17.08359001700012, 6.394879033000052], [17.087789000000157, 6.395296], [17.09069136900007, 6.395707006000066], [17.0918, 6.395864], [17.099415557000157, 6.390599842000086], [17.104992000000152, 6.386262], [17.126995, 6.39980700000018], [17.12711574700006, 6.400286168000036], [17.127624353000044, 6.402304497000159], [17.13002900000015, 6.411847], [17.131589, 6.421088000000111], [17.128055, 6.43618], [17.12816, 6.437878000000183], [17.12730900000014, 6.440661], [17.126283968000052, 6.441810322000094], [17.125206, 6.443019000000106], [17.12419800000015, 6.443941], [17.12187, 6.445124], [17.120540000000176, 6.445637], [17.11760500000014, 6.445931], [17.115397, 6.445625], [17.113519291000046, 6.446021851000125], [17.112965, 6.446139000000187], [17.109942000000103, 6.447416000000146], [17.108799587000135, 6.447843468000144], [17.108136920000106, 6.44809142400004], [17.1072, 6.448442000000114], [17.105596, 6.448177], [17.103471, 6.4475920000001], [17.101483893000022, 6.450349252000024], [17.10111000000012, 6.451387], [17.09916100000015, 6.454441000000145], [17.096938, 6.456657000000178], [17.09305300000011, 6.459159], [17.089437, 6.461108], [17.08416000000011, 6.463607], [17.078326, 6.464716000000124], [17.072221, 6.465826000000163], [17.067222000000186, 6.467772], [17.064717, 6.471941], [17.062213000000156, 6.476381], [17.058049, 6.479165], [17.052497, 6.480833000000189], [17.050272000000177, 6.484991], [17.046108, 6.487775], [17.039993, 6.488884], [17.035826, 6.486388], [17.032215, 6.48304800000011], [17.028333, 6.479718000000105], [17.024165, 6.4772210000001], [17.018882000000133, 6.476103000000137], [17.012496, 6.476942000000122], [17.00776900000011, 6.479438], [17.003885, 6.48222], [16.998324, 6.484159], [16.99166300000013, 6.484158], [16.986667000000125, 6.482496], [16.982218, 6.4797200000001], [16.976107000000127, 6.479436], [16.972775000000127, 6.482776000000172], [16.96804900000012, 6.485272000000123], [16.961943, 6.486381], [16.957774, 6.483603], [16.95388400000013, 6.480273000000182], [16.953889000000174, 6.474721], [16.95361, 6.467769000000146], [16.951667, 6.460824000000173], [16.948327, 6.45722], [16.942775, 6.459158000000173], [16.937213, 6.460553000000118], [16.931659, 6.459435], [16.927491, 6.456657000000178], [16.923325000000148, 6.45444], [16.918885000000103, 6.451663000000167], [16.913604000000134, 6.453328], [16.90888500000011, 6.455552], [16.903332, 6.457218], [16.898604, 6.459442], [16.894720000000177, 6.462495], [16.890826, 6.465276000000131], [16.887215, 6.469159], [16.88499700000017, 6.473047], [16.88221900000019, 6.477216], [16.879715000000147, 6.481936000000132], [16.874995, 6.48388], [16.869441, 6.483050000000105], [16.862499000000128, 6.483049], [16.858325, 6.486102], [16.85527300000018, 6.489441], [16.851109, 6.492774000000168], [16.84861, 6.496663], [16.846667, 6.501661], [16.845547000000124, 6.506937000000164], [16.843884, 6.511943], [16.84222, 6.51694], [16.84083, 6.522497000000101], [16.839166, 6.527214000000129], [16.836388000000113, 6.531384000000173], [16.834716000000128, 6.536381], [16.83193800000015, 6.540831], [16.828886, 6.544161], [16.823886, 6.546665000000132], [16.81777700000015, 6.547221], [16.81082600000019, 6.547771000000125], [16.804719, 6.548887], [16.799163000000135, 6.55027200000012], [16.796102000000133, 6.553882], [16.792770000000132, 6.557493], [16.791105, 6.562219], [16.788880000000177, 6.566938000000107], [16.789438000000132, 6.57388], [16.78999400000015, 6.579991], [16.79055200000016, 6.586942], [16.79083, 6.593886000000111], [16.78999, 6.599161], [16.78919900000011, 6.600348], [16.78722000000016, 6.60333], [16.783608, 6.607213], [16.78348019300006, 6.607311259000085], [16.7828857130001, 6.60776829800011], [16.779408, 6.61], [16.77848462800017, 6.610256536000122], [16.773603, 6.61111], [16.768328, 6.60999900000013], [16.768128434, 6.609997923000151], [16.767249495000044, 6.609993181000107], [16.767216, 6.609993], [16.761658, 6.621108], [16.756707730000073, 6.6346609470001], [16.756433320000156, 6.635412233000068], [16.756383, 6.63555], [16.753326, 6.650553], [16.753654672000096, 6.655574062000028], [16.75443500000017, 6.667495], [16.754133196000055, 6.667115024000111], [16.74132, 6.65098300000011], [16.739108000000158, 6.65221600000018], [16.727417, 6.648423], [16.724499, 6.650052000000187], [16.719991, 6.655394], [16.71822900000012, 6.660217000000102], [16.71555400000011, 6.664594], [16.709512, 6.667010000000118], [16.703573, 6.664321], [16.701398, 6.661189], [16.69773, 6.656851000000131], [16.69458500000013, 6.656756], [16.68757600000015, 6.659003], [16.677326000000107, 6.662823], [16.668261, 6.667284], [16.65894802400004, 6.670720242000186], [16.654637, 6.670955], [16.647850000000176, 6.667218000000105], [16.643965, 6.663988000000188], [16.637388, 6.656264], [16.632039, 6.652432], [16.618395, 6.648904], [16.61635900000016, 6.648889], [16.612223, 6.644722], [16.610205, 6.640945], [16.607962000000157, 6.636930000000177], [16.605282000000102, 6.63364300000012], [16.603891, 6.63216100000011], [16.600723000000187, 6.629696], [16.597935, 6.626918], [16.594468, 6.623607], [16.591483, 6.619662000000119], [16.587598, 6.614853], [16.584096, 6.609591000000137], [16.581271, 6.604907], [16.577806, 6.601551000000143], [16.572838000000104, 6.597359], [16.565514000000178, 6.593002000000126], [16.561964000000103, 6.592522], [16.55756, 6.59118100000012], [16.54486700000018, 6.58522], [16.54047000000014, 6.583647], [16.536524000000156, 6.579300000000103], [16.5327190000001, 6.574912], [16.531071000000168, 6.572725], [16.526488, 6.568034000000182], [16.52177500000016, 6.564593], [16.513357, 6.559646], [16.509212, 6.558962], [16.504511, 6.555103], [16.50129100000015, 6.54813200000018], [16.500663, 6.545884000000171], [16.500232, 6.544802000000175], [16.499038, 6.544487], [16.492825, 6.551331000000175], [16.489373000000114, 6.554887], [16.487934, 6.559266], [16.488054, 6.562105], [16.484725, 6.563272000000154], [16.483031, 6.566661], [16.482295000000136, 6.571599000000106], [16.47967000000017, 6.574295], [16.477155, 6.576246], [16.475385000000188, 6.577878], [16.47083700000013, 6.580854], [16.46859, 6.582150000000183], [16.46653700000013, 6.586082], [16.464749, 6.58857], [16.462096, 6.589441], [16.45777800000019, 6.588338], [16.453967000000148, 6.587322], [16.449664, 6.587615], [16.4435840000001, 6.588842], [16.43947500000013, 6.590780000000166], [16.432203, 6.593658], [16.42913, 6.594734], [16.42660400000011, 6.595063000000152], [16.423527, 6.59530500000011], [16.418587, 6.595151000000158], [16.407797, 6.593272], [16.397805, 6.591816], [16.388621000000114, 6.592429000000152], [16.38382, 6.594325], [16.380781000000127, 6.594905], [16.37433600000014, 6.596968], [16.367520000000184, 6.600092], [16.361584, 6.603143], [16.35522600000013, 6.606444000000181], [16.350169, 6.609446], [16.345412, 6.610395], [16.343319, 6.607973000000186], [16.341752, 6.605796], [16.338375, 6.602908000000127], [16.334016, 6.600611000000185], [16.332020000000114, 6.600013], [16.328838, 6.599737000000175], [16.30590100000012, 6.650738000000104], [16.301637, 6.654803000000129], [16.298481, 6.65291800000017], [16.29566700000015, 6.652312000000109], [16.293132000000185, 6.652467000000115], [16.291025000000104, 6.652833], [16.28764600000011, 6.653941], [16.285300000000177, 6.654806], [16.281958, 6.655682], [16.27975800000013, 6.656043], [16.278109, 6.656110000000126], [16.274777, 6.65524100000016], [16.272514, 6.6523830000001], [16.271076000000107, 6.650459], [16.270158, 6.649917000000187], [16.26852, 6.649402], [16.26524, 6.647277], [16.263578, 6.644828000000132], [16.263203, 6.642174], [16.262367, 6.637513], [16.261628, 6.636701], [16.26152700000017, 6.636439], [16.25985700000018, 6.629447], [16.260145, 6.624991000000136], [16.261708, 6.622869], [16.26565100000016, 6.621236000000124], [16.27117100000015, 6.621161000000143], [16.274684, 6.620923000000175], [16.281504000000155, 6.621577000000116], [16.284739000000116, 6.622115], [16.2879420000001, 6.620858000000112], [16.290778000000103, 6.618763000000172], [16.292684, 6.615939], [16.291976, 6.612637], [16.291868, 6.608601], [16.291090000000167, 6.604922000000158], [16.290259000000162, 6.60135600000018], [16.28907800000013, 6.59784], [16.287522, 6.593207], [16.28545800000012, 6.590128], [16.284332, 6.58801300000016], [16.286368, 6.587293000000102], [16.282123, 6.586975000000109], [16.27829800000012, 6.587381000000107], [16.274077, 6.586274000000174], [16.270294, 6.585214], [16.265282000000184, 6.58455], [16.255351, 6.583202], [16.24817, 6.582784], [16.24127700000014, 6.582568000000151], [16.235105000000146, 6.582325], [16.230168, 6.581944], [16.226602, 6.581899], [16.22221300000018, 6.582063000000119], [16.219275, 6.582381000000112], [16.213865000000112, 6.582555000000127], [16.209932, 6.582838], [16.203171, 6.583539], [16.196498, 6.583126000000107], [16.187692, 6.582357], [16.18148, 6.581622], [16.17551, 6.58069200000017], [16.17135700000017, 6.580007], [16.163035, 6.578101], [16.157543, 6.577711], [16.149985000000186, 6.576223], [16.141655000000185, 6.575621000000183], [16.1374, 6.578826000000163], [16.128822000000127, 6.62022300000018], [16.125193, 6.637693], [16.12003300000015, 6.662151000000108], [16.110685000000103, 6.68526], [16.09800600000017, 6.718271], [16.057469, 6.820748000000151], [16.041957, 6.966690000000142], [16.017334000000176, 7.027072000000146], [16.015071000000148, 7.029544], [16.0128160000001, 7.036384], [16.016382, 7.04314], [16.013683, 7.047826000000157], [16.013177, 7.055691], [16.00895800000012, 7.065063000000123], [16.000353, 7.075940000000173], [15.995123, 7.086483000000158], [15.9914, 7.091873], [15.990086, 7.099625], [15.990469000000132, 7.106226000000163], [15.99267900000018, 7.115278], [15.994522, 7.121447000000103], [16.003364, 7.130773], [16.010145, 7.135160000000155], [16.02948, 7.149826000000189], [16.0311798030001, 7.150935301000061], [16.030004, 7.151601000000142], [16.028061945000047, 7.152611123000156], [16.02363700000012, 7.154506], [16.020765, 7.15563], [16.017461, 7.156541000000175], [16.014512, 7.156987000000129], [16.014439, 7.157029], [16.01264, 7.156989], [16.010806, 7.157155000000159], [16.010181, 7.157047], [16.001153, 7.158653000000129], [15.996351, 7.157965], [15.993482, 7.156212], [15.992089, 7.155222], [15.989697, 7.154519], [15.985600000000147, 7.154988], [15.981817, 7.15529], [15.979135, 7.155149000000108], [15.973258000000158, 7.154048000000103], [15.967947, 7.150846], [15.962786, 7.145451], [15.959463, 7.142649], [15.956105, 7.141655], [15.951621000000102, 7.142355], [15.947805, 7.144419], [15.944975, 7.146449000000189], [15.941758000000107, 7.148271000000136], [15.933772000000147, 7.153698000000134], [15.929322, 7.156233], [15.923367, 7.158490000000143], [15.918227, 7.159591], [15.902368, 7.165256], [15.896149, 7.166824], [15.891209000000117, 7.165293], [15.8864, 7.162308], [15.882646, 7.158459], [15.876777, 7.151165000000162], [15.870418, 7.145441000000119], [15.86563, 7.141691000000151], [15.858029000000158, 7.135613000000149], [15.853743, 7.131268], [15.846488, 7.124469], [15.8243030000001, 7.123855], [15.815977, 7.130305], [15.811657, 7.133404000000155], [15.805395, 7.140166], [15.798452000000111, 7.145355000000109], [15.792187, 7.148522000000128], [15.784539, 7.151742], [15.777728000000138, 7.153437], [15.770109000000161, 7.152530000000127], [15.766591668999979, 7.150775087000113], [15.764597, 7.14745], [15.761113, 7.144327000000146], [15.756254, 7.142316], [15.751668, 7.141525000000115], [15.749817000000178, 7.141565], [15.745614, 7.141155], [15.737432, 7.139445000000137], [15.733416000000148, 7.139097000000106], [15.728883, 7.138535000000161], [15.718895, 7.136100000000113], [15.715041000000156, 7.135074000000145], [15.713382, 7.131818], [15.713161, 7.127978], [15.713354, 7.125446], [15.713081000000159, 7.122141000000113], [15.712564, 7.119123000000172], [15.712338000000159, 7.117207000000121], [15.712044000000162, 7.115364], [15.71136, 7.11358], [15.711537000000135, 7.110584000000131], [15.713371000000166, 7.106581], [15.715299000000186, 7.104706000000135], [15.723827, 7.102905], [15.726081, 7.101089000000172], [15.726917, 7.099809000000164], [15.727594000000181, 7.097213000000124], [15.727068000000145, 7.093917], [15.725559, 7.092784000000108], [15.717961000000173, 7.095715000000155], [15.71311500000013, 7.096856], [15.70596600000016, 7.097637], [15.702442, 7.098871], [15.699015, 7.100194], [15.686088000000154, 7.10472], [15.683628, 7.105246], [15.67911, 7.106491], [15.676409, 7.107396000000108], [15.672385, 7.109574], [15.667724, 7.112795000000119], [15.665449, 7.11537600000014], [15.66348, 7.1070390000001], [15.662736000000166, 7.105742], [15.660147000000165, 7.103681], [15.657698, 7.101944], [15.655481000000123, 7.100716], [15.651741, 7.100299000000177], [15.646483000000103, 7.099465000000123], [15.642746000000159, 7.09826], [15.63940700000012, 7.09687], [15.63667700000019, 7.095295], [15.632759, 7.092122], [15.631035000000168, 7.089922000000115], [15.630454, 7.08888], [15.628034, 7.085267], [15.62508200000019, 7.079686000000152], [15.623649000000114, 7.074313000000188], [15.612350000000106, 7.066237], [15.60280500000016, 7.051799], [15.595884000000183, 7.040202000000136], [15.594813, 7.04097], [15.589020000000176, 7.044239000000175], [15.584118000000103, 7.046746000000155], [15.578732000000173, 7.047029000000123], [15.574700000000178, 7.046552], [15.571164000000124, 7.043297], [15.56676700000014, 7.038326000000154], [15.561498, 7.032565], [15.557606000000135, 7.030050000000188], [15.551000000000101, 7.029425000000174], [15.546597000000133, 7.028970000000186], [15.538559000000134, 7.031768], [15.529627, 7.03757400000012], [15.521576, 7.041529000000139], [15.519032, 7.04284100000018], [15.515908, 7.044034000000124], [15.51108100000016, 7.044157000000155], [15.504852, 7.045039000000145], [15.497581000000139, 7.045709000000159], [15.489027, 7.045077], [15.486783, 7.044467], [15.480046, 7.043147], [15.472927, 7.042799], [15.467886, 7.041299], [15.459459, 7.03768], [15.450703000000146, 7.036400000000128], [15.442748, 7.036025], [15.433801000000187, 7.037199000000157], [15.430872000000136, 7.037698], [15.42399300000011, 7.038578], [15.41824800000012, 7.039763], [15.413872, 7.040952000000175], [15.410568, 7.041751], [15.406901, 7.039793], [15.406849, 7.04414], [15.407305, 7.048146000000145], [15.408528, 7.053496000000166], [15.409494, 7.058521], [15.409896, 7.064658000000179], [15.409656, 7.066672], [15.409362000000101, 7.071026000000188], [15.40876400000019, 7.075449], [15.40793500000018, 7.079108], [15.407336000000157, 7.083785], [15.406014, 7.087838000000147], [15.405956, 7.091682], [15.406717000000128, 7.09504], [15.407073, 7.100991], [15.408349000000158, 7.104256], [15.410768, 7.108147], [15.413232, 7.112848], [15.414602, 7.11609], [15.415454, 7.120097000000101], [15.415561, 7.123547000000144], [15.414932, 7.130193], [15.413589, 7.133574], [15.413084, 7.138229], [15.413428, 7.140475], [15.414332000000115, 7.150572000000125], [15.41343, 7.155157], [15.410812, 7.162474], [15.408883, 7.16631800000016], [15.406275000000107, 7.170694], [15.404584, 7.173103], [15.401419000000146, 7.175997], [15.397904, 7.178567], [15.396869, 7.180721000000119], [15.395737, 7.183939], [15.395399000000168, 7.187459], [15.395923000000153, 7.191975], [15.396702000000118, 7.197232], [15.395948, 7.206749], [15.396209, 7.212886], [15.396542, 7.218907], [15.39706, 7.225182000000189], [15.397692000000177, 7.232593000000179], [15.397915000000125, 7.236136], [15.397335000000112, 7.24218], [15.393543, 7.24394], [15.388516000000152, 7.243754], [15.385174, 7.243522], [15.381453, 7.244749000000184], [15.376934000000176, 7.246763], [15.371338, 7.249472], [15.362442000000158, 7.2535], [15.360727, 7.256233000000179], [15.358712, 7.257738000000188], [15.350139, 7.262831], [15.346298, 7.265031], [15.339112, 7.26780900000017], [15.333500000000186, 7.268133], [15.324518, 7.26966], [15.320537, 7.271674], [15.315217000000189, 7.275796], [15.311880000000144, 7.281585000000121], [15.309942, 7.288207], [15.309568000000127, 7.295710000000156], [15.308682, 7.302704000000119], [15.308564, 7.310647], [15.310669000000132, 7.318080000000123], [15.310719173999985, 7.318165091000139], [15.31072272400013, 7.318162997000115], [15.310769928000127, 7.318235922000042], [15.310777689000133, 7.318264329000158], [15.310820623000154, 7.318337141000143], [15.310831638000082, 7.318331256000135], [15.310858867000093, 7.318373321000138], [15.310905114000093, 7.318480431000125], [15.310921896000082, 7.318508892000068], [15.310940086000187, 7.318500134000033], [15.311027514000102, 7.318678392000038], [15.311043222000023, 7.318671618000053], [15.311134772000116, 7.318847327000071], [15.31114717700018, 7.318842571000062], [15.311241197000129, 7.319016753000085], [15.311251540000171, 7.319013261000123], [15.31134720700004, 7.319186424000179], [15.311356136000143, 7.319183799000029], [15.31145297900008, 7.319356236000033], [15.311460877000172, 7.319354243000134], [15.311558602, 7.319526135000103], [15.311565716000075, 7.31952462400011], [15.311664127000142, 7.319696092000072], [15.311670623000111, 7.319694961000039], [15.311769582000068, 7.319866091], [15.311775578000038, 7.319865267000125], [15.311874986000078, 7.320036119000065], [15.311880571000074, 7.320035548000078], [15.311980353000024, 7.320206169000073], [15.311985593000088, 7.320205811000051], [15.312085690000117, 7.320376237000119], [15.312090636000164, 7.32037606], [15.312191005000045, 7.320546318000083], [15.312195698000153, 7.320546296999964], [15.312296301, 7.320716410000102], [15.312300774000107, 7.320716525000023], [15.312401583000053, 7.32088651000015], [15.312405862000105, 7.320886745000053], [15.312506852000126, 7.321056618], [15.312510960000111, 7.321056958000042], [15.312612112000124, 7.321226732000071], [15.31261606600009, 7.321227166000085], [15.312717362000114, 7.321396851000031], [15.312721180000096, 7.321397369000067], [15.312822605000065, 7.32156697400012], [15.312826299, 7.321567569000081], [15.312927842000136, 7.32173710100011], [15.312931424000112, 7.321737765000137], [15.313033074000145, 7.321907231000125], [15.313036553000188, 7.321907958000111], [15.313138301000038, 7.322077364000108], [15.313141687000154, 7.322078148000173], [15.313243524000143, 7.322247499000071], [15.313246824000089, 7.322248337000133], [15.313348743000063, 7.322417636000182], [15.313351964000049, 7.322418523000181], [15.313453959000071, 7.322587776000034], [15.313457107000147, 7.322588707000023], [15.313559172000168, 7.322757916000114], [15.313562252000054, 7.322758890000159], [15.313664382000184, 7.322928059000049], [15.313667400000043, 7.322929071000146], [15.313769591000096, 7.323098203000086], [15.313772549000134, 7.323099250999974], [15.313874797000096, 7.323268348000056], [15.313877701000138, 7.323269430000153], [15.313981289000026, 7.323440620999975], [15.313954912000042, 7.323695938000071], [15.313876741000058, 7.323865660000081], [15.313743382000098, 7.324214473000097], [15.313154388000044, 7.325313717000085], [15.312582792, 7.326261954000131], [15.31213471100017, 7.326953239000034], [15.311952, 7.326923], [15.31047400000017, 7.326356], [15.30716, 7.323632], [15.30333, 7.320287000000121], [15.29979, 7.31677900000011], [15.297426, 7.314911000000109], [15.296912000000134, 7.314571], [15.296345000000144, 7.314569], [15.295719, 7.314681], [15.294519, 7.314964], [15.293945000000178, 7.315135000000168], [15.289948, 7.311962000000165], [15.290748000000121, 7.311113], [15.288284, 7.30765300000013], [15.287201, 7.30737], [15.285208, 7.307257], [15.28395300000011, 7.306917000000169], [15.282582, 7.30584], [15.281553000000144, 7.303858], [15.280698, 7.302329], [15.279158, 7.300515000000189], [15.276458000000105, 7.297441], [15.275088, 7.296987000000115], [15.273888000000113, 7.296534000000122], [15.272692, 7.295741], [15.271844000000101, 7.294724000000144], [15.271502, 7.293534], [15.271041, 7.29155400000019], [15.270355000000166, 7.290875000000142], [15.268129, 7.288896], [15.264767, 7.287167000000125], [15.26323, 7.286715], [15.260729, 7.282922], [15.259866, 7.280658000000187], [15.25593, 7.278053000000114], [15.249563, 7.275732], [15.249448000000143, 7.275732], [15.248195, 7.275734], [15.246372000000179, 7.275737000000163], [15.245688, 7.275739000000101], [15.245175, 7.275683000000129], [15.244547000000182, 7.275512000000163], [15.243177000000117, 7.274490000000185], [15.242777000000103, 7.274036], [15.242149, 7.273014000000103], [15.241864, 7.272504], [15.241865000000132, 7.27194], [15.24209500000012, 7.270812000000149], [15.242437, 7.270302], [15.241867000000127, 7.266111], [15.239586, 7.2633340000001], [15.238161, 7.261412], [15.237193000000104, 7.259037], [15.236851, 7.25762], [15.236054, 7.255017000000123], [15.234858, 7.252982000000145], [15.23172, 7.249008000000117], [15.228015, 7.247025], [15.225223, 7.247250000000179], [15.222834, 7.246739000000161], [15.221183, 7.246004], [15.219863, 7.244759000000101], [15.218894, 7.243345], [15.217933, 7.241608000000156], [15.215656, 7.235356000000138], [15.215601, 7.234789000000148], [15.215833, 7.233545], [15.216291000000126, 7.233092], [15.216749000000164, 7.232809], [15.217237, 7.233113], [15.217604, 7.233406000000116], [15.217897000000107, 7.234175000000107], [15.218299000000172, 7.234725], [15.218775000000107, 7.235164], [15.219195, 7.235180000000128], [15.219594, 7.234728], [15.219653000000108, 7.23354200000017], [15.219178, 7.232344000000182], [15.218592, 7.231576], [15.21786, 7.231026], [15.217128000000116, 7.23077000000012], [15.216432, 7.230697000000134], [15.215846, 7.230660000000114], [15.215187, 7.230623], [15.212587, 7.229525000000137], [15.210714000000166, 7.225635000000182], [15.210826, 7.224448], [15.210882, 7.224111], [15.21118490400005, 7.22387706100011], [15.211330000000146, 7.223765000000185], [15.21182800000014, 7.223516000000188], [15.212276, 7.223464000000149], [15.215361, 7.223145], [15.217198, 7.22319], [15.219281, 7.223332], [15.220124000000169, 7.223876000000132], [15.223103, 7.222701], [15.223441, 7.220802000000162], [15.223716, 7.219702], [15.225112, 7.219053], [15.227259, 7.218898], [15.229669000000172, 7.218651], [15.23011300000013, 7.218526000000111], [15.230698, 7.218342000000177], [15.232408000000135, 7.217189000000133], [15.233236, 7.216619], [15.23353800000018, 7.216229000000112], [15.233630000000176, 7.215684000000181], [15.233477000000107, 7.215141000000187], [15.228247000000124, 7.209671000000185], [15.226585, 7.208161000000132], [15.224746000000152, 7.207982], [15.22429300000016, 7.208065], [15.223626, 7.207916000000125], [15.223082000000147, 7.207768000000101], [15.222687000000121, 7.207327], [15.22249, 7.206935000000101], [15.22248900000011, 7.206446], [15.222730000000126, 7.203903], [15.223219, 7.202049000000159], [15.222599000000173, 7.198300000000131], [15.219054, 7.193767], [15.217105000000117, 7.191804000000161], [15.210816, 7.183373000000131], [15.208823, 7.181816], [15.205979, 7.177474], [15.205845000000181, 7.177002], [15.205831000000103, 7.175917], [15.205831000000103, 7.175333], [15.206175000000144, 7.174695000000156], [15.206665, 7.174176], [15.207691000000182, 7.167678], [15.208494, 7.162186], [15.208986, 7.156857000000173], [15.208942, 7.149092], [15.208942, 7.1488], [15.208943, 7.147780000000182], [15.209723, 7.145368000000133], [15.210308000000168, 7.143865000000119], [15.210698, 7.142896], [15.21099, 7.142507], [15.211379000000136, 7.142167], [15.21181700000011, 7.141828000000146], [15.212207, 7.141542], [15.214872000000128, 7.139922000000183], [15.215358, 7.139633], [15.216426, 7.139539], [15.216866, 7.139544000000171], [15.217358000000104, 7.139649000000134], [15.217893000000174, 7.139651000000129], [15.218425000000138, 7.139647000000139], [15.219439, 7.139591000000109], [15.219873, 7.139492000000132], [15.220362, 7.139206], [15.220606, 7.138870000000168], [15.22095000000013, 7.137958], [15.220028, 7.135499000000152], [15.219638, 7.135064], [15.221621, 7.130147], [15.222051, 7.12981], [15.222287000000108, 7.12937600000015], [15.22214, 7.128943], [15.221045000000174, 7.126544000000138], [15.219445000000121, 7.125288000000126], [15.217715000000169, 7.124834], [15.216380000000186, 7.12431], [15.2142750000001, 7.123474000000101], [15.21385, 7.12328], [15.21365500000013, 7.122803], [15.213645, 7.122278000000108], [15.213829000000146, 7.121811], [15.21405900000019, 7.121389], [15.214935, 7.120081], [15.21564, 7.119578000000161], [15.217313000000104, 7.117817000000116], [15.220842, 7.112187], [15.221069, 7.111768], [15.220307, 7.108524], [15.217428, 7.103519000000176], [15.21595200000013, 7.101664000000142], [15.21173, 7.10362], [15.211271, 7.103574], [15.210399, 7.103301], [15.209985, 7.102893], [15.211412, 7.10048], [15.21291900000017, 7.098711], [15.213284, 7.098301], [15.209383000000173, 7.091520000000173], [15.206537, 7.087563000000159], [15.196725000000185, 7.083423], [15.191507000000115, 7.08216], [15.190061000000185, 7.080882000000145], [15.190601000000129, 7.0787], [15.191258000000118, 7.076579], [15.191424000000154, 7.073619000000178], [15.190486, 7.070547], [15.190169, 7.07014], [15.18939900000015, 7.069643000000156], [15.187937000000147, 7.068923], [15.187541, 7.06891], [15.187082, 7.06899900000019], [15.185073000000102, 7.069403], [15.18471000000011, 7.069538], [15.184256, 7.069719], [15.179149, 7.073042], [15.17694, 7.074567], [15.173653, 7.071480000000122], [15.171012, 7.073159], [15.170511, 7.074111000000187], [15.169822000000181, 7.075024], [15.169097, 7.075063], [15.167969, 7.075024], [15.16768, 7.074921], [15.167474, 7.074509], [15.166898000000174, 7.073314000000153], [15.166773000000148, 7.073018000000161], [15.166410000000155, 7.07206500000018], [15.166365000000155, 7.071568], [15.166637, 7.070714000000123], [15.167002, 7.070353000000125], [15.167458000000181, 7.070262], [15.166815, 7.067753], [15.166507, 7.067224], [15.166143, 7.066908000000183], [15.165688000000102, 7.066547000000128], [15.16326, 7.064673], [15.163163, 7.064679000000126], [15.163089000000127, 7.064644000000101], [15.162402000000156, 7.064239000000157], [15.160231000000124, 7.060561000000121], [15.159232, 7.057037], [15.157587, 7.050455], [15.1577190000001, 7.050417], [15.157816000000139, 7.050353000000143], [15.158835, 7.048772], [15.158574000000158, 7.045062], [15.15838100000019, 7.044122], [15.157162, 7.04378], [15.156128, 7.043756], [15.155253000000187, 7.043871000000138], [15.153827000000149, 7.043934], [15.152393000000131, 7.042621], [15.152031, 7.04008000000016], [15.15223900000018, 7.036123000000146], [15.151535, 7.034257], [15.149917, 7.032478], [15.148486000000162, 7.031778000000145], [15.147440000000131, 7.030793000000187], [15.143856, 7.027292], [15.142617, 7.024282], [15.140564, 7.015240000000119], [15.140875000000165, 7.010245], [15.141234, 7.007197], [15.141419, 7.006839000000127], [15.141915, 7.005579000000125], [15.141341000000182, 7.003170000000125], [15.140215, 6.999037000000101], [15.139862, 6.998319], [15.138463, 6.9971], [15.1376, 6.991251], [15.136668, 6.987248], [15.134164000000169, 6.979490000000169], [15.134508, 6.976133], [15.133646000000113, 6.973426], [15.133011000000181, 6.972972000000141], [15.133035, 6.971573], [15.134238, 6.965964], [15.134396, 6.965607], [15.135047, 6.964167], [15.135672, 6.963307], [15.136528, 6.962868], [15.13678700000014, 6.959649], [15.136474, 6.957142], [15.135674, 6.955236000000127], [15.135584, 6.953261000000111], [15.137050129000158, 6.952530294000042], [15.138692, 6.951712], [15.140311, 6.947241000000133], [15.14038, 6.94698], [15.140211, 6.946729], [15.136647, 6.942545], [15.132873000000131, 6.939941], [15.13011200000011, 6.937871], [15.126077, 6.934733000000108], [15.120072, 6.927178], [15.119933, 6.925918000000138], [15.117059, 6.91743600000018], [15.115509000000145, 6.913519], [15.113405000000114, 6.91006], [15.112141000000179, 6.907941], [15.110889000000157, 6.903756000000158], [15.109437, 6.89732800000013], [15.106835000000103, 6.892134000000112], [15.105257000000108, 6.887332000000129], [15.102439000000174, 6.882321000000161], [15.100908000000118, 6.880705], [15.09797, 6.877116], [15.094911, 6.872152], [15.09365200000019, 6.869751000000122], [15.091815, 6.864675], [15.090505, 6.859899000000155], [15.088305000000105, 6.854068000000154], [15.087749, 6.85340500000018], [15.086295, 6.851029], [15.084165, 6.847066], [15.083343, 6.845471], [15.083359000000144, 6.844714000000181], [15.083416, 6.8432600000001], [15.082225000000108, 6.839481], [15.079861, 6.834791000000166], [15.077254, 6.828159000000142], [15.076408000000185, 6.825698000000102], [15.075923, 6.82474], [15.071526000000176, 6.820884], [15.0677510000001, 6.817559], [15.06697800000012, 6.81242200000014], [15.066739, 6.807869], [15.066123, 6.802475], [15.064821000000165, 6.797161], [15.06401, 6.79192], [15.064307, 6.790829], [15.065026, 6.78978], [15.06523, 6.788882], [15.065206, 6.788356], [15.065160000000162, 6.788013], [15.064511, 6.786627000000124], [15.063530000000128, 6.785022], [15.063045000000102, 6.784428000000105], [15.062245000000189, 6.783565], [15.062118000000169, 6.783442], [15.060648, 6.782238], [15.059771000000126, 6.780420000000106], [15.059193000000107, 6.779158000000166], [15.058515000000114, 6.777141], [15.05818900000014, 6.776037], [15.056942000000163, 6.771712], [15.056543, 6.770138], [15.054581, 6.768128], [15.05044, 6.76596], [15.045355, 6.763196000000164], [15.044306, 6.762449000000174], [15.042235000000119, 6.761100000000113], [15.040966, 6.76073], [15.038997, 6.761292], [15.035184, 6.762429000000111], [15.033387, 6.763323000000184], [15.031578000000138, 6.76481200000012], [15.030384, 6.76564900000011], [15.029090000000167, 6.76600000000019], [15.027595, 6.766192], [15.027404000000104, 6.766188000000113], [15.02707, 6.766165000000171], [15.02636, 6.766088], [15.022572, 6.766426], [15.02137800000014, 6.766928], [15.019223000000181, 6.767922], [15.015947, 6.769161], [15.014947, 6.768979000000115], [15.012653000000114, 6.767873], [15.010387, 6.766035], [15.010162, 6.765843000000132], [15.009704, 6.765427], [15.009511, 6.765178], [15.00909200000018, 6.764452000000176], [15.008509000000117, 6.763739000000157], [15.007448, 6.763140000000135], [15.004513, 6.76196], [14.997077201000025, 6.760230117000162], [14.98964145500014, 6.758500121], [14.982205762000149, 6.756770011000071], [14.974770122000052, 6.755039788000147], [14.967334535000077, 6.753309451000064], [14.95989900000012, 6.751579000000163], [14.957113177999986, 6.744244911000067], [14.954327439000167, 6.736910805000036], [14.951541783999971, 6.729576680000093], [14.948756212999967, 6.72224253700017], [14.945970725000109, 6.714908376000039], [14.943185321000044, 6.707574197000099], [14.942004356000098, 6.704464527000027], [14.941742722000129, 6.703775605000033], [14.946140000000128, 6.701645], [14.947774, 6.700531], [14.96881800000017, 6.701812000000189], [14.974438828000189, 6.704534165999974], [14.988117, 6.710615], [14.993462146000184, 6.710633683000083], [15.008171, 6.710300000000132], [15.032513117000121, 6.718346733000033], [15.047635007000054, 6.71835], [15.048598, 6.71835], [15.062041, 6.721846], [15.080269, 6.727493000000152], [15.096385000000168, 6.73138], [15.110275000000115, 6.731658000000152], [15.152491, 6.745271000000116], [15.169161, 6.753054], [15.176665, 6.757213], [15.183325, 6.75749100000013], [15.187776000000156, 6.754992000000129], [15.192217, 6.750277], [15.193048, 6.744994000000133], [15.192221, 6.736101], [15.190551, 6.724161000000151], [15.188883, 6.717214000000183], [15.187216000000149, 6.710275], [15.185828, 6.701383], [15.187499000000116, 6.694444], [15.191659, 6.687214], [15.196108, 6.681658], [15.207775, 6.671937000000128], [15.228885000000162, 6.657498], [15.268047, 6.633885], [15.28277700000018, 6.621384000000148], [15.28583, 6.614163], [15.313800000000185, 6.573567], [15.313882, 6.540552], [15.314439000000107, 6.534165], [15.314996, 6.528049], [15.315272000000107, 6.521942], [15.315580240000031, 6.520320198000093], [15.315986362000103, 6.518183386000032], [15.316381, 6.516107], [15.31777, 6.510551], [15.318608, 6.505276], [15.319998000000169, 6.499721000000136], [15.320274, 6.493325], [15.320743603000153, 6.488176227000167], [15.320831000000169, 6.487218], [15.320455465000123, 6.484471111000175], [15.320072, 6.480287], [15.321447, 6.471415], [15.32141818000008, 6.470411408000132], [15.321104, 6.459471000000121], [15.321590330000106, 6.458022385999982], [15.323113938000063, 6.453484075000119], [15.326831151000079, 6.450872588000152], [15.332658000000151, 6.446779], [15.336646, 6.434122000000116], [15.335848000000112, 6.427991000000134], [15.339637, 6.418696], [15.341110000000128, 6.40916], [15.343883, 6.404997], [15.347217, 6.401665], [15.349719000000107, 6.396941], [15.351660000000152, 6.392218], [15.352777000000174, 6.386943], [15.352492, 6.379995000000179], [15.352497, 6.373047], [15.353325, 6.367492], [15.356107, 6.363329], [15.359993, 6.36027700000011], [15.364159, 6.357497000000137], [15.367493, 6.354166], [15.370555000000138, 6.350554000000102], [15.374160000000188, 6.346942], [15.376942000000156, 6.342769], [15.378611, 6.337774], [15.380551000000139, 6.33277], [15.383053, 6.328887], [15.385826000000122, 6.324715], [15.38944, 6.321663000000115], [15.39305300000018, 6.318051], [15.397771, 6.316103000000169], [15.401666000000148, 6.313051], [15.405551, 6.310271], [15.409164, 6.306387], [15.412769, 6.303607], [15.416383000000167, 6.300275], [15.421109, 6.297774], [15.42582700000014, 6.295825], [15.432219, 6.296109000000172], [15.43638, 6.298883], [15.440549, 6.301105000000177], [15.444719, 6.303888], [15.448329000000172, 6.306943], [15.451939, 6.310269], [15.455270000000155, 6.313884], [15.459160000000168, 6.316939], [15.463881000000129, 6.318888000000186], [15.468882, 6.320549000000142], [15.474443, 6.321937], [15.481106000000182, 6.321659000000125], [15.486104000000182, 6.319438], [15.490269000000183, 6.316386000000136], [15.494715000000156, 6.314436], [15.500826, 6.313327000000129], [15.506938, 6.31361], [15.513329, 6.312772], [15.518046, 6.310551000000146], [15.523604, 6.309161], [15.529162000000156, 6.30722], [15.534161, 6.306102], [15.540551000000107, 6.304992], [15.545272000000125, 6.306941], [15.547772, 6.311380000000156], [15.550277000000165, 6.320270000000164], [15.552217, 6.324999000000105], [15.554717, 6.3299990000001], [15.557497000000183, 6.333605], [15.561659, 6.336387000000173], [15.566660000000184, 6.338055000000168], [15.572213, 6.339442000000133], [15.578605000000152, 6.339716], [15.584158, 6.341103], [15.589439, 6.341938], [15.595131773000048, 6.345227375000036], [15.597550487000149, 6.346035390000168], [15.598603, 6.346387000000107], [15.598749466000129, 6.346435851000024], [15.603604000000189, 6.348055000000102], [15.608607, 6.350275000000124], [15.612742074000039, 6.353029067000023], [15.616940000000113, 6.355276], [15.620552, 6.358881], [15.62416300000018, 6.36193500000013], [15.628885, 6.363883], [15.634438, 6.364998], [15.64055000000019, 6.365551], [15.645552000000123, 6.367219], [15.649995, 6.369999000000178], [15.653326000000163, 6.373053], [15.657498, 6.375825], [15.663882000000115, 6.376106000000107], [15.669995, 6.376659000000188], [15.676938000000177, 6.376387], [15.682491, 6.377221000000134], [15.687494000000129, 6.37944], [15.691665000000114, 6.38166], [15.69582800000012, 6.38444], [15.701381, 6.385546], [15.707774, 6.386107000000152], [15.712217, 6.388606000000152], [15.715549, 6.391940000000147], [15.718331, 6.396106], [15.722214000000179, 6.399158000000114], [15.725546000000179, 6.402491], [15.729718, 6.404991000000109], [15.734721, 6.406938], [15.739164000000187, 6.409437], [15.743327, 6.411937], [15.74527, 6.416937000000189], [15.747772000000111, 6.421664000000135], [15.751384, 6.424716], [15.753331000000173, 6.426107], [15.75304, 6.425157000000127], [15.77805300000017, 6.408602000000144], [15.786665, 6.399443], [15.792221, 6.390832000000103], [15.794999, 6.380552], [15.789437, 6.367769], [15.77555400000017, 6.352213], [15.754716, 6.334442], [15.729435, 6.313048000000151], [15.713602, 6.29722100000015], [15.708046000000138, 6.286663], [15.703884000000187, 6.277495000000158], [15.70166, 6.27027100000015], [15.706384, 6.261381], [15.719162, 6.251386], [15.728047000000174, 6.244435000000124], [15.746666, 6.224164000000144], [15.769161, 6.197491000000184], [15.782217000000117, 6.175825], [15.792492, 6.150825000000111], [15.8088580000001, 6.118574], [15.807010000000162, 6.091086000000132], [15.806742, 6.073971], [15.810705000000155, 6.052604], [15.803315000000111, 6.014121000000102], [15.806086, 6.007707], [15.815324, 6.008624], [15.820867, 6.002210000000105], [15.81902, 5.947235], [15.842116000000146, 5.927993], [15.849506000000133, 5.922496], [15.875373, 5.922496], [15.895698, 5.913333], [15.902164, 5.9023380000001], [15.903088000000139, 5.889511], [15.8957860000001, 5.876947000000143], [15.894583, 5.872177], [15.894704000000104, 5.869672], [15.901197, 5.854884], [15.901254, 5.854752000000133], [15.906158191000031, 5.855160808], [15.90791906200019, 5.855259055000033], [15.909663841, 5.854795514000159], [15.928853000000117, 5.849637], [15.931024187000105, 5.849958053000023], [15.933037, 5.85020900000012], [15.937639, 5.850860000000125], [15.94053085100012, 5.851363802000094], [15.942399700000124, 5.851640149000104], [15.942738488000089, 5.851660622000111], [15.94644713100007, 5.851590044000147], [15.94907772, 5.851293032000058], [15.953307782000081, 5.847251473000085], [15.953341, 5.847210000000132], [15.953439967000065, 5.847125178], [15.95915900000017, 5.841661], [15.972773000000188, 5.822217], [15.983889000000147, 5.80527300000017], [15.996936000000176, 5.79833], [15.997775000000104, 5.797777], [16.01249900000016, 5.79944200000017], [16.021939, 5.80110800000017], [16.03443600000014, 5.799991], [16.042772000000127, 5.795272000000125], [16.053328, 5.789716000000112], [16.066661000000124, 5.786661000000151], [16.083608, 5.789162], [16.104996000000142, 5.795552], [16.1252750000001, 5.806936000000121], [16.143325000000175, 5.818885], [16.158883000000117, 5.831109], [16.169163, 5.844999000000143], [16.174994, 5.860825], [16.181663, 5.883885], [16.187217, 5.900832], [16.192492, 5.90916], [16.203889000000174, 5.912772], [16.219161, 5.911662], [16.237493, 5.909994], [16.253883, 5.904440000000136], [16.259719000000132, 5.89693700000015], [16.261107, 5.871663], [16.257214, 5.855274000000122], [16.261383000000137, 5.845831], [16.270553000000177, 5.831384000000185], [16.294437000000187, 5.802495], [16.31722200000013, 5.772215000000188], [16.331386, 5.762495000000115], [16.354716, 5.754165000000114], [16.371102, 5.749441], [16.377495, 5.745554], [16.381385, 5.737495000000138], [16.38388600000019, 5.730272], [16.389441, 5.723602000000142], [16.401105, 5.715831], [16.422219, 5.703054000000122], [16.442491, 5.69027], [16.4533330000001, 5.678883], [16.45777800000019, 5.67332800000014], [16.459163, 5.667491000000155], [16.460552, 5.659999], [16.461938000000146, 5.643607], [16.463884, 5.634993000000122], [16.470553, 5.623327000000131]]]}}]}