{"type": "FeatureCollection", "features": [{"type": "Feature", "properties": {"entity_id": "cf-p-lim-pende-v1", "name_fr": "Lim-pendé"}, "geometry": {"type": "Polygon", "coordinates": [[[16.12003300000015, 6.662151000000108], [16.125193, 6.637693], [16.128822000000127, 6.62022300000018], [16.1374, 6.578826000000163], [16.141655000000185, 6.575621000000183], [16.149985000000186, 6.576223], [16.157543, 6.577711], [16.163035, 6.578101], [16.17135700000017, 6.580007], [16.17551, 6.58069200000017], [16.18148, 6.581622], [16.187692, 6.582357], [16.196498, 6.583126000000107], [16.203171, 6.583539], [16.209932, 6.582838], [16.213865000000112, 6.582555000000127], [16.219275, 6.582381000000112], [16.22221300000018, 6.582063000000119], [16.226602, 6.581899], [16.230168, 6.581944], [16.235105000000146, 6.582325], [16.24127700000014, 6.582568000000151], [16.24817, 6.582784], [16.255351, 6.583202], [16.265282000000184, 6.58455], [16.270294, 6.585214], [16.274077, 6.586274000000174], [16.27829800000012, 6.587381000000107], [16.282123, 6.586975000000109], [16.286368, 6.587293000000102], [16.284332, 6.58801300000016], [16.28545800000012, 6.590128], [16.287522, 6.593207], [16.28907800000013, 6.59784], [16.290259000000162, 6.60135600000018], [16.291090000000167, 6.604922000000158], [16.291868, 6.608601], [16.291976, 6.612637], [16.292684, 6.615939], [16.290778000000103, 6.618763000000172], [16.2879420000001, 6.620858000000112], [16.284739000000116, 6.622115], [16.281504000000155, 6.621577000000116], [16.274684, 6.620923000000175], [16.27117100000015, 6.621161000000143], [16.26565100000016, 6.621236000000124], [16.261708, 6.622869], [16.260145, 6.624991000000136], [16.25985700000018, 6.629447], [16.26152700000017, 6.636439], [16.261628, 6.636701], [16.262367, 6.637513], [16.263203, 6.642174], [16.263578, 6.644828000000132], [16.26524, 6.647277], [16.26852, 6.649402], [16.270158, 6.649917000000187], [16.271076000000107, 6.650459], [16.272514, 6.6523830000001], [16.274777, 6.65524100000016], [16.278109, 6.656110000000126], [16.27975800000013, 6.656043], [16.281958, 6.655682], [16.285300000000177, 6.654806], [16.28764600000011, 6.653941], [16.291025000000104, 6.652833], [16.293132000000185, 6.652467000000115], [16.29566700000015, 6.652312000000109], [16.298481, 6.65291800000017], [16.301637, 6.654803000000129], [16.30590100000012, 6.650738000000104], [16.328838, 6.599737000000175], [16.332020000000114, 6.600013], [16.334016, 6.600611000000185], [16.338375, 6.602908000000127], [16.341752, 6.605796], [16.343319, 6.607973000000186], [16.345412, 6.610395], [16.350169, 6.609446], [16.35522600000013, 6.606444000000181], [16.361584, 6.603143], [16.367520000000184, 6.600092], [16.37433600000014, 6.596968], [16.380781000000127, 6.594905], [16.38382, 6.594325], [16.388621000000114, 6.592429000000152], [16.397805, 6.591816], [16.407797, 6.593272], [16.418587, 6.595151000000158], [16.423527, 6.59530500000011], [16.42660400000011, 6.595063000000152], [16.42913, 6.594734], [16.432203, 6.593658], [16.43947500000013, 6.590780000000166], [16.4435840000001, 6.588842], [16.449664, 6.587615], [16.453967000000148, 6.587322], [16.45777800000019, 6.588338], [16.462096, 6.589441], [16.464749, 6.58857], [16.46653700000013, 6.586082], [16.46859, 6.582150000000183], [16.47083700000013, 6.580854], [16.475385000000188, 6.577878], [16.477155, 6.576246], [16.47967000000017, 6.574295], [16.482295000000136, 6.571599000000106], [16.483031, 6.566661], [16.484725, 6.563272000000154], [16.488054, 6.562105], [16.487934, 6.559266], [16.489373000000114, 6.554887], [16.492825, 6.551331000000175], [16.499038, 6.544487], [16.500232, 6.544802000000175], [16.500663, 6.545884000000171], [16.50129100000015, 6.54813200000018], [16.504511, 6.555103], [16.509212, 6.558962], [16.513357, 6.559646], [16.52177500000016, 6.564593], [16.526488, 6.568034000000182], [16.531071000000168, 6.572725], [16.5327190000001, 6.574912], [16.536524000000156, 6.579300000000103], [16.54047000000014, 6.583647], [16.54486700000018, 6.58522], [16.55756, 6.59118100000012], [16.561964000000103, 6.592522], [16.565514000000178, 6.593002000000126], [16.572838000000104, 6.597359], [16.577806, 6.601551000000143], [16.581271, 6.604907], [16.584096, 6.609591000000137], [16.587598, 6.614853], [16.591483, 6.619662000000119], [16.594468, 6.623607], [16.597935, 6.626918], [16.600723000000187, 6.629696], [16.603891, 6.63216100000011], [16.605282000000102, 6.63364300000012], [16.607962000000157, 6.636930000000177], [16.610205, 6.640945], [16.612223, 6.644722], [16.61635900000016, 6.648889], [16.618395, 6.648904], [16.632039, 6.652432], [16.637388, 6.656264], [16.643965, 6.663988000000188], [16.647850000000176, 6.667218000000105], [16.654637, 6.670955], [16.65894802400004, 6.670720242000186], [16.668261, 6.667284], [16.677326000000107, 6.662823], [16.68757600000015, 6.659003], [16.69458500000013, 6.656756], [16.69773, 6.656851000000131], [16.701398, 6.661189], [16.703573, 6.664321], [16.709512, 6.667010000000118], [16.71555400000011, 6.664594], [16.71822900000012, 6.660217000000102], [16.719991, 6.655394], [16.724499, 6.650052000000187], [16.727417, 6.648423], [16.739108000000158, 6.65221600000018], [16.74132, 6.65098300000011], [16.754133196000055, 6.667115024000111], [16.75443500000017, 6.667495], [16.756659000000127, 6.679993], [16.756940000000156, 6.693049], [16.754997000000117, 6.705824000000121], [16.748605, 6.721662000000151], [16.740830000000187, 6.740272], [16.725553, 6.770827], [16.72596949500013, 6.775526390000039], [16.726118, 6.777202000000102], [16.728881, 6.7858260000001], [16.728648187000033, 6.793328197000108], [16.728582000000188, 6.795461000000103], [16.728582000000188, 6.795590000000118], [16.72672341200007, 6.799656373], [16.72547900000012, 6.802379000000144], [16.722918000000107, 6.806982000000176], [16.723123018000024, 6.812086081000132], [16.72339372400006, 6.817787075000012], [16.723396, 6.817835000000173], [16.724996, 6.822770000000105], [16.727212000000122, 6.827771], [16.728887, 6.833046], [16.729437, 6.839998], [16.72860800000018, 6.846105000000136], [16.727769, 6.85166], [16.726658000000157, 6.857216], [16.725275000000124, 6.862493], [16.724999, 6.868887], [16.725548000000117, 6.875549], [16.724719000000107, 6.881665], [16.72249100000016, 6.885824], [16.71888600000011, 6.889716], [16.71555000000012, 6.893047000000138], [16.71305, 6.897215], [16.712220000000116, 6.903051000000119], [16.713605000000143, 6.908326000000102], [16.715272, 6.913882], [16.714715000000183, 6.919996], [16.713603, 6.92527200000012], [16.71083300000015, 6.929993000000138], [16.707215, 6.932774], [16.7025, 6.934997000000124], [16.697495000000174, 6.937221], [16.69388600000019, 6.940272000000107], [16.689716000000146, 6.943054], [16.686108, 6.946386], [16.685269, 6.952221], [16.687221, 6.95666400000016], [16.68916000000013, 6.962218000000121], [16.688883000000146, 6.968332], [16.686102, 6.972492], [16.683602000000178, 6.976941], [16.680275, 6.980552000000102], [16.677494000000138, 6.984722000000147], [16.676384000000155, 6.990549000000158], [16.678329000000133, 6.995552], [16.681662, 6.998886], [16.687214, 6.999996], [16.693605, 7.000552], [16.698885, 7.001663000000121], [16.702221, 7.005829], [16.701384, 7.011936000000105], [16.699718, 7.016662], [16.697771000000103, 7.021380000000136], [16.696106, 7.02638700000017], [16.696383, 7.03305], [16.697221, 7.039440000000127], [16.701665, 7.041938], [16.707217, 7.043048], [16.71332800000016, 7.043605000000127], [16.718884000000116, 7.043331], [16.72444000000013, 7.043048], [16.728055, 7.04638100000011], [16.730552000000102, 7.051110000000108], [16.731939000000125, 7.056666], [16.73360600000018, 7.061940000000163], [16.734993, 7.067216], [16.738049000000103, 7.071382], [16.740824, 7.075269], [16.745549, 7.077774], [16.749714, 7.080553000000123], [16.753886, 7.08277], [16.757222000000183, 7.086384000000123], [16.760278, 7.090269], [16.762218, 7.095832], [16.76221500000014, 7.102216000000169], [16.763325000000123, 7.108605000000182], [16.764993000000118, 7.113888], [16.76777, 7.118055], [16.76971900000018, 7.123609000000101], [16.771106, 7.128884], [16.770832, 7.135269000000108], [16.76944, 7.140546], [16.76833, 7.146102], [16.766664, 7.150828000000161], [16.765273, 7.156386000000111], [16.764435000000162, 7.161941000000184], [16.76221900000013, 7.167221], [16.76055300000013, 7.171939000000179], [16.758607, 7.176666000000125], [16.756106, 7.180826], [16.753326, 7.185276], [16.75249600000012, 7.190832], [16.752776, 7.197775], [16.75360600000016, 7.20388400000013], [16.756103000000167, 7.208324000000118], [16.75805000000014, 7.21305400000017], [16.761823, 7.21669], [16.762786361000053, 7.219338387000107], [16.76309600000019, 7.220505], [16.76384714400018, 7.221688148000112], [16.765796000000137, 7.22525700000017], [16.775288633000116, 7.235698796000065], [16.776679000000172, 7.244275], [16.776666000000148, 7.257497000000171], [16.778607, 7.26305], [16.778608, 7.269995], [16.778887, 7.276658000000111], [16.778604, 7.282771], [16.77971500000018, 7.28916], [16.780554000000166, 7.295269], [16.78221400000018, 7.300552], [16.782495000000154, 7.307495], [16.780549, 7.312214], [16.779439, 7.31777], [16.77972, 7.324714], [16.78083100000015, 7.33083100000016], [16.782492000000104, 7.336385000000121], [16.782493, 7.343329], [16.78221800000017, 7.349443000000178], [16.78249000000011, 7.356106000000125], [16.784719000000166, 7.36110600000012], [16.789157, 7.363331000000187], [16.793325, 7.366108], [16.796102000000133, 7.369714], [16.79583, 7.376388000000134], [16.79361, 7.380547000000149], [16.790828, 7.384718000000134], [16.791939000000127, 7.390826000000118], [16.794718, 7.394992], [16.798055, 7.398053000000175], [16.801936, 7.40138300000018], [16.80610400000012, 7.404160000000104], [16.810271000000114, 7.406386], [16.81555, 7.408326], [16.82027600000015, 7.409998000000144], [16.82444500000014, 7.412775], [16.827495, 7.416659], [16.829715, 7.421388], [16.831387, 7.426942], [16.83190473600007, 7.428907830000128], [16.832776, 7.432216], [16.833881000000133, 7.438604], [16.834381286000166, 7.444542450000029], [16.834443000000135, 7.445275], [16.832721738000146, 7.448923117], [16.832407165000177, 7.44958983600003], [16.832216, 7.449995000000172], [16.829160000000172, 7.45360600000015], [16.825825, 7.457499], [16.824061196000173, 7.458674446000089], [16.815316656000164, 7.465784919000043], [16.814452000000188, 7.466488], [16.814440000000104, 7.46666], [16.812776, 7.471658], [16.811384, 7.476935], [16.813328, 7.482497], [16.814719, 7.488052], [16.81694000000016, 7.492772000000173], [16.818052, 7.498880000000156], [16.818884, 7.504998000000114], [16.820554, 7.510271000000103], [16.822776, 7.514991], [16.823888, 7.521108], [16.82416200000017, 7.528051], [16.822261, 7.532679], [16.82226289600004, 7.532682383000179], [16.822258954000063, 7.532683981000162], [16.814870000000155, 7.535680000000127], [16.811210000000187, 7.54075], [16.81043000800014, 7.545460001000151], [16.80965, 7.55017], [16.8069, 7.55294], [16.80070000000012, 7.555730000000153], [16.79635, 7.56172000000015], [16.79696498900006, 7.569520002], [16.79758, 7.57732], [16.79393, 7.5853800000001], [16.78912267700008, 7.590685082000107], [16.78431523600011, 7.595990109000184], [16.77950767699997, 7.601295082000092], [16.7747, 7.6066], [16.768275078999977, 7.611910048000141], [16.761850000000152, 7.61722], [16.75496, 7.61956], [16.75152, 7.62233], [16.75041, 7.62434], [16.748090000000104, 7.628540000000157], [16.743385025000066, 7.63086002600005], [16.7386800000001, 7.63318], [16.7357, 7.636640000000114], [16.73366, 7.64262], [16.73022003000017, 7.646425014000044], [16.726780000000133, 7.650230000000136], [16.719440000000134, 7.649900000000173], [16.71127, 7.65149], [16.707020000000114, 7.65149], [16.69815, 7.65092], [16.69017, 7.650870000000168], [16.685120000000154, 7.65319], [16.682150035000177, 7.658260011000095], [16.67918, 7.66333], [16.67251, 7.66497], [16.66723000000019, 7.66866], [16.665660000000116, 7.675560000000189], [16.66595499600004, 7.681020001000149], [16.666250000000105, 7.68648], [16.66666, 7.693920000000162], [16.66636000000011, 7.697500000000105], [16.66586000700005, 7.703405001000078], [16.66536000000019, 7.70931], [16.667003281000177, 7.716110008000157], [16.668646614000124, 7.722910008000042], [16.67029, 7.72971], [16.6680300000001, 7.73822], [16.661903429000063, 7.741540089000068], [16.65577676300012, 7.744860089000099], [16.64965, 7.748180000000104], [16.64403006600014, 7.753145038000014], [16.63841, 7.758110000000158], [16.63129, 7.76227], [16.62715, 7.76275], [16.622419977000106, 7.76071002600014], [16.617690000000152, 7.758670000000109], [16.61239, 7.75823000000014], [16.59448, 7.76888], [16.59681, 7.77484], [16.596300015000054, 7.78088666900004], [16.595790015000148, 7.786933336000061], [16.595280000000116, 7.792980000000114], [16.59807, 7.798240000000135], [16.59787000000017, 7.8049], [16.59466002700009, 7.808475012000031], [16.591450000000123, 7.81205], [16.591370000999973, 7.818590001000189], [16.59129, 7.825130000000172], [16.587510039000165, 7.829510017000075], [16.583730000000116, 7.83389], [16.585580000000107, 7.83778000000018], [16.586189990000094, 7.84466500200017], [16.586800000000153, 7.85155], [16.59062495200004, 7.856810017999976], [16.59445, 7.862070000000188], [16.598170000000152, 7.870310000000188], [16.59797, 7.876050000000134], [16.59592000000015, 7.88019], [16.59545000000014, 7.8783600000001], [16.57744, 7.86995], [16.570529987000157, 7.869180057000051], [16.563620000000128, 7.86841], [16.560840000000155, 7.86476000000016], [16.56311, 7.85946], [16.56056, 7.85466], [16.55273, 7.854240000000175], [16.546520000000157, 7.8568], [16.54214000000013, 7.85590000000019], [16.538554968000142, 7.852130016], [16.53497, 7.848360000000184], [16.53035, 7.84631], [16.52576499700018, 7.846060025000043], [16.52118000000013, 7.84581], [16.51883, 7.845680000000129], [16.51605, 7.842940000000112], [16.515094982000107, 7.835140003000163], [16.51414000000011, 7.82734], [16.50881, 7.8191], [16.502219918000094, 7.813855052], [16.495630000000176, 7.80861], [16.494000000000142, 7.80311], [16.49466, 7.79714], [16.49256, 7.792100000000175], [16.4891, 7.79028], [16.459830000000125, 7.7849], [16.45616, 7.78791], [16.45411, 7.792510000000163], [16.45736, 7.79869], [16.455300000000136, 7.80237000000011], [16.449390000000164, 7.802920000000142], [16.44748, 7.8031], [16.44219, 7.80588], [16.438960000000122, 7.805200000000127], [16.435189826000112, 7.798735052999973], [16.43141976900006, 7.792270071000132], [16.42764982700004, 7.785805053000047], [16.42388000000011, 7.779340000000104], [16.41925997100003, 7.776720025000088], [16.414640000000134, 7.774100000000146], [16.41254000000015, 7.76791], [16.413910000000158, 7.76423], [16.42034000000018, 7.759840000000111], [16.423305046000166, 7.753285011000173], [16.42627, 7.74673], [16.42418, 7.7433], [16.418650000000127, 7.742410000000177], [16.4168, 7.74058], [16.41562, 7.73416], [16.41743, 7.72772], [16.425230000000113, 7.72103], [16.427770000000123, 7.72124], [16.430520000000115, 7.718710000000158], [16.425870000000145, 7.709090000000174], [16.418940000000134, 7.70384], [16.414659952000022, 7.699040022000133], [16.41038, 7.69424], [16.40881, 7.69067], [16.40665, 7.685770000000161], [16.40365, 7.682790000000125], [16.39914997600016, 7.680515023999988], [16.394650000000127, 7.67824], [16.39277, 7.67114], [16.384710000000155, 7.671180000000163], [16.38009497200005, 7.668560025000033], [16.37548, 7.66594], [16.372260000000153, 7.66687], [16.36661498400008, 7.665635037000129], [16.36097, 7.664400000000171], [16.35707, 7.6674], [16.35407, 7.66696], [16.347600000000114, 7.661020000000121], [16.342480000000137, 7.661800000000142], [16.34138, 7.66196], [16.33399986000012, 7.659240190000105], [16.32661981300015, 7.656520253], [16.319239860000152, 7.65380019000014], [16.31186, 7.65108], [16.306685004000144, 7.651445031000037], [16.30151, 7.651810000000125], [16.296650000000113, 7.64793], [16.294439972000077, 7.642430006000097], [16.29223000000019, 7.63693000000012], [16.28646, 7.6326], [16.27769, 7.62782], [16.26973496, 7.625675073000139], [16.2617800000001, 7.62353], [16.25646493700009, 7.618385033000038], [16.25115, 7.61324], [16.23546, 7.606650000000116], [16.23446, 7.60736], [16.23317, 7.60827], [16.233165235000172, 7.608270666000124], [16.22580670200017, 7.609300125000118], [16.21844336800018, 7.610330125000075], [16.21108, 7.611360000000104], [16.20419, 7.61506], [16.19636, 7.61578], [16.19094499200014, 7.615115034000098], [16.18553, 7.614450000000147], [16.18069, 7.61195], [16.176754956000025, 7.60714501800004], [16.17282, 7.60234], [16.16358, 7.594580000000121], [16.156445010000027, 7.595185059000187], [16.149310000000128, 7.59579], [16.144469995000122, 7.595350027000165], [16.139630000000125, 7.59491], [16.135479980000127, 7.592860020000103], [16.131330000000162, 7.59081], [16.124925003000158, 7.591005047000181], [16.11852, 7.5912], [16.111570003000054, 7.591410056000029], [16.104620000000125, 7.59162], [16.096214976000113, 7.590390081000123], [16.08781000000016, 7.58916], [16.080586586000038, 7.5867434540001], [16.073363253000025, 7.584326787000066], [16.06614, 7.58191], [16.061409976000164, 7.579750026], [16.056680000000142, 7.577590000000157], [16.052979971000184, 7.574160016000064], [16.04928000000018, 7.57073000000014], [16.0462699630001, 7.565350011000021], [16.04326, 7.559970000000135], [16.041154960000085, 7.551715007000041], [16.03905, 7.54346], [16.03903000000014, 7.538635001000102], [16.03901, 7.53381000000013], [16.03577, 7.53084], [16.02701000000019, 7.52994], [16.02308, 7.52286], [16.017540000000167, 7.519900000000121], [16.01394494200008, 7.512795016000041], [16.010350000000187, 7.505690000000129], [16.004119950000188, 7.502160044000107], [15.99789, 7.49863], [15.993959963, 7.494510018000085], [15.99003, 7.49039], [15.98105, 7.48928], [15.974810000000161, 7.483340000000112], [15.966906671, 7.483446808000053], [15.959003337000127, 7.483553475000065], [15.9511, 7.4836600000001], [15.944416616000183, 7.482006768000076], [15.937733283000114, 7.480353435000154], [15.93105, 7.4787], [15.92394, 7.47414], [15.91859, 7.470710000000111], [15.909370000000138, 7.46707], [15.90076657800006, 7.464810168000099], [15.89216324500012, 7.462550168000178], [15.883560000000159, 7.46029], [15.877026595000189, 7.45786676299997], [15.870493260999979, 7.455443430000116], [15.86396, 7.453020000000151], [15.857896659000119, 7.452740082999981], [15.85183332600019, 7.452460083000119], [15.84577000000013, 7.452180000000112], [15.840240000000165, 7.45059], [15.83401, 7.445570000000146], [15.82986, 7.444660000000169], [15.825490000000116, 7.44629], [15.816750000000127, 7.44540000000012], [15.81305, 7.441740000000152], [15.80959, 7.441070000000138], [15.807145585000058, 7.444581976000109], [15.80714, 7.44459], [15.803555042000085, 7.449735015000044], [15.799970000000144, 7.45488], [15.792630058000157, 7.458385061000058], [15.78529, 7.46189], [15.779410006000035, 7.462340039000082], [15.77353, 7.46279], [15.769140000000107, 7.457990000000166], [15.76638, 7.45777], [15.75903, 7.463770000000181], [15.75814000000014, 7.470890000000111], [15.755390000000148, 7.47457], [15.750785009000083, 7.475395023999965], [15.74618, 7.47622], [15.742970000000128, 7.47853], [15.739160128000037, 7.485890035000125], [15.735350128000107, 7.493250035000187], [15.731540000000166, 7.500610000000108], [15.72764, 7.504990000000134], [15.728749986000082, 7.510590002000015], [15.72986, 7.516190000000108], [15.727950000000135, 7.519130000000189], [15.719461224000156, 7.518935575000171], [15.710972455000046, 7.518740985000079], [15.702483693000033, 7.518546232], [15.69399493900005, 7.518351314000085], [15.685506193000094, 7.518156232000081], [15.677017455000112, 7.517960985000173], [15.668528723000122, 7.517765575000169], [15.66004, 7.51757], [15.65735, 7.51711], [15.652709992000155, 7.516310025], [15.648070000000132, 7.515510000000177], [15.63955, 7.516660000000115], [15.630799966000097, 7.514945087000058], [15.622050000000172, 7.51323], [15.622050000000172, 7.51415], [15.613237079999976, 7.51363053100016], [15.60442418100007, 7.513110884000071], [15.595611303000112, 7.512591061000137], [15.586798446000046, 7.512071061000086], [15.577985609000109, 7.511550884000144], [15.569172794000053, 7.511030531000188], [15.56036, 7.510510000000181], [15.54655, 7.5112], [15.533470347000048, 7.516639855000108], [15.53347, 7.51664], [15.495788798000035, 7.532341709000093], [15.492867, 7.527787], [15.492963000000145, 7.526091], [15.491957, 7.522547], [15.491038, 7.521554], [15.48958800000014, 7.51988], [15.48835, 7.518187000000125], [15.487822, 7.517198], [15.487677000000133, 7.516149], [15.488032, 7.51507], [15.488864, 7.514177000000188], [15.48972, 7.51350100000019], [15.490578, 7.513029], [15.491257, 7.512706000000151], [15.491346000000135, 7.512531], [15.491521, 7.511509], [15.491080000000125, 7.510161], [15.49049, 7.509341], [15.489636, 7.508412000000135], [15.484477, 7.504394], [15.48065, 7.50270300000011], [15.476411, 7.499350000000163], [15.475615, 7.498707], [15.474909, 7.497510000000148], [15.474791, 7.496343], [15.475215, 7.494915], [15.475662, 7.493925000000161], [15.476305000000139, 7.493017000000179], [15.475863000000174, 7.491936], [15.474077, 7.489179], [15.471163000000104, 7.48702], [15.466993, 7.484177], [15.465478000000132, 7.48349], [15.464214, 7.483605000000182], [15.463214, 7.483809000000178], [15.461976000000107, 7.48352], [15.46062400000011, 7.483055000000149], [15.457655000000159, 7.481102], [15.456686000000104, 7.479893000000175], [15.456189000000165, 7.478786], [15.455515, 7.474914000000126], [15.45546, 7.474596000000133], [15.455635, 7.474305], [15.455928, 7.474100000000135], [15.45625100000018, 7.473984], [15.456544, 7.473984], [15.456866, 7.474041], [15.457275000000152, 7.474358000000166], [15.457508, 7.474618], [15.457653000000164, 7.474995], [15.457711000000188, 7.475198], [15.45791700000018, 7.476336], [15.457977000000142, 7.476978], [15.457978, 7.477241000000106], [15.458067000000142, 7.477853000000152], [15.458214, 7.478145000000154], [15.458508, 7.478291000000127], [15.45892, 7.478349000000151], [15.459742000000176, 7.477941000000158], [15.460065, 7.476747000000103], [15.460065, 7.47479600000014], [15.459683, 7.473339], [15.458943000000147, 7.472361], [15.457914, 7.471547000000101], [15.456239, 7.470409], [15.45532800000018, 7.469709], [15.45477, 7.468219], [15.453850000000102, 7.462639], [15.453732000000116, 7.460948], [15.453731, 7.459667], [15.450706, 7.456087], [15.445647000000122, 7.455573000000186], [15.438871, 7.454036], [15.438181, 7.453865], [15.437549000000104, 7.453523], [15.437319000000116, 7.452896], [15.437205, 7.452327], [15.437149, 7.451587], [15.437151, 7.450393], [15.437209, 7.449767000000122], [15.436690000000112, 7.445495000000165], [15.435887, 7.440884], [15.43434000000019, 7.437135000000126], [15.433223000000112, 7.434631], [15.431733000000122, 7.433096], [15.429496000000142, 7.432186000000115], [15.427028, 7.431389], [15.424791, 7.430535000000134], [15.423181, 7.428656000000103], [15.422894, 7.428086000000178], [15.422038000000157, 7.426383000000101], [15.421695, 7.422631], [15.422268, 7.420411000000172], [15.42267100000015, 7.419789], [15.422787000000142, 7.417803], [15.421757000000184, 7.416386], [15.42038100000019, 7.414850000000115], [15.419177, 7.413941], [15.417860000000132, 7.41331700000012], [15.415911, 7.412065], [15.414477, 7.411038], [15.408697000000132, 7.405934000000173], [15.402106000000174, 7.39985200000018], [15.396586000000127, 7.399166], [15.394697000000122, 7.398659], [15.392011000000139, 7.397815], [15.390508000000125, 7.397161], [15.389992, 7.396934000000158], [15.389476000000172, 7.396706000000108], [15.388100000000179, 7.395512], [15.387644000000137, 7.395059], [15.387359000000174, 7.394549000000154], [15.387302, 7.393982000000108], [15.38616100000013, 7.390354000000173], [15.382249000000115, 7.382677000000172], [15.379058, 7.3783], [15.3778, 7.377166], [15.377057, 7.377108], [15.374939000000154, 7.37733], [15.372305000000154, 7.376535], [15.371391, 7.375514000000123], [15.370935000000145, 7.374438], [15.369679000000133, 7.372681000000171], [15.367851, 7.370955], [15.367221000000143, 7.370444], [15.366706, 7.370047], [15.365733000000148, 7.369309], [15.365162000000169, 7.369138000000135], [15.363848000000132, 7.369305000000111], [15.36281700000012, 7.36851], [15.359383, 7.364769000000138], [15.358527, 7.362733], [15.357612000000188, 7.361713], [15.352564000000143, 7.357962], [15.348961, 7.355637], [15.342281, 7.352079000000174], [15.337741000000108, 7.350541], [15.336331000000143, 7.350021], [15.33587400000016, 7.349114000000156], [15.336219, 7.346681000000103], [15.335476, 7.345378], [15.332615000000146, 7.341863], [15.331479000000115, 7.341167], [15.329646, 7.340548000000183], [15.327475000000106, 7.33896], [15.320752, 7.333455000000185], [15.31835, 7.330796], [15.316752000000179, 7.328988], [15.315153, 7.327491], [15.31366800000012, 7.327207000000158], [15.31213471100017, 7.326953239000034], [15.312582792, 7.326261954000131], [15.313154388000044, 7.325313717000085], [15.313743382000098, 7.324214473000097], [15.313876741000058, 7.323865660000081], [15.313954912000042, 7.323695938000071], [15.313981289000026, 7.323440620999975], [15.313877701000138, 7.323269430000153], [15.313874797000096, 7.323268348000056], [15.313772549000134, 7.323099250999974], [15.313769591000096, 7.323098203000086], [15.313667400000043, 7.322929071000146], [15.313664382000184, 7.322928059000049], [15.313562252000054, 7.322758890000159], [15.313559172000168, 7.322757916000114], [15.313457107000147, 7.322588707000023], [15.313453959000071, 7.322587776000034], [15.313351964000049, 7.322418523000181], [15.313348743000063, 7.322417636000182], [15.313246824000089, 7.322248337000133], [15.313243524000143, 7.322247499000071], [15.313141687000154, 7.322078148000173], [15.313138301000038, 7.322077364000108], [15.313036553000188, 7.321907958000111], [15.313033074000145, 7.321907231000125], [15.312931424000112, 7.321737765000137], [15.312927842000136, 7.32173710100011], [15.312826299, 7.321567569000081], [15.312822605000065, 7.32156697400012], [15.312721180000096, 7.321397369000067], [15.312717362000114, 7.321396851000031], [15.31261606600009, 7.321227166000085], [15.312612112000124, 7.321226732000071], [15.312510960000111, 7.321056958000042], [15.312506852000126, 7.321056618], [15.312405862000105, 7.320886745000053], [15.312401583000053, 7.32088651000015], [15.312300774000107, 7.320716525000023], [15.312296301, 7.320716410000102], [15.312195698000153, 7.320546296999964], [15.312191005000045, 7.320546318000083], [15.312090636000164, 7.32037606], [15.312085690000117, 7.320376237000119], [15.311985593000088, 7.320205811000051], [15.311980353000024, 7.320206169000073], [15.311880571000074, 7.320035548000078], [15.311874986000078, 7.320036119000065], [15.311775578000038, 7.319865267000125], [15.311769582000068, 7.319866091], [15.311670623000111, 7.319694961000039], [15.311664127000142, 7.319696092000072], [15.311565716000075, 7.31952462400011], [15.311558602, 7.319526135000103], [15.311460877000172, 7.319354243000134], [15.31145297900008, 7.319356236000033], [15.311356136000143, 7.319183799000029], [15.31134720700004, 7.319186424000179], [15.311251540000171, 7.319013261000123], [15.311241197000129, 7.319016753000085], [15.31114717700018, 7.318842571000062], [15.311134772000116, 7.318847327000071], [15.311043222000023, 7.318671618000053], [15.311027514000102, 7.318678392000038], [15.310940086000187, 7.318500134000033], [15.310921896000082, 7.318508892000068], [15.310905114000093, 7.318480431000125], [15.310858867000093, 7.318373321000138], [15.310831638000082, 7.318331256000135], [15.310820623000154, 7.318337141000143], [15.310777689000133, 7.318264329000158], [15.310769928000127, 7.318235922000042], [15.31072272400013, 7.318162997000115], [15.310719173999985, 7.318165091000139], [15.310669000000132, 7.318080000000123], [15.308564, 7.310647], [15.308682, 7.302704000000119], [15.309568000000127, 7.295710000000156], [15.309942, 7.288207], [15.311880000000144, 7.281585000000121], [15.315217000000189, 7.275796], [15.320537, 7.271674], [15.324518, 7.26966], [15.333500000000186, 7.268133], [15.339112, 7.26780900000017], [15.346298, 7.265031], [15.350139, 7.262831], [15.358712, 7.257738000000188], [15.360727, 7.256233000000179], [15.362442000000158, 7.2535], [15.371338, 7.249472], [15.376934000000176, 7.246763], [15.381453, 7.244749000000184], [15.385174, 7.243522], [15.388516000000152, 7.243754], [15.393543, 7.24394], [15.397335000000112, 7.24218], [15.397915000000125, 7.236136], [15.397692000000177, 7.232593000000179], [15.39706, 7.225182000000189], [15.396542, 7.218907], [15.396209, 7.212886], [15.395948, 7.206749], [15.396702000000118, 7.197232], [15.395923000000153, 7.191975], [15.395399000000168, 7.187459], [15.395737, 7.183939], [15.396869, 7.180721000000119], [15.397904, 7.178567], [15.401419000000146, 7.175997], [15.404584, 7.173103], [15.406275000000107, 7.170694], [15.408883, 7.16631800000016], [15.410812, 7.162474], [15.41343, 7.155157], [15.414332000000115, 7.150572000000125], [15.413428, 7.140475], [15.413084, 7.138229], [15.413589, 7.133574], [15.414932, 7.130193], [15.415561, 7.123547000000144], [15.415454, 7.120097000000101], [15.414602, 7.11609], [15.413232, 7.112848], [15.410768, 7.108147], [15.408349000000158, 7.104256], [15.407073, 7.100991], [15.406717000000128, 7.09504], [15.405956, 7.091682], [15.406014, 7.087838000000147], [15.407336000000157, 7.083785], [15.40793500000018, 7.079108], [15.40876400000019, 7.075449], [15.409362000000101, 7.071026000000188], [15.409656, 7.066672], [15.409896, 7.064658000000179], [15.409494, 7.058521], [15.408528, 7.053496000000166], [15.407305, 7.048146000000145], [15.406849, 7.04414], [15.406901, 7.039793], [15.410568, 7.041751], [15.413872, 7.040952000000175], [15.41824800000012, 7.039763], [15.42399300000011, 7.038578], [15.430872000000136, 7.037698], [15.433801000000187, 7.037199000000157], [15.442748, 7.036025], [15.450703000000146, 7.036400000000128], [15.459459, 7.03768], [15.467886, 7.041299], [15.472927, 7.042799], [15.480046, 7.043147], [15.486783, 7.044467], [15.489027, 7.045077], [15.497581000000139, 7.045709000000159], [15.504852, 7.045039000000145], [15.51108100000016, 7.044157000000155], [15.515908, 7.044034000000124], [15.519032, 7.04284100000018], [15.521576, 7.041529000000139], [15.529627, 7.03757400000012], [15.538559000000134, 7.031768], [15.546597000000133, 7.028970000000186], [15.551000000000101, 7.029425000000174], [15.557606000000135, 7.030050000000188], [15.561498, 7.032565], [15.56676700000014, 7.038326000000154], [15.571164000000124, 7.043297], [15.574700000000178, 7.046552], [15.578732000000173, 7.047029000000123], [15.584118000000103, 7.046746000000155], [15.589020000000176, 7.044239000000175], [15.594813, 7.04097], [15.595884000000183, 7.040202000000136], [15.60280500000016, 7.051799], [15.612350000000106, 7.066237], [15.623649000000114, 7.074313000000188], [15.62508200000019, 7.079686000000152], [15.628034, 7.085267], [15.630454, 7.08888], [15.631035000000168, 7.089922000000115], [15.632759, 7.092122], [15.63667700000019, 7.095295], [15.63940700000012, 7.09687], [15.642746000000159, 7.09826], [15.646483000000103, 7.099465000000123], [15.651741, 7.100299000000177], [15.655481000000123, 7.100716], [15.657698, 7.101944], [15.660147000000165, 7.103681], [15.662736000000166, 7.105742], [15.66348, 7.1070390000001], [15.665449, 7.11537600000014], [15.667724, 7.112795000000119], [15.672385, 7.109574], [15.676409, 7.107396000000108], [15.67911, 7.106491], [15.683628, 7.105246], [15.686088000000154, 7.10472], [15.699015, 7.100194], [15.702442, 7.098871], [15.70596600000016, 7.097637], [15.71311500000013, 7.096856], [15.717961000000173, 7.095715000000155], [15.725559, 7.092784000000108], [15.727068000000145, 7.093917], [15.727594000000181, 7.097213000000124], [15.726917, 7.099809000000164], [15.726081, 7.101089000000172], [15.723827, 7.102905], [15.715299000000186, 7.104706000000135], [15.713371000000166, 7.106581], [15.711537000000135, 7.110584000000131], [15.71136, 7.11358], [15.712044000000162, 7.115364], [15.712338000000159, 7.117207000000121], [15.712564, 7.119123000000172], [15.713081000000159, 7.122141000000113], [15.713354, 7.125446], [15.713161, 7.127978], [15.713382, 7.131818], [15.715041000000156, 7.135074000000145], [15.718895, 7.136100000000113], [15.728883, 7.138535000000161], [15.733416000000148, 7.139097000000106], [15.737432, 7.139445000000137], [15.745614, 7.141155], [15.749817000000178, 7.141565], [15.751668, 7.141525000000115], [15.756254, 7.142316], [15.761113, 7.144327000000146], [15.764597, 7.14745], [15.766591668999979, 7.150775087000113], [15.770109000000161, 7.152530000000127], [15.777728000000138, 7.153437], [15.784539, 7.151742], [15.792187, 7.148522000000128], [15.798452000000111, 7.145355000000109], [15.805395, 7.140166], [15.811657, 7.133404000000155], [15.815977, 7.130305], [15.8243030000001, 7.123855], [15.846488, 7.124469], [15.853743, 7.131268], [15.858029000000158, 7.135613000000149], [15.86563, 7.141691000000151], [15.870418, 7.145441000000119], [15.876777, 7.151165000000162], [15.882646, 7.158459], [15.8864, 7.162308], [15.891209000000117, 7.165293], [15.896149, 7.166824], [15.902368, 7.165256], [15.918227, 7.159591], [15.923367, 7.158490000000143], [15.929322, 7.156233], [15.933772000000147, 7.153698000000134], [15.941758000000107, 7.148271000000136], [15.944975, 7.146449000000189], [15.947805, 7.144419], [15.951621000000102, 7.142355], [15.956105, 7.141655], [15.959463, 7.142649], [15.962786, 7.145451], [15.967947, 7.150846], [15.973258000000158, 7.154048000000103], [15.979135, 7.155149000000108], [15.981817, 7.15529], [15.985600000000147, 7.154988], [15.989697, 7.154519], [15.992089, 7.155222], [15.993482, 7.156212], [15.996351, 7.157965], [16.001153, 7.158653000000129], [16.010181, 7.157047], [16.010806, 7.157155000000159], [16.01264, 7.156989], [16.014439, 7.157029], [16.014512, 7.156987000000129], [16.017461, 7.156541000000175], [16.020765, 7.15563], [16.02363700000012, 7.154506], [16.028061945000047, 7.152611123000156], [16.030004, 7.151601000000142], [16.0311798030001, 7.150935301000061], [16.02948, 7.149826000000189], [16.010145, 7.135160000000155], [16.003364, 7.130773], [15.994522, 7.121447000000103], [15.99267900000018, 7.115278], [15.990469000000132, 7.106226000000163], [15.990086, 7.099625], [15.9914, 7.091873], [15.995123, 7.086483000000158], [16.000353, 7.075940000000173], [16.00895800000012, 7.065063000000123], [16.013177, 7.055691], [16.013683, 7.047826000000157], [16.016382, 7.04314], [16.0128160000001, 7.036384], [16.015071000000148, 7.029544], [16.017334000000176, 7.027072000000146], [16.041957, 6.966690000000142], [16.057469, 6.820748000000151], [16.09800600000017, 6.718271], [16.110685000000103, 6.68526], [16.12003300000015, 6.662151000000108]]]}}]}