{"type": "FeatureCollection", "features": [{"type": "Feature", "properties": {"entity_id": "cf-p-ouham-v1", "name_fr": "Ouham"}, "geometry": {"type": "Polygon", "coordinates": [[[16.970899, 6.122516], [16.97037477000015, 6.122527297000033], [16.918184, 6.123652000000106], [16.908253262000073, 6.112864609000098], [16.90606041000018, 6.11089553700009], [16.904435, 6.109436000000187], [16.904721, 6.103332], [16.90610900000013, 6.097495], [16.906939, 6.091940000000136], [16.908602, 6.087215000000128], [16.909992, 6.081658], [16.910277, 6.075554], [16.910554, 6.0694400000001], [16.912776, 6.064441], [16.913605, 6.058887], [16.917214, 6.055275000000108], [16.91944, 6.051108000000113], [16.92360200000013, 6.048327], [16.926939000000175, 6.044436000000189], [16.92805, 6.03916], [16.926657000000148, 6.033605], [16.924158000000148, 6.029165000000148], [16.921380000000113, 6.024997], [16.921656, 6.018884], [16.922775000000115, 6.013328], [16.923885, 6.008053], [16.924994, 6.002498000000116], [16.926104, 5.996942000000161], [16.927212, 5.991106000000116], [16.928330000000187, 5.985550000000103], [16.93027300000017, 5.980833], [16.93276900000012, 5.976665], [16.934712000000104, 5.971938], [16.93583100000012, 5.966383000000178], [16.934717, 5.960274], [16.933324, 5.954718], [16.932767000000126, 5.947776], [16.93499, 5.943049], [16.938047, 5.939159], [16.94138500000014, 5.935829], [16.94526700000017, 5.933048000000156], [16.947771, 5.928609], [16.95138, 5.925269], [16.95305100000013, 5.920272000000182], [16.956389, 5.916942000000176], [16.959445000000187, 5.913052000000164], [16.962774, 5.909713000000124], [16.96527, 5.905554000000109], [16.965826, 5.899440000000141], [16.96472000000017, 5.893052], [16.964436, 5.889165000000105], [16.964438, 5.882221], [16.964715000000126, 5.876108000000158], [16.966666, 5.871110000000158], [16.96916, 5.866661000000136], [16.97333, 5.86388], [16.976940000000127, 5.860829], [16.978395, 5.858645], [16.980084, 5.855593], [16.98021022200004, 5.855259687000114], [16.981386000000157, 5.851935], [16.981908574000045, 5.846207328000105], [16.981943, 5.845830000000149], [16.98169087400015, 5.839510466000036], [16.981777, 5.837293000000102], [16.980632461000027, 5.833210885000085], [16.980238, 5.831804000000147], [16.978878089000034, 5.826712925000152], [16.978853000000186, 5.826619000000107], [16.974714000000176, 5.818052], [16.972771, 5.812498], [16.973048000000176, 5.806385000000148], [16.97527, 5.801658], [16.97749400000015, 5.797491], [16.980277, 5.793051], [16.98332500000015, 5.789441000000124], [16.986662, 5.786102], [16.989436, 5.781662], [16.992494000000136, 5.778333], [16.995268000000124, 5.774164000000155], [16.997772, 5.769996], [17.001108, 5.766106], [17.003602000000114, 5.761938], [17.006106, 5.757770000000107], [17.00776900000011, 5.753054], [17.009999, 5.748055], [17.012213, 5.743888], [17.014443, 5.738880000000165], [17.17454, 5.732104000000163], [17.175022474, 5.732093148000104], [17.176793443000065, 5.732053317000123], [17.235363000000177, 5.730736], [17.30329504600013, 5.723705331000076], [17.403602, 5.713324], [17.511937000000103, 5.71444200000019], [17.59888500000011, 5.716386000000114], [17.664438, 5.755272], [17.751106, 5.80444400000016], [17.79857500000014, 5.830651000000103], [17.804437, 5.833884000000126], [17.814714, 5.841107], [17.82443700000016, 5.847772], [17.83110500000015, 5.854994], [17.838883000000124, 5.867497000000185], [17.845366, 5.879157], [17.845831000000146, 5.879995], [17.853605000000186, 5.889994000000172], [17.873332, 5.901106000000141], [17.873076631000174, 5.901493362], [17.861865, 5.918500000000108], [17.861843, 5.92068600000016], [17.861403, 5.923611], [17.861619000000132, 5.925229000000172], [17.86067000000014, 5.92871], [17.860782000000142, 5.931358000000102], [17.859506, 5.933528], [17.858613000000105, 5.935149], [17.858365, 5.937568], [17.859458, 5.940447], [17.860303000000158, 5.942638000000159], [17.8594030000001, 5.945379], [17.85813300000018, 5.948145000000125], [17.857518, 5.950002000000154], [17.857388000000185, 5.95385], [17.85638, 5.958216000000164], [17.857421, 5.960824000000116], [17.858702, 5.962367], [17.85874200000012, 5.963298000000179], [17.859608, 5.964929], [17.860508, 5.966885000000104], [17.861231, 5.969771], [17.861627, 5.971634000000108], [17.861972, 5.974328], [17.862274000000127, 5.976841], [17.862491000000148, 5.978333], [17.863985000000127, 5.982145000000116], [17.86363100000017, 5.985584], [17.864399000000105, 5.990169], [17.86418700000013, 5.997304], [17.862944, 5.999980000000164], [17.86111700000015, 6.002417], [17.85700500000013, 6.005095], [17.854675, 6.008722000000148], [17.855103, 6.014190000000156], [17.854836, 6.016808], [17.8554400000001, 6.020072], [17.855168000000162, 6.023278000000118], [17.855538, 6.024987000000124], [17.856601, 6.029844], [17.857514, 6.03116800000015], [17.859453000000144, 6.03604], [17.861525, 6.041273000000103], [17.862768000000187, 6.044839000000138], [17.86470400000013, 6.048608], [17.865353, 6.050256000000161], [17.866226, 6.053793], [17.867056, 6.05705], [17.86872, 6.062688], [17.869233, 6.067515000000128], [17.875759000000187, 6.0735600000001], [17.877414000000158, 6.075945], [17.875164000000154, 6.078064], [17.8692640000001, 6.079358], [17.860189000000105, 6.07887200000016], [17.856237, 6.077141], [17.85443600000019, 6.068883], [17.85309800000016, 6.064576000000159], [17.848105, 6.061963000000162], [17.846045000000117, 6.062421], [17.842921000000104, 6.062755], [17.839024, 6.061025000000143], [17.836643, 6.05767800000018], [17.834482, 6.056987], [17.83100800000011, 6.058476], [17.828401, 6.06155], [17.828177000000153, 6.064304], [17.827221000000122, 6.067252], [17.82315300000016, 6.070155000000113], [17.81801300000012, 6.068101000000127], [17.812785, 6.065577000000189], [17.809571, 6.062785000000133], [17.806725000000142, 6.060311], [17.803978, 6.058028000000149], [17.801782, 6.058575000000133], [17.799407, 6.061993000000143], [17.799454, 6.064794], [17.800015, 6.067588000000171], [17.798732000000143, 6.070851000000118], [17.796078, 6.075586], [17.793988000000184, 6.079684], [17.789324000000136, 6.084055], [17.784006, 6.08300300000019], [17.779555, 6.083437], [17.775486, 6.084957], [17.76954000000012, 6.089465000000132], [17.76528900000011, 6.094164], [17.762639, 6.098213000000101], [17.760682, 6.102582], [17.754591, 6.104017000000169], [17.75055300000014, 6.101906], [17.74839400000019, 6.096275000000162], [17.753369, 6.089784], [17.754691, 6.08588], [17.753579, 6.080237000000125], [17.753793000000144, 6.076183], [17.753831000000105, 6.071369000000175], [17.753679000000147, 6.06654500000019], [17.753630000000157, 6.061179], [17.753304000000185, 6.058467], [17.754074000000116, 6.050333000000137], [17.741578, 6.072966000000122], [17.73888000000011, 6.072986], [17.736681, 6.074066], [17.733757, 6.075611000000151], [17.731793, 6.076637000000119], [17.730159, 6.079690000000141], [17.727649, 6.081508], [17.727078, 6.083401], [17.725666000000103, 6.085624000000109], [17.725079, 6.087192000000186], [17.72412900000012, 6.087755], [17.721709, 6.089474], [17.71804900000012, 6.090428], [17.716403000000184, 6.091041000000189], [17.714755, 6.092115], [17.714083, 6.094188000000145], [17.714098, 6.09622], [17.71208300000012, 6.096651000000179], [17.70942700000012, 6.097221000000104], [17.708476000000132, 6.099347000000137], [17.70689, 6.101894000000186], [17.705709000000184, 6.103241], [17.704341000000113, 6.104082], [17.70215100000013, 6.105243], [17.701372000000163, 6.105708000000106], [17.700965, 6.105813], [17.69954, 6.105823], [17.698213, 6.105833000000132], [17.697016000000133, 6.105428], [17.69563, 6.104832000000101], [17.695126, 6.104612], [17.693154000000163, 6.104022], [17.691517, 6.105981000000156], [17.689872, 6.106495], [17.68855, 6.107282000000112], [17.68791300000015, 6.108172], [17.686901, 6.108446000000185], [17.68604, 6.108964], [17.68443500000012, 6.110273000000177], [17.682804, 6.111482], [17.681705, 6.11264], [17.679794000000186, 6.115194], [17.67678100000012, 6.116638000000137], [17.675011, 6.118271], [17.674280000000124, 6.119703], [17.673734, 6.120485], [17.668514000000187, 6.121356], [17.66527000000019, 6.122076000000106], [17.66311000000013, 6.122596000000158], [17.662104, 6.123294000000158], [17.660381000000143, 6.124827], [17.656635000000165, 6.126466], [17.653886, 6.127415], [17.6522930000001, 6.129636000000175], [17.650387000000137, 6.132875000000126], [17.646541, 6.133231], [17.645771, 6.133741], [17.64402600000011, 6.134308], [17.641145000000165, 6.134795000000167], [17.63895, 6.136561], [17.63817300000011, 6.136755000000164], [17.635698000000104, 6.13727200000011], [17.633323, 6.139000000000124], [17.631873, 6.139975000000106], [17.630039000000124, 6.140406], [17.627988, 6.142173], [17.6276170000001, 6.14245000000011], [17.624097, 6.144000000000119], [17.621601000000112, 6.146413000000109], [17.62092300000012, 6.147989000000109], [17.618911, 6.149340000000166], [17.618185, 6.150122000000181], [17.617869, 6.15151], [17.617333, 6.153449000000137], [17.615385, 6.156272000000115], [17.614699, 6.157613], [17.613573, 6.158871], [17.612201, 6.160397], [17.610013, 6.162443], [17.61030000000011, 6.164097], [17.609851000000106, 6.165160000000128], [17.60931500000015, 6.167198000000155], [17.609974000000136, 6.16862], [17.608694000000128, 6.169831], [17.608748000000105, 6.171258], [17.609223, 6.173085000000185], [17.607990000000143, 6.174071], [17.607495, 6.175323], [17.608382, 6.177758], [17.609676, 6.17852500000015], [17.610784, 6.180266000000131], [17.61061000000018, 6.182107], [17.612094, 6.184176], [17.611373, 6.185472000000118], [17.61285, 6.187306000000149], [17.613422000000128, 6.189639000000113], [17.61462200000011, 6.191020000000151], [17.615604, 6.192769000000112], [17.616498, 6.195430000000158], [17.618331, 6.196751], [17.619501, 6.198682000000133], [17.62065100000018, 6.199358], [17.62245800000011, 6.201925], [17.622887000000105, 6.203996000000132], [17.621976, 6.205345], [17.62052800000015, 6.207422000000122], [17.621091, 6.209720000000175], [17.620046, 6.210797000000127], [17.62024700000012, 6.213191000000165], [17.61970600000012, 6.21457], [17.619445, 6.217296000000147], [17.61905300000012, 6.219325], [17.618101, 6.221360000000118], [17.617423, 6.223072], [17.61808, 6.224765000000161], [17.618154000000175, 6.227204000000143], [17.61880200000013, 6.228915000000143], [17.620003, 6.230232], [17.619417, 6.231484], [17.618829, 6.233106], [17.620824, 6.2359], [17.621573, 6.238705000000152], [17.62210000000016, 6.240903000000117], [17.62380000000013, 6.241771], [17.624556000000155, 6.243610000000103], [17.626897, 6.244329000000107], [17.628524, 6.246805000000109], [17.629079000000104, 6.247441], [17.631733000000168, 6.247377], [17.63381, 6.248555000000181], [17.634267, 6.249154000000146], [17.635754000000134, 6.250807000000123], [17.637514000000124, 6.253691], [17.638808, 6.254557], [17.640600000000177, 6.255137000000104], [17.641382, 6.255684], [17.642528, 6.255592], [17.644470000000126, 6.25677], [17.645992, 6.257258], [17.64663700000017, 6.258048], [17.649488000000133, 6.259583], [17.649995, 6.260743000000161], [17.651429000000178, 6.262296], [17.65306, 6.2642120000001], [17.654079, 6.265727], [17.65574, 6.267002], [17.6565700000001, 6.268516], [17.657180000000153, 6.270489], [17.657337000000155, 6.272747], [17.6581240000001, 6.273891], [17.659964, 6.274065], [17.660807, 6.276409000000172], [17.661691000000133, 6.277923], [17.663247000000126, 6.277355000000114], [17.66475700000018, 6.278313000000139], [17.665111, 6.280844000000116], [17.666664, 6.280692000000158], [17.667918, 6.282199000000162], [17.669256, 6.283345000000111], [17.66972, 6.284080000000188], [17.671336, 6.285445000000152], [17.672627000000148, 6.28687100000019], [17.67474200000015, 6.287860000000137], [17.67704600000019, 6.288769000000173], [17.678334000000177, 6.289265], [17.679485, 6.289995], [17.681012, 6.291134000000113], [17.682359000000133, 6.293617], [17.682452000000183, 6.29453], [17.681499, 6.295463], [17.680819, 6.295928000000117], [17.680649, 6.298555], [17.680475, 6.298916], [17.679285000000164, 6.300127], [17.679726, 6.303129000000126], [17.682486000000154, 6.304799000000116], [17.683417, 6.306042000000105], [17.685712, 6.307168], [17.687549, 6.307758000000149], [17.688709, 6.308479000000148], [17.692338000000177, 6.309793000000127], [17.692532, 6.310625], [17.693136, 6.312138000000175], [17.695408000000157, 6.313913000000127], [17.696226000000138, 6.31441500000011], [17.697891, 6.315275], [17.698126000000173, 6.316658], [17.69749300000018, 6.318144], [17.69884, 6.319327000000101], [17.698846, 6.321215000000166], [17.69845000000015, 6.322459], [17.698091, 6.323567], [17.698831, 6.325044000000105], [17.701152, 6.327606000000117], [17.701893, 6.32902], [17.702369, 6.330766], [17.703942000000154, 6.333296000000189], [17.704003, 6.33500400000014], [17.704382000000123, 6.336469], [17.70641, 6.336916], [17.707648000000177, 6.336716], [17.709304, 6.337539000000106], [17.710459, 6.33891], [17.71202000000011, 6.33908300000013], [17.713993, 6.339619], [17.715515, 6.340252], [17.71835900000019, 6.340225], [17.717916000000116, 6.341703000000166], [17.718843000000106, 6.343543000000182], [17.720827, 6.345235], [17.720606000000146, 6.346056], [17.720526, 6.347302000000184], [17.721764, 6.348493000000133], [17.723150000000146, 6.349080000000185], [17.723294000000124, 6.350643], [17.722297, 6.351251], [17.722304000000122, 6.352913], [17.721070000000168, 6.353935], [17.720717, 6.354122000000132], [17.72054400000013, 6.355783], [17.719185000000152, 6.358042], [17.720666000000108, 6.360806], [17.72045400000019, 6.36278300000015], [17.720288, 6.364760000000103], [17.720898000000147, 6.366796], [17.721454000000108, 6.367386000000124], [17.722021000000154, 6.369079], [17.721337, 6.37024], [17.722078, 6.371473], [17.72163000000012, 6.372445], [17.721088, 6.373842], [17.721025000000168, 6.376651], [17.72139600000014, 6.378026000000148], [17.721770000000163, 6.378805000000114], [17.721047, 6.380282], [17.722207, 6.382493], [17.72236000000015, 6.3840110000001], [17.720536, 6.385445], [17.72064200000011, 6.387288000000183], [17.722125, 6.388336], [17.723604, 6.389981], [17.723739, 6.389981], [17.72549, 6.391492], [17.72487200000012, 6.39362], [17.725159, 6.395274000000143], [17.725535, 6.397201], [17.72460000000018, 6.397879], [17.72153, 6.399409000000105], [17.720824, 6.412311], [17.73339300000015, 6.421993], [17.73339300000015, 6.426085000000171], [17.732018, 6.428813000000105], [17.730643000000157, 6.434269], [17.729267000000164, 6.442452000000117], [17.734280000000183, 6.460355000000106], [17.741591, 6.467421000000115], [17.740028, 6.467438000000129], [17.73829700000016, 6.468466], [17.736385, 6.47101], [17.73725, 6.471241], [17.736622000000125, 6.472032], [17.736851, 6.472855000000152], [17.737608, 6.474558], [17.73820400000011, 6.475881], [17.738358, 6.477309000000105], [17.737544, 6.478839], [17.7374200000001, 6.47985], [17.738618, 6.48182700000018], [17.73840200000018, 6.483018000000129], [17.73875, 6.485142000000167], [17.73783, 6.486437], [17.737526000000173, 6.488748000000101], [17.738189, 6.490901], [17.737239, 6.492657], [17.735503000000108, 6.492907000000173], [17.73473100000018, 6.493652000000168], [17.734603, 6.495313], [17.733366, 6.49661500000019], [17.733467, 6.4978440000001], [17.732561, 6.499617], [17.731428000000108, 6.500351], [17.730847000000153, 6.502208], [17.729702, 6.503365], [17.729589000000146, 6.505442], [17.729414, 6.507419], [17.729008, 6.508672000000161], [17.728872, 6.508716000000106], [17.728207, 6.511024], [17.728397000000143, 6.51240700000011], [17.72786500000018, 6.51375], [17.727605000000153, 6.516187], [17.72701400000011, 6.518269], [17.72644200000019, 6.520027], [17.725753, 6.520537000000104], [17.724613, 6.520864000000131], [17.72439400000019, 6.522488], [17.72601200000014, 6.523673], [17.727402, 6.525127000000111], [17.727093, 6.526923000000181], [17.727567, 6.528949000000125], [17.726662, 6.530614], [17.726574, 6.531770000000108], [17.726646000000187, 6.534534], [17.726471000000117, 6.536475], [17.72565800000018, 6.53786], [17.725339, 6.538364], [17.724753, 6.53948], [17.725274000000184, 6.54132600000014], [17.724503, 6.543308], [17.724291, 6.545330000000149], [17.723856, 6.548335], [17.722952, 6.54981], [17.721808000000124, 6.550706000000162], [17.720581, 6.551954], [17.719911, 6.55361100000016], [17.71937200000019, 6.55592], [17.721121, 6.556419000000176], [17.722746, 6.557929], [17.723077000000103, 6.559674], [17.723414000000105, 6.562061000000142], [17.72439, 6.563305], [17.726273, 6.564076], [17.72706600000015, 6.5657250000001], [17.727686, 6.567517], [17.729756000000123, 6.568696], [17.731026, 6.571911000000171], [17.73180900000017, 6.573704], [17.733846000000142, 6.575759], [17.73431200000016, 6.576250000000186], [17.735425, 6.57735], [17.736164, 6.579008000000101], [17.736084, 6.580154], [17.736691000000178, 6.5812600000001], [17.736705, 6.583202], [17.738817, 6.583505], [17.742867000000103, 6.584164], [17.744056, 6.584795], [17.744852, 6.585848000000112], [17.74508900000012, 6.586996], [17.745762000000184, 6.590352], [17.745504000000153, 6.592518], [17.746662, 6.595045], [17.74668000000014, 6.596427], [17.74605300000013, 6.598365000000115], [17.747305000000154, 6.600379000000146], [17.748933, 6.602765], [17.749174, 6.604564], [17.747027, 6.605498], [17.745516, 6.605877000000135], [17.745028, 6.607364], [17.745866, 6.609104000000173], [17.747882000000118, 6.610192], [17.747485, 6.611399000000176], [17.745981, 6.612239], [17.74515200000019, 6.613299000000154], [17.745439, 6.613536], [17.745988, 6.613937], [17.746546, 6.614166000000125], [17.749775, 6.616256], [17.752025, 6.61614400000019], [17.75492400000013, 6.617509000000155], [17.756311, 6.619514000000152], [17.758302000000185, 6.621767], [17.760199000000114, 6.623035000000129], [17.76287500000018, 6.624118], [17.765076, 6.624521000000186], [17.768393, 6.625590000000159], [17.770602, 6.626228], [17.77358100000015, 6.626428], [17.777354, 6.626814], [17.781359000000123, 6.627698000000123], [17.783255000000167, 6.629255000000171], [17.784271, 6.631312], [17.785440000000108, 6.63356], [17.784676000000104, 6.635822000000132], [17.784008, 6.638545], [17.783568000000116, 6.6409], [17.782442, 6.643160000000137], [17.781451000000118, 6.645529], [17.779962000000182, 6.648121], [17.779066000000114, 6.651168000000155], [17.778808, 6.653334], [17.780798, 6.655714], [17.783147, 6.65703], [17.785775000000115, 6.658438], [17.789323, 6.660159000000135], [17.792554, 6.662023000000147], [17.79558, 6.662088], [17.79931, 6.662193000000173], [17.802003, 6.662075000000186], [17.805453, 6.662188000000128], [17.807653000000187, 6.661425], [17.81006800000017, 6.659616000000142], [17.81309700000014, 6.659085], [17.815483, 6.658929000000114], [17.818968, 6.659213], [17.821552, 6.66053], [17.824959, 6.661745], [17.828638000000126, 6.662771], [17.831591, 6.664362], [17.835786, 6.666728], [17.839650000000177, 6.672724], [17.843679, 6.677014], [17.845715000000155, 6.679357000000152], [17.848901000000126, 6.681256], [17.852307, 6.68257], [17.855521, 6.682952], [17.858736, 6.683063000000175], [17.86282100000011, 6.6828450000001], [17.865723, 6.683975000000146], [17.868857, 6.685557000000131], [17.871536000000162, 6.687607], [17.872789000000125, 6.689575], [17.874007000000177, 6.692564], [17.875422000000185, 6.696051000000125], [17.87673, 6.699167], [17.8764240000001, 6.7017570000001], [17.876468, 6.706319], [17.875099, 6.708497000000136], [17.874027, 6.710757000000115], [17.873307000000125, 6.713156], [17.871208, 6.715021], [17.869628, 6.717613], [17.867805, 6.720112], [17.866683, 6.723249], [17.86700100000013, 6.727126000000169], [17.867842, 6.729968000000156], [17.86874500000016, 6.734202000000153], [17.871301, 6.737226], [17.873170000000187, 6.740246000000184], [17.877212000000156, 6.741184], [17.880244000000175, 6.741701000000148], [17.881874, 6.744087], [17.883126, 6.746055000000126], [17.88345800000019, 6.747846], [17.883022, 6.74965], [17.882433000000105, 6.751272000000142], [17.881618000000174, 6.752929000000108], [17.88067500000011, 6.754829000000143], [17.879904000000124, 6.756676], [17.877593, 6.759281], [17.875535000000127, 6.760352], [17.873769, 6.763692000000162], [17.870259, 6.767174000000125], [17.869014, 6.771105000000148], [17.868068000000108, 6.773366000000181], [17.868497, 6.775474000000145], [17.869762, 6.778327000000104], [17.87091100000015, 6.779509], [17.871484000000123, 6.781762000000128], [17.87361200000015, 6.783871], [17.874272, 6.785195000000158], [17.875525, 6.787073], [17.87722700000012, 6.78797800000018], [17.879169, 6.789526], [17.881934, 6.79098], [17.883654, 6.791976], [17.88646, 6.792644], [17.889487, 6.793956], [17.892998, 6.796128], [17.896919, 6.797617000000116], [17.899594, 6.799115], [17.902081, 6.800107], [17.906044, 6.802282000000105], [17.907945000000154, 6.80452600000018], [17.908682, 6.805163000000107], [17.910586, 6.806991], [17.914367, 6.809355], [17.916491, 6.81076000000013], [17.918015, 6.811302000000182], [17.921739000000173, 6.811082000000113], [17.925448, 6.810501000000158], [17.92742, 6.810296000000108], [17.929529, 6.809723], [17.933839000000148, 6.809822000000111], [17.939041000000145, 6.81047], [17.941122, 6.812895], [17.944024000000184, 6.814205], [17.947472000000175, 6.814868], [17.951518, 6.815382], [17.95629600000018, 6.815755], [17.95915300000013, 6.817065], [17.960453, 6.818663000000129], [17.963956000000167, 6.820709000000136], [17.96536600000013, 6.8236], [17.963409, 6.825738], [17.962516, 6.82837], [17.963139, 6.83131], [17.963611, 6.833888], [17.963417000000163, 6.837437], [17.962067, 6.840762], [17.96085, 6.843121000000167], [17.959446, 6.84510900000015], [17.95803400000011, 6.846871000000135], [17.956349000000102, 6.848829000000137], [17.95397300000019, 6.850133], [17.951371, 6.851363000000163], [17.94744, 6.8540220000001], [17.94184500000017, 6.855495], [17.938097, 6.856546], [17.935425000000123, 6.856059], [17.930821, 6.855081000000155], [17.92610000000019, 6.855638], [17.921848000000125, 6.857607], [17.922335, 6.860691000000145], [17.9254, 6.864622000000168], [17.926254000000142, 6.868169], [17.927528, 6.872432000000117], [17.93110200000018, 6.876132], [17.93327200000016, 6.878883], [17.931927, 6.881331000000102], [17.930371, 6.883002], [17.929594000000122, 6.882915], [17.928538000000117, 6.882701000000111], [17.92701600000015, 6.88317], [17.927177000000142, 6.884924], [17.926227, 6.886453], [17.92448700000017, 6.887201000000118], [17.923666, 6.888316], [17.924785, 6.889967], [17.92479600000013, 6.891069], [17.923476000000164, 6.892506000000139], [17.923391, 6.893066], [17.922936, 6.893533], [17.92184200000014, 6.895052000000135], [17.922170000000108, 6.895976000000189], [17.921955, 6.897221000000172], [17.921727, 6.8974], [17.920901, 6.898018], [17.919668, 6.898525], [17.918933000000152, 6.898999], [17.917469000000153, 6.898963], [17.916177, 6.898882000000128], [17.9156, 6.90008900000015], [17.915466, 6.90119], [17.913953, 6.901758], [17.914239, 6.902221000000168], [17.91411100000016, 6.903873], [17.912693, 6.903611], [17.912607, 6.904397], [17.911637, 6.904779], [17.911175, 6.903574], [17.910606, 6.902062000000171], [17.908561000000134, 6.899601], [17.906633000000113, 6.898730000000171], [17.905107000000157, 6.898521], [17.90293800000012, 6.897026], [17.901375, 6.896988], [17.899904, 6.8965], [17.899167, 6.895899], [17.898008, 6.894853000000182], [17.8964, 6.894779], [17.89551900000015, 6.893906000000186], [17.89354400000019, 6.893333], [17.8922510000001, 6.893379], [17.891689000000156, 6.892147], [17.891677, 6.889888], [17.89165000000014, 6.887169], [17.891368, 6.885975000000144], [17.889787000000183, 6.884429000000125], [17.889785000000188, 6.883363], [17.889542000000176, 6.881889000000115], [17.887968000000114, 6.880704], [17.886905000000127, 6.880209], [17.885720000000106, 6.880265], [17.884708, 6.880276], [17.88384000000019, 6.88028], [17.882358000000124, 6.880207], [17.880662000000143, 6.879798000000108], [17.879143, 6.879906000000176], [17.877769, 6.879824], [17.877390000000105, 6.878449], [17.876599, 6.877721], [17.874248, 6.876495], [17.874004, 6.875157000000172], [17.873954, 6.874425], [17.87229800000017, 6.873384], [17.872382000000187, 6.873014000000126], [17.871310000000108, 6.871137], [17.871256, 6.871083], [17.868919000000176, 6.870417], [17.867002000000184, 6.86647500000015], [17.86512500000015, 6.867402000000141], [17.86507600000016, 6.86658000000017], [17.863235, 6.8662700000001], [17.86325100000016, 6.86788700000011], [17.86169200000012, 6.868545], [17.860169, 6.867957], [17.859343, 6.867093000000125], [17.858086000000185, 6.865857000000176], [17.857418000000166, 6.868400000000122], [17.856271000000106, 6.868275], [17.856431, 6.866017000000113], [17.854988, 6.864084], [17.85500700000017, 6.865376], [17.854194, 6.866725], [17.852534, 6.866272], [17.850555, 6.866205], [17.850048000000186, 6.866382000000101], [17.848947, 6.866077], [17.846823, 6.864807], [17.845123, 6.864868], [17.844443, 6.865189000000157], [17.843329, 6.864152000000161], [17.84149, 6.863516000000118], [17.840472000000148, 6.862931], [17.839643, 6.862565000000131], [17.83908300000013, 6.861179], [17.837237000000187, 6.860191000000157], [17.836221000000137, 6.859408], [17.835207, 6.85836200000017], [17.83433200000013, 6.859386], [17.833053000000177, 6.860182000000123], [17.831573000000105, 6.858446000000185], [17.830741, 6.857203], [17.828534, 6.85740600000014], [17.82776200000012, 6.858015], [17.82702600000016, 6.858570000000157], [17.825745, 6.859600000000114], [17.823944, 6.85735700000015], [17.821823, 6.856910000000141], [17.821760000000154, 6.855527000000109], [17.821948, 6.854426000000103], [17.820785000000114, 6.853922000000182], [17.819855000000132, 6.852506], [17.819921, 6.8548100000001], [17.819105, 6.855229000000122], [17.81813, 6.853624], [17.817422, 6.851424], [17.816352000000165, 6.850604], [17.813437, 6.848553], [17.811463000000117, 6.84788], [17.81079100000011, 6.849637], [17.810021000000177, 6.851348], [17.808834, 6.851864], [17.806942000000163, 6.850876], [17.805625, 6.851933], [17.8037920000001, 6.853059], [17.80254100000019, 6.852337], [17.801674, 6.852205], [17.800992, 6.852806], [17.800947, 6.852851], [17.799068, 6.854021], [17.797415, 6.853902000000119], [17.79636600000015, 6.855331], [17.7956420000001, 6.856853], [17.79524, 6.8576], [17.79313500000012, 6.858724000000109], [17.790749, 6.858789000000172], [17.790440000000103, 6.860413], [17.790404000000137, 6.861786000000166], [17.790974, 6.863027000000159], [17.7912, 6.864275], [17.790535000000148, 6.865201], [17.790764, 6.86607], [17.790316000000132, 6.866807000000108], [17.789354000000117, 6.867379], [17.789260000000127, 6.867884], [17.787847000000113, 6.868353000000127], [17.787853, 6.868859], [17.787713, 6.869509], [17.786049, 6.868323000000146], [17.78453700000017, 6.868837], [17.783348, 6.869543], [17.78166000000016, 6.870615], [17.780295, 6.872006], [17.779424, 6.872524], [17.776802, 6.872687], [17.774565, 6.873395], [17.774081000000137, 6.871377], [17.774587, 6.870125], [17.77503000000013, 6.868782], [17.771756000000153, 6.867748000000176], [17.770735, 6.866468000000111], [17.770184, 6.865091], [17.7687, 6.864043], [17.766403, 6.864199000000156], [17.765517000000102, 6.862919], [17.766023, 6.861631000000102], [17.76537, 6.86066], [17.76329100000015, 6.859300000000133], [17.76259, 6.857462000000112], [17.76148, 6.857201], [17.759282, 6.857539], [17.757525, 6.856813000000102], [17.756648, 6.855435000000114], [17.75536000000011, 6.854857], [17.754803, 6.854447], [17.754475, 6.853478], [17.752815, 6.853087000000187], [17.752392, 6.851513000000125], [17.749813000000188, 6.850619], [17.749038, 6.851644000000135], [17.747855000000186, 6.852936000000113], [17.746986, 6.853084], [17.74593, 6.85428700000017], [17.746222, 6.85521000000017], [17.746684, 6.856306], [17.746846000000176, 6.859026], [17.74496900000014, 6.860061], [17.743604000000175, 6.861407], [17.741906, 6.861323], [17.739835, 6.86157100000014], [17.738711000000137, 6.863388], [17.73723400000017, 6.863947], [17.736686, 6.863437000000147], [17.733872000000133, 6.862632000000133], [17.733281, 6.863197000000184], [17.73192200000011, 6.864958], [17.731232, 6.865514], [17.730464, 6.866854000000103], [17.729245000000105, 6.868020000000115], [17.729759, 6.869442000000163], [17.728984, 6.870502000000101], [17.728669, 6.87162], [17.728725, 6.872677000000124], [17.727907, 6.873376], [17.728331, 6.874707], [17.726953, 6.875402000000179], [17.726867, 6.876060000000109], [17.725718000000143, 6.876342000000136], [17.72595600000011, 6.877174], [17.724944, 6.877086], [17.725094, 6.877728], [17.722603000000163, 6.87715100000014], [17.722420000000113, 6.877565], [17.721047, 6.877493000000186], [17.721137, 6.877439000000152], [17.719882, 6.875976], [17.71403700000019, 6.880985], [17.701085, 6.89448], [17.689065, 6.912785], [17.676798, 6.928713], [17.649642, 6.933607], [17.632249, 6.938207000000148], [17.618496, 6.943058], [17.610979000000157, 6.945289], [17.605052, 6.945121], [17.602407, 6.95229], [17.59614, 6.962920000000111], [17.584315, 6.985917], [17.581257000000164, 6.992623], [17.57892800000019, 7.002134000000183], [17.51441100600016, 7.061818982000091], [17.514291000000185, 7.06193], [17.401331, 7.169614], [17.402567, 7.171096], [17.403692, 7.170572], [17.404885, 7.170608000000186], [17.40559100000013, 7.171661], [17.406852, 7.171093], [17.40734700000013, 7.17014], [17.409497, 7.170347000000106], [17.410021, 7.171515000000113], [17.40949200000017, 7.172198], [17.410886, 7.17312], [17.41187500000018, 7.173796], [17.413611, 7.175968000000125], [17.413892, 7.17709], [17.414271000000156, 7.178312], [17.41476200000011, 7.180212], [17.415324, 7.181209], [17.416039, 7.182199], [17.416815000000156, 7.183604], [17.41825100000011, 7.184943], [17.419588, 7.185035], [17.42101900000017, 7.184712000000104], [17.421940000000177, 7.184873], [17.423278, 7.186021], [17.423635000000104, 7.186502], [17.423778, 7.187894000000142], [17.422519000000136, 7.18817300000012], [17.421507, 7.188228], [17.420783, 7.189459000000113], [17.419132, 7.189031], [17.417501, 7.188287000000116], [17.415638000000115, 7.187261000000149], [17.414007, 7.186607], [17.412623, 7.186651], [17.41182600000019, 7.186951], [17.411192000000142, 7.188174], [17.411066000000176, 7.189329], [17.411074000000156, 7.19053], [17.41261400000019, 7.191274], [17.414077, 7.190391000000147], [17.415, 7.190191], [17.416044000000113, 7.190786000000116], [17.415312000000142, 7.191963000000158], [17.41495, 7.193188], [17.414631, 7.19465700000012], [17.414313000000107, 7.196036], [17.414321, 7.197237], [17.414553, 7.199966000000131], [17.413469, 7.202151], [17.41255500000011, 7.203408], [17.411448000000178, 7.205043000000103], [17.410524000000123, 7.206525000000113], [17.409858, 7.208407], [17.410627, 7.210553000000175], [17.410433, 7.212294000000156], [17.410723, 7.213326000000109], [17.41235300000011, 7.214169], [17.413307000000145, 7.214701], [17.414341, 7.215386], [17.415186, 7.214815], [17.4153, 7.21412], [17.415809, 7.212653], [17.416474, 7.211981], [17.417360000000144, 7.213170000000162], [17.416942000000176, 7.21454000000017], [17.417150000000163, 7.216862000000106], [17.416966, 7.218467], [17.416391, 7.220296000000189], [17.416354, 7.221542], [17.418186000000105, 7.221926], [17.41987200000011, 7.22249], [17.41994700000015, 7.224477], [17.419246, 7.226205], [17.419411, 7.227091], [17.419926, 7.228351], [17.420275, 7.228778000000148], [17.420881000000122, 7.229902], [17.421633, 7.230856000000131], [17.421788, 7.231778], [17.422111000000143, 7.233226000000116], [17.422031, 7.234281], [17.421902, 7.235662], [17.421857, 7.236862], [17.42225900000011, 7.237434000000121], [17.423124, 7.237829000000147], [17.42409300000014, 7.237629], [17.42520500000012, 7.23762], [17.425983, 7.23759], [17.42718600000012, 7.237410000000125], [17.428255, 7.237256000000173], [17.429224000000147, 7.237056000000109], [17.430147000000147, 7.2369], [17.4309, 7.236554000000126], [17.431499, 7.235096000000112], [17.431423, 7.234491000000162], [17.431919, 7.233402000000126], [17.432358, 7.232773000000122], [17.432787, 7.232325000000174], [17.433915000000127, 7.2314760000001], [17.434455, 7.230568000000119], [17.43574200000012, 7.228998], [17.436418000000117, 7.228092], [17.43806300000017, 7.228249], [17.439343, 7.228656], [17.440914000000134, 7.230086], [17.442276, 7.230548], [17.443164, 7.230293], [17.44441300000011, 7.230068000000131], [17.44555, 7.230375000000151], [17.446391000000176, 7.231556000000126], [17.447141, 7.232735], [17.447197, 7.233711], [17.447238, 7.235373000000152], [17.446773000000178, 7.236976], [17.446029, 7.238469000000123], [17.445945, 7.239995000000135], [17.44625800000017, 7.241613], [17.44691900000015, 7.242603], [17.448278000000187, 7.243444], [17.450065, 7.243819000000144], [17.451587, 7.243452000000161], [17.452903, 7.242758], [17.453928000000133, 7.242414], [17.455603000000167, 7.242057], [17.457056, 7.242384], [17.458483, 7.242558], [17.459485, 7.242873], [17.461394, 7.243808000000115], [17.462563000000102, 7.24459400000012], [17.463495000000137, 7.245685], [17.464055, 7.246944], [17.464143, 7.248471000000109], [17.464084, 7.250177], [17.464091, 7.251559], [17.463258, 7.251769000000138], [17.462429, 7.250173], [17.461541000000125, 7.249363000000187], [17.460663000000125, 7.249464], [17.459256, 7.250112000000172], [17.458388000000184, 7.251343], [17.459061, 7.252007000000106], [17.459532, 7.253031000000135], [17.458943, 7.254309000000148], [17.460202, 7.25517600000012], [17.461517, 7.255864], [17.462144, 7.256582], [17.46224500000011, 7.257603], [17.462693, 7.258121], [17.464763, 7.258192000000122], [17.46653, 7.258883], [17.46688500000016, 7.259689000000151], [17.46657, 7.260698000000161], [17.46487100000013, 7.260594], [17.463802000000157, 7.260839], [17.46464400000019, 7.261884], [17.46633, 7.262484000000143], [17.467939000000115, 7.26249700000011], [17.46897200000018, 7.262198], [17.47022, 7.263309000000163], [17.469342, 7.26465700000017], [17.468574000000103, 7.2657880000001], [17.467603, 7.26728], [17.46748600000012, 7.268435000000125], [17.468567, 7.268931000000123], [17.469467, 7.26826], [17.47037, 7.267283], [17.471080000000143, 7.266702], [17.471721, 7.266905000000179], [17.471683, 7.268196], [17.471999000000153, 7.269409], [17.473041, 7.27032], [17.473512, 7.271398000000147], [17.47361100000012, 7.272600000000125], [17.472922000000153, 7.274057], [17.471987, 7.274438000000146], [17.470196, 7.275679000000139], [17.46978700000011, 7.277094000000147], [17.47047, 7.2787790000001], [17.470839, 7.280127000000107], [17.470861000000127, 7.280814], [17.470633, 7.282293], [17.471405, 7.284114000000102], [17.472583000000157, 7.285026], [17.473517000000186, 7.285846], [17.474841, 7.286398], [17.475765, 7.287443], [17.47565900000012, 7.28826400000014], [17.475119, 7.289082000000121], [17.474497, 7.289944], [17.474113000000102, 7.291729], [17.473512, 7.293376000000137], [17.472722, 7.294914], [17.471595, 7.295619000000102], [17.470569000000125, 7.296180000000163], [17.469375000000127, 7.297435], [17.470318000000134, 7.298255], [17.471847, 7.298077], [17.474504000000138, 7.298251000000107], [17.476098, 7.299094], [17.476852, 7.299904], [17.47662600000018, 7.300995000000114], [17.475093000000186, 7.301633000000152], [17.473618000000158, 7.301784], [17.47254700000019, 7.302245000000141], [17.472600000000114, 7.303501000000153], [17.473545000000172, 7.304086], [17.475155000000143, 7.304044000000147], [17.476584, 7.304083000000162], [17.477934, 7.304924000000142], [17.478546, 7.306373000000121], [17.47752, 7.308081], [17.476284000000135, 7.307773000000111], [17.474597000000188, 7.307209000000171], [17.473360000000127, 7.306983000000116], [17.47203100000013, 7.306891000000178], [17.470918, 7.30704500000013], [17.470017, 7.307797000000164], [17.470295, 7.309198], [17.47214, 7.309159], [17.472837, 7.309047], [17.473748000000114, 7.309442], [17.473837000000174, 7.310698], [17.4737310000001, 7.311519], [17.474643, 7.311689000000115], [17.474776, 7.313216000000182], [17.474652000000106, 7.314], [17.475943, 7.314263], [17.477891, 7.313773], [17.478984, 7.31279700000016], [17.480531000000155, 7.311644000000115], [17.481700000000103, 7.311229], [17.483175, 7.311132], [17.484333000000163, 7.31116800000018], [17.486154, 7.311779000000115], [17.487592000000177, 7.312937], [17.488028000000156, 7.313924000000156], [17.488307000000134, 7.315218], [17.48779800000017, 7.316677], [17.486798, 7.31619], [17.485778000000153, 7.314864000000114], [17.4848, 7.313863], [17.483830000000125, 7.314153], [17.483661000000154, 7.314983], [17.482141000000126, 7.315025000000105], [17.481285, 7.315741], [17.48114900000013, 7.317022000000122], [17.481752000000142, 7.318471000000102], [17.482616, 7.319011], [17.483373000000142, 7.318249], [17.484724, 7.317736], [17.485939, 7.318468], [17.486217, 7.319915], [17.484762000000103, 7.322170000000142], [17.48410300000012, 7.324314], [17.484742, 7.32581800000014], [17.486781, 7.325337000000161], [17.488219000000186, 7.325321], [17.489467, 7.325322000000142], [17.490645, 7.327255], [17.491656000000148, 7.328771], [17.49292300000019, 7.33093], [17.493809000000113, 7.332156000000168], [17.495121000000154, 7.334324000000151], [17.495591000000104, 7.335492000000158], [17.495633, 7.337064], [17.494181, 7.336556], [17.49303900000018, 7.33578000000017], [17.492046, 7.335429], [17.49185, 7.33740500000016], [17.492198, 7.339168], [17.492689, 7.341168], [17.492627, 7.343289], [17.48909700000013, 7.347099], [17.487872, 7.346485], [17.487043578000055, 7.346690341000055], [17.486576000000127, 7.346791000000167], [17.48656600700008, 7.346932389000017], [17.48649500000016, 7.347937000000115], [17.486851000000115, 7.349845], [17.486821601000088, 7.349838969000189], [17.485899047000146, 7.349649728000088], [17.484961398999985, 7.349450546000128], [17.483601, 7.349007], [17.482416813000157, 7.349894530000086], [17.483031, 7.35368700000015], [17.484080000000176, 7.354567000000145], [17.485774, 7.355474], [17.488141, 7.355714], [17.48929908100007, 7.355730232000099], [17.489996000000133, 7.35574], [17.491092, 7.356813000000159], [17.491097, 7.358393000000149], [17.489170000000172, 7.35970500000019], [17.488077000000146, 7.360645000000147], [17.489366, 7.362299], [17.491178, 7.363144000000148], [17.492457000000172, 7.364887000000124], [17.493217000000186, 7.367133000000138], [17.493777000000136, 7.368446], [17.49590400000011, 7.368228000000158], [17.497684000000106, 7.367276], [17.49953100000016, 7.367056000000161], [17.501175000000103, 7.36734], [17.502207, 7.3683860000001], [17.501268, 7.370392000000152], [17.499669, 7.3714], [17.500081, 7.373038], [17.50058700000011, 7.374297000000126], [17.499253, 7.376002], [17.49969900000019, 7.377956], [17.50116300000019, 7.378049], [17.502916, 7.379399], [17.503924, 7.381186], [17.504935, 7.381492], [17.506449, 7.379932], [17.507916, 7.378544], [17.510411, 7.378672000000108], [17.510003, 7.381062000000156], [17.508871, 7.383554000000117], [17.50840600000015, 7.385248000000104], [17.508897000000104, 7.387167], [17.510909, 7.389025000000174], [17.512627000000123, 7.390149], [17.513289, 7.391093000000183], [17.512329, 7.392395], [17.510697000000164, 7.392897], [17.50891700000011, 7.393849000000159], [17.508667, 7.394633000000169], [17.508605000000102, 7.396754000000158], [17.507110000000182, 7.397068], [17.505261000000132, 7.397523], [17.504367, 7.399574], [17.505480000000148, 7.400667000000112], [17.50670600000018, 7.401272], [17.50788200000011, 7.403566000000126], [17.507316000000174, 7.405305000000169], [17.505624000000182, 7.406492000000128], [17.504015, 7.406444], [17.502147, 7.405833000000143], [17.501103, 7.405193000000111], [17.499695, 7.405976], [17.500333, 7.40762500000011], [17.498809000000108, 7.409274], [17.500663, 7.410535000000152], [17.502159000000177, 7.411179000000175], [17.501863000000185, 7.413208000000168], [17.500395, 7.414632], [17.500539, 7.415843], [17.50118, 7.416092], [17.502733, 7.416466], [17.503780000000177, 7.416727], [17.504931, 7.415291], [17.504475000000127, 7.413472000000183], [17.504702, 7.412237000000118], [17.50619900000015, 7.41168], [17.507527, 7.411817], [17.508342, 7.410595000000171], [17.510121, 7.409824000000128], [17.511649, 7.409917000000178], [17.513729, 7.412245], [17.513824, 7.413907000000108], [17.513528, 7.415891000000101], [17.51314200000013, 7.417911000000117], [17.514155, 7.417937000000109], [17.51543, 7.416827000000126], [17.516839000000118, 7.415944], [17.518559000000153, 7.415723], [17.52008100000012, 7.415500000000122], [17.521647, 7.4142030000001], [17.522393000000136, 7.41243], [17.523196000000155, 7.410378000000151], [17.523888, 7.408694], [17.52523, 7.407161], [17.525973, 7.406959], [17.52675, 7.407118], [17.527028, 7.408565], [17.526179, 7.410654], [17.525567, 7.412572000000125], [17.526039, 7.413515000000189], [17.527706, 7.413239], [17.52962, 7.412568], [17.531038, 7.412841000000185], [17.531653000000176, 7.414011000000187], [17.53231600000015, 7.414819], [17.533237, 7.4161], [17.534833, 7.416844], [17.535229, 7.415926000000184], [17.53564800000015, 7.414421000000175], [17.536573, 7.414076], [17.537956000000122, 7.415414000000112], [17.538797000000102, 7.41655], [17.539423, 7.417539], [17.540062000000148, 7.419079000000124], [17.53950600000013, 7.420772], [17.537773, 7.420217], [17.536727, 7.421003000000155], [17.53653, 7.423034000000143], [17.53656, 7.424930000000188], [17.534543, 7.426061000000118], [17.532946, 7.42560600000013], [17.531259, 7.424943], [17.530312, 7.425748000000169], [17.529577000000188, 7.427206000000183], [17.530125, 7.428835000000163], [17.53251, 7.429278], [17.53482, 7.428845], [17.536295, 7.428802], [17.53696900000017, 7.429422], [17.536706, 7.43065700000011], [17.536558000000127, 7.432227000000125], [17.536338, 7.433643], [17.536426, 7.435124], [17.537293, 7.435339], [17.538049, 7.434631], [17.539251, 7.434849], [17.539800000000128, 7.436298], [17.539753000000132, 7.437733], [17.539627, 7.438834], [17.537328, 7.438942000000111], [17.534654000000103, 7.437332], [17.532652, 7.436576], [17.531144000000154, 7.436203000000148], [17.52976800000016, 7.437402], [17.529685, 7.439903], [17.531931, 7.441961000000106], [17.534891000000187, 7.442833000000178], [17.537275, 7.443376000000171], [17.540357, 7.444944], [17.5415, 7.446876], [17.540306, 7.44790600000016], [17.538444, 7.44891100000018], [17.536821, 7.45056], [17.537078000000122, 7.451167000000112], [17.539137000000153, 7.451608], [17.54129900000015, 7.451715], [17.54288300000013, 7.452694000000179], [17.54355800000019, 7.453223], [17.544897000000162, 7.453170000000114], [17.54626300000018, 7.452016], [17.548143000000152, 7.45110000000011], [17.548940000000187, 7.452145], [17.547991, 7.454332], [17.547391, 7.455881], [17.547149000000104, 7.457856], [17.547102000000166, 7.459283], [17.547468, 7.460965000000101], [17.547928000000127, 7.46236], [17.548949, 7.463596], [17.550247000000127, 7.4631720000001], [17.550541000000123, 7.461423], [17.551301000000137, 7.459054], [17.552286, 7.456912000000102], [17.553111000000115, 7.455555000000118], [17.554799000000173, 7.454819000000157], [17.556174, 7.454911], [17.557161, 7.455957000000183], [17.557679, 7.456756], [17.559671, 7.456500000000119], [17.561159, 7.455997], [17.561468, 7.458176], [17.558581000000117, 7.460528000000181], [17.55687900000015, 7.461861000000169], [17.555342000000167, 7.464025000000163], [17.554945, 7.466279000000156], [17.556055000000185, 7.467697], [17.559027, 7.468343], [17.559941, 7.467176000000109], [17.561400000000106, 7.464542000000108], [17.562525000000107, 7.464162000000101], [17.564063, 7.466423000000134], [17.565852, 7.466762000000131], [17.56820400000015, 7.466744], [17.57076300000017, 7.465807000000154], [17.573385, 7.46602600000017], [17.575977, 7.466343000000109], [17.576040798, 7.466456878000088], [17.57820000000015, 7.470311000000152], [17.57624600000014, 7.48075], [17.579696000000126, 7.494295], [17.579781, 7.496193], [17.580557000000113, 7.497598000000153], [17.581747000000178, 7.499396], [17.581696, 7.502439], [17.581006000000173, 7.503896], [17.580765, 7.505737000000124], [17.581044, 7.507075], [17.581782, 7.508815], [17.58158800000018, 7.51043], [17.581685, 7.511858000000132], [17.582042, 7.513666000000171], [17.581825, 7.514776], [17.580776000000128, 7.515887], [17.580043, 7.517119], [17.58213, 7.786636000000158], [17.583853, 7.78622600000017], [17.585582, 7.785219000000154], [17.58568, 7.786511000000132], [17.587215000000185, 7.789287000000115], [17.586481, 7.790464000000156], [17.587276, 7.791825000000131], [17.587349, 7.793948000000114], [17.58805600000011, 7.796094], [17.589482000000146, 7.797803], [17.590517, 7.797459000000174], [17.592145, 7.7998300000001], [17.592718, 7.800674], [17.594824000000187, 7.801115], [17.596175, 7.802029000000118], [17.597712, 7.80337800000018], [17.599378, 7.805731], [17.599999, 7.808382000000165], [17.600015, 7.810829000000126], [17.60014500000011, 7.813874000000169], [17.600939, 7.815289000000178], [17.6030990000001, 7.816877000000147], [17.604526, 7.818496000000152], [17.606441, 7.819108000000142], [17.607904000000133, 7.81952600000011], [17.60998300000017, 7.821069], [17.612652, 7.822571000000153], [17.61405900000011, 7.822158000000115], [17.616347, 7.82242100000019], [17.617955, 7.824086], [17.61990400000019, 7.823822000000121], [17.621671, 7.82474800000017], [17.623032, 7.82553600000017], [17.62347, 7.826244000000145], [17.625036, 7.826337], [17.626465, 7.827722], [17.62857, 7.828343], [17.629366, 7.829524000000106], [17.631236, 7.83009], [17.632905000000108, 7.829769000000113], [17.634802, 7.831392000000108], [17.637271, 7.831791], [17.63966, 7.832017000000121], [17.63971, 7.83368], [17.640783, 7.833155000000147], [17.642153, 7.83509], [17.644861000000105, 7.833973000000128], [17.647335, 7.835989000000154], [17.648646, 7.838519], [17.648418000000106, 7.839755], [17.648564, 7.839675000000113], [17.64916600000015, 7.842461], [17.650077, 7.842956000000186], [17.652171000000124, 7.843849000000148], [17.653169000000105, 7.845907], [17.65275, 7.847285], [17.653918, 7.848423], [17.654737000000125, 7.850299], [17.655071, 7.851512], [17.656377000000134, 7.85238], [17.65773800000011, 7.853258], [17.657791, 7.85446], [17.65889, 7.856338], [17.659496000000104, 7.857598000000166], [17.660248000000138, 7.858688000000143], [17.660224, 7.859428], [17.661133000000177, 7.861260000000129], [17.660386000000187, 7.862889000000109], [17.660776000000112, 7.864012000000116], [17.66032300000012, 7.865146000000152], [17.660038000000156, 7.866805000000113], [17.661457000000155, 7.867223], [17.66215000000011, 7.868854000000169], [17.664373, 7.868321], [17.66534, 7.869747000000132], [17.664365, 7.871554000000117], [17.66473500000012, 7.872903000000179], [17.666045000000167, 7.875578000000132], [17.667357, 7.87792700000017], [17.668087000000185, 7.879613], [17.66737600000016, 7.880185000000154], [17.667248, 7.881476], [17.666208000000154, 7.882316], [17.66667800000016, 7.883575000000121], [17.666471, 7.885750000000144], [17.665239, 7.886905000000127], [17.665056, 7.888241], [17.6659, 7.89251], [17.665106, 7.894382], [17.663866, 7.895456000000138], [17.663296, 7.897601000000179], [17.664095, 7.898502000000121], [17.665614, 7.89883], [17.668464000000142, 7.899151000000131], [17.668731, 7.900905000000137], [17.667545000000132, 7.902024], [17.667405, 7.90368500000011], [17.668077, 7.905605], [17.668985, 7.907608], [17.668531000000144, 7.908887000000107], [17.667323, 7.909311], [17.665856000000133, 7.910464], [17.666977, 7.912993], [17.66619500000013, 7.914450000000159], [17.66734, 7.916184000000101], [17.668293000000176, 7.918296], [17.666746000000103, 7.919087000000161], [17.665934, 7.919884], [17.667033, 7.921672000000171], [17.668676, 7.922417000000166], [17.669835, 7.923609], [17.670022, 7.92513700000012], [17.670928, 7.92733], [17.672700000000134, 7.92776], [17.673788000000116, 7.928717], [17.674811, 7.929944000000148], [17.677412000000118, 7.930859000000169], [17.678055, 7.930918], [17.68037500000014, 7.931966000000102], [17.682163, 7.933778000000132], [17.684337, 7.933696], [17.686569000000134, 7.934373000000164], [17.68829, 7.935534], [17.689402, 7.93691500000017], [17.691535000000158, 7.936372000000176], [17.691819, 7.934866], [17.694595, 7.934347000000116], [17.695695000000114, 7.936125000000175], [17.696799000000112, 7.936306], [17.699054, 7.936378000000104], [17.70082200000013, 7.937259], [17.701265, 7.939629], [17.701623, 7.941348000000119], [17.702756, 7.942314000000124], [17.704269, 7.942353000000139], [17.706445000000144, 7.942099], [17.707602000000122, 7.943518], [17.709708, 7.944139000000121], [17.712676, 7.943404], [17.714323, 7.942478000000165], [17.71623700000015, 7.943279000000189], [17.718952, 7.9448000000001], [17.719869, 7.946803000000102], [17.71881800000017, 7.947878], [17.716078, 7.948444000000165], [17.714815, 7.949003], [17.713704000000178, 7.95077300000014], [17.71341000000018, 7.951358], [17.713229000000126, 7.952413], [17.715648, 7.953507], [17.71616200000011, 7.955001], [17.715058000000113, 7.955986000000166], [17.716078, 7.957629], [17.717576, 7.958327], [17.71826, 7.960049], [17.718798000000106, 7.960667], [17.720839, 7.961514000000136], [17.723237, 7.961822], [17.72354300000012, 7.960903], [17.724699, 7.959133000000122], [17.72627400000016, 7.960392000000184], [17.727959000000112, 7.9626990000001], [17.729225, 7.961860000000172], [17.729315, 7.960804000000167], [17.729465, 7.960164], [17.730466, 7.960705000000132], [17.730861, 7.961133], [17.73236300000019, 7.960296], [17.733278, 7.959129000000132], [17.734923, 7.959638000000155], [17.73436800000013, 7.961052000000109], [17.734748, 7.962220000000116], [17.73596700000013, 7.961652000000186], [17.735856000000183, 7.960739000000103], [17.737265, 7.960126], [17.737941, 7.960520000000145], [17.737952, 7.961487], [17.738085, 7.961813000000177], [17.739062, 7.963139000000126], [17.736962, 7.965245], [17.735562000000186, 7.965893], [17.734204, 7.966822], [17.732140000000186, 7.967772], [17.730366000000117, 7.96989], [17.728523, 7.971582], [17.727278, 7.973162], [17.722535347000132, 7.978512759000182], [17.716340000000116, 7.978590000000111], [17.71310000000011, 7.97746], [17.710199974000147, 7.973805010000149], [17.7073, 7.97015], [17.70338, 7.969490000000121], [17.70053003200013, 7.974095010000156], [17.69768, 7.978700000000117], [17.694010000000105, 7.981710000000135], [17.688605016, 7.982890034999969], [17.683200000000113, 7.98407], [17.677434991000155, 7.983420040000055], [17.671670000000177, 7.98277], [17.664050000000145, 7.97891], [17.658260000000155, 7.97413], [17.65708, 7.96955000000014], [17.658880000000124, 7.962420000000122], [17.648880000000133, 7.94573000000014], [17.64541, 7.94346], [17.639310014000046, 7.944415045000142], [17.633210000000133, 7.94537], [17.62974, 7.94287], [17.62695, 7.93738], [17.61652000000015, 7.92688], [17.61007, 7.92601], [17.60569, 7.92937], [17.60135000000014, 7.93271], [17.59651, 7.93274], [17.59084493900002, 7.928300039000078], [17.58518, 7.923860000000161], [17.58191995499999, 7.918145014000174], [17.57866, 7.91243], [17.5745, 7.90901], [17.56942, 7.90812000000011], [17.56712000000016, 7.90883], [17.564840000000174, 7.91297], [17.56396000000018, 7.91963], [17.56167, 7.92263], [17.55649000300002, 7.922890032000055], [17.55131000000017, 7.92315], [17.547160000000133, 7.92134], [17.54228000000012, 7.914710000000184], [17.540404976000104, 7.909330005000129], [17.53853, 7.90395], [17.538610001000166, 7.89752500100019], [17.53869, 7.891100000000165], [17.53682, 7.887210000000152], [17.53083, 7.886780000000101], [17.52912, 7.888820000000123], [17.52694000000014, 7.8914], [17.52349, 7.890960000000121], [17.520683234000046, 7.883556688000056], [17.517876567000087, 7.876153355000042], [17.51507000000015, 7.86875], [17.51114, 7.86762], [17.505650000000173, 7.873630000000105], [17.498916796000117, 7.877646776000063], [17.492183463000174, 7.881663442000047], [17.48545, 7.88568], [17.481095037000046, 7.88926002300002], [17.47674, 7.89284], [17.47284, 7.894700000000114], [17.46777, 7.894050000000163], [17.46370995000018, 7.888910020000139], [17.459650000000124, 7.88377], [17.45549, 7.88219], [17.449050000000113, 7.88337], [17.447170000000142, 7.877650000000187], [17.4499, 7.871890000000178], [17.449360000000183, 7.86908], [17.4491900000001, 7.868220000000122], [17.44572, 7.86618], [17.441120000000126, 7.86598], [17.43882, 7.867600000000152], [17.43565000000018, 7.87565], [17.43312, 7.877270000000181], [17.42712998700017, 7.876385043000028], [17.42114, 7.875500000000102], [17.418110000000183, 7.87139000000019], [17.41925, 7.86817], [17.42429, 7.86309], [17.42357, 7.8585], [17.4153, 7.861310000000174], [17.41187, 7.86661], [17.40887, 7.866170000000125], [17.406659978000164, 7.862050006000118], [17.40445, 7.857930000000124], [17.40350000000018, 7.85243000000014], [17.404850000000124, 7.847370000000183], [17.40299, 7.843020000000138], [17.39838, 7.84374], [17.393590000000188, 7.850880000000132], [17.38689997400013, 7.849230053000156], [17.380210000000147, 7.847580000000107], [17.376290000000154, 7.84662], [17.36871, 7.849650000000167], [17.365250000000117, 7.848750000000109], [17.362229969000055, 7.844520011000157], [17.35921, 7.84029], [17.352305006000165, 7.840675057000169], [17.3454, 7.841060000000141], [17.34123, 7.837410000000148], [17.338539952000076, 7.829855010000131], [17.33585, 7.8223], [17.33284, 7.82048], [17.32801000000012, 7.82096], [17.32135505900004, 7.824675053000078], [17.314700000000187, 7.82839], [17.3087, 7.827730000000145], [17.30454, 7.82363], [17.30335, 7.81744], [17.30423, 7.8094], [17.30098, 7.80551], [17.296044993000066, 7.804940029000022], [17.29111, 7.80437], [17.28393000000011, 7.803540000000112], [17.28221391500017, 7.80166790800007], [17.28184, 7.80126], [17.28365, 7.79391], [17.281560000000127, 7.79139], [17.27419, 7.79098], [17.2707, 7.785260000000164], [17.26679, 7.78574], [17.26471, 7.784150000000182], [17.26376000000016, 7.77979], [17.266375040000185, 7.773350009000183], [17.26899, 7.766910000000109], [17.26942, 7.76163], [17.26708, 7.754520000000127], [17.26266, 7.74697], [17.26012, 7.74515], [17.2546, 7.746330000000171], [17.24934008200006, 7.752900033000117], [17.24408, 7.75947], [17.23788, 7.763870000000111], [17.23258, 7.76344], [17.22841, 7.758870000000115], [17.226889984000024, 7.754405003000102], [17.22537, 7.74994], [17.22006000000016, 7.74652], [17.21704, 7.742180000000133], [17.22002, 7.730460000000164], [17.2202, 7.72977], [17.21857000000017, 7.72656], [17.213730000000112, 7.725900000000138], [17.20909, 7.72088], [17.203679992000048, 7.720220034000022], [17.19827, 7.719560000000115], [17.190997337000056, 7.716387686000189], [17.183724783000173, 7.713215248000097], [17.176452337000114, 7.710042686000122], [17.169180000000154, 7.706870000000151], [17.16570000000013, 7.70276], [17.16592, 7.699540000000127], [17.170035053000106, 7.694010020000178], [17.17415000000011, 7.68848], [17.168489952000073, 7.684835038000074], [17.16283, 7.68119], [17.16165, 7.67638], [17.16254000000015, 7.67018], [17.16045, 7.66675], [17.144310000000132, 7.662470000000155], [17.13924, 7.66182], [17.132110000000182, 7.663230000000169], [17.12591, 7.6674], [17.125040000000183, 7.66912], [17.121913424000127, 7.675296690999971], [17.118786757000123, 7.681473358000062], [17.11566000000016, 7.68765], [17.1106, 7.68929], [17.10207000000014, 7.68842], [17.096570000000156, 7.69189], [17.09127, 7.69215], [17.08827, 7.690330000000131], [17.08733000000018, 7.68643], [17.08776, 7.68069], [17.08979503000006, 7.674485006000054], [17.091830000000186, 7.66828], [17.09064000000012, 7.660480000000177], [17.08557, 7.657980000000123], [17.07912000000016, 7.65756000000016], [17.07322995800007, 7.654490039999985], [17.067340000000172, 7.65142], [17.062960000000146, 7.650990000000149], [17.056065034000028, 7.653090055000064], [17.049170000000117, 7.655190000000175], [17.04784, 7.65449000000018], [17.04617, 7.653610000000185], [17.044080000000122, 7.650400000000161], [17.04324498800014, 7.644320001999972], [17.04241000000019, 7.638240000000167], [17.04032, 7.63504], [17.031569996000144, 7.634972766000033], [17.022819995000134, 7.634905354000125], [17.014069996000103, 7.634837766000032], [17.005320000000154, 7.634770000000117], [16.999439980000034, 7.633310040000083], [16.99356, 7.63185], [16.98713, 7.635560000000112], [16.981830000000116, 7.634210000000166], [16.97811000000013, 7.62826], [16.97512, 7.62782], [16.96926505199997, 7.631635040000049], [16.963410000000124, 7.63545], [16.956970000000183, 7.63595], [16.95027996300007, 7.633570052000152], [16.943590000000142, 7.63119], [16.937360000000183, 7.62894], [16.93285496800013, 7.625860024000076], [16.92835, 7.622780000000148], [16.92464, 7.617750000000171], [16.92623001900006, 7.612695004000045], [16.92782, 7.607640000000174], [16.92689, 7.60603], [16.92251, 7.6056], [16.916773428, 7.609150076000049], [16.911036761000105, 7.612700076000124], [16.90530000000018, 7.61625], [16.900920000000156, 7.616500000000144], [16.898610000000133, 7.613990000000115], [16.89813, 7.61032], [16.89995000000016, 7.60549], [16.902805027000056, 7.601340010000058], [16.905660000000125, 7.59719], [16.90448, 7.59192000000013], [16.900074935000134, 7.585515023000141], [16.89567, 7.579110000000185], [16.89564, 7.574520000000177], [16.89908000000014, 7.571280000000172], [16.90736, 7.5694], [16.90965, 7.56618], [16.91008, 7.561580000000106], [16.908, 7.558150000000182], [16.90175, 7.552900000000136], [16.895980000000122, 7.550180000000125], [16.89184, 7.55089], [16.887715032000187, 7.554240020000123], [16.88359000000014, 7.55759], [16.878290000000163, 7.55785], [16.87414000000018, 7.556260000000123], [16.86974, 7.551470000000108], [16.86983000099997, 7.546415001000071], [16.86992, 7.541360000000111], [16.867840000000115, 7.53862], [16.863450000000114, 7.53634], [16.857114992000163, 7.535800046000134], [16.85078, 7.53526], [16.846400000000187, 7.532990000000154], [16.84385, 7.52979], [16.83937001600009, 7.531305023000073], [16.834890000000144, 7.532820000000129], [16.828899997000065, 7.53262004100003], [16.82291000000015, 7.53242], [16.82226289600004, 7.532682383000179], [16.822261, 7.532679], [16.82416200000017, 7.528051], [16.823888, 7.521108], [16.822776, 7.514991], [16.820554, 7.510271000000103], [16.818884, 7.504998000000114], [16.818052, 7.498880000000156], [16.81694000000016, 7.492772000000173], [16.814719, 7.488052], [16.813328, 7.482497], [16.811384, 7.476935], [16.812776, 7.471658], [16.814440000000104, 7.46666], [16.814452000000188, 7.466488], [16.815316656000164, 7.465784919000043], [16.824061196000173, 7.458674446000089], [16.825825, 7.457499], [16.829160000000172, 7.45360600000015], [16.832216, 7.449995000000172], [16.832407165000177, 7.44958983600003], [16.832721738000146, 7.448923117], [16.834443000000135, 7.445275], [16.834381286000166, 7.444542450000029], [16.833881000000133, 7.438604], [16.832776, 7.432216], [16.83190473600007, 7.428907830000128], [16.831387, 7.426942], [16.829715, 7.421388], [16.827495, 7.416659], [16.82444500000014, 7.412775], [16.82027600000015, 7.409998000000144], [16.81555, 7.408326], [16.810271000000114, 7.406386], [16.80610400000012, 7.404160000000104], [16.801936, 7.40138300000018], [16.798055, 7.398053000000175], [16.794718, 7.394992], [16.791939000000127, 7.390826000000118], [16.790828, 7.384718000000134], [16.79361, 7.380547000000149], [16.79583, 7.376388000000134], [16.796102000000133, 7.369714], [16.793325, 7.366108], [16.789157, 7.363331000000187], [16.784719000000166, 7.36110600000012], [16.78249000000011, 7.356106000000125], [16.78221800000017, 7.349443000000178], [16.782493, 7.343329], [16.782492000000104, 7.336385000000121], [16.78083100000015, 7.33083100000016], [16.77972, 7.324714], [16.779439, 7.31777], [16.780549, 7.312214], [16.782495000000154, 7.307495], [16.78221400000018, 7.300552], [16.780554000000166, 7.295269], [16.77971500000018, 7.28916], [16.778604, 7.282771], [16.778887, 7.276658000000111], [16.778608, 7.269995], [16.778607, 7.26305], [16.776666000000148, 7.257497000000171], [16.776679000000172, 7.244275], [16.775288633000116, 7.235698796000065], [16.765796000000137, 7.22525700000017], [16.76384714400018, 7.221688148000112], [16.76309600000019, 7.220505], [16.762786361000053, 7.219338387000107], [16.761823, 7.21669], [16.75805000000014, 7.21305400000017], [16.756103000000167, 7.208324000000118], [16.75360600000016, 7.20388400000013], [16.752776, 7.197775], [16.75249600000012, 7.190832], [16.753326, 7.185276], [16.756106, 7.180826], [16.758607, 7.176666000000125], [16.76055300000013, 7.171939000000179], [16.76221900000013, 7.167221], [16.764435000000162, 7.161941000000184], [16.765273, 7.156386000000111], [16.766664, 7.150828000000161], [16.76833, 7.146102], [16.76944, 7.140546], [16.770832, 7.135269000000108], [16.771106, 7.128884], [16.76971900000018, 7.123609000000101], [16.76777, 7.118055], [16.764993000000118, 7.113888], [16.763325000000123, 7.108605000000182], [16.76221500000014, 7.102216000000169], [16.762218, 7.095832], [16.760278, 7.090269], [16.757222000000183, 7.086384000000123], [16.753886, 7.08277], [16.749714, 7.080553000000123], [16.745549, 7.077774], [16.740824, 7.075269], [16.738049000000103, 7.071382], [16.734993, 7.067216], [16.73360600000018, 7.061940000000163], [16.731939000000125, 7.056666], [16.730552000000102, 7.051110000000108], [16.728055, 7.04638100000011], [16.72444000000013, 7.043048], [16.718884000000116, 7.043331], [16.71332800000016, 7.043605000000127], [16.707217, 7.043048], [16.701665, 7.041938], [16.697221, 7.039440000000127], [16.696383, 7.03305], [16.696106, 7.02638700000017], [16.697771000000103, 7.021380000000136], [16.699718, 7.016662], [16.701384, 7.011936000000105], [16.702221, 7.005829], [16.698885, 7.001663000000121], [16.693605, 7.000552], [16.687214, 6.999996], [16.681662, 6.998886], [16.678329000000133, 6.995552], [16.676384000000155, 6.990549000000158], [16.677494000000138, 6.984722000000147], [16.680275, 6.980552000000102], [16.683602000000178, 6.976941], [16.686102, 6.972492], [16.688883000000146, 6.968332], [16.68916000000013, 6.962218000000121], [16.687221, 6.95666400000016], [16.685269, 6.952221], [16.686108, 6.946386], [16.689716000000146, 6.943054], [16.69388600000019, 6.940272000000107], [16.697495000000174, 6.937221], [16.7025, 6.934997000000124], [16.707215, 6.932774], [16.71083300000015, 6.929993000000138], [16.713603, 6.92527200000012], [16.714715000000183, 6.919996], [16.715272, 6.913882], [16.713605000000143, 6.908326000000102], [16.712220000000116, 6.903051000000119], [16.71305, 6.897215], [16.71555000000012, 6.893047000000138], [16.71888600000011, 6.889716], [16.72249100000016, 6.885824], [16.724719000000107, 6.881665], [16.725548000000117, 6.875549], [16.724999, 6.868887], [16.725275000000124, 6.862493], [16.726658000000157, 6.857216], [16.727769, 6.85166], [16.72860800000018, 6.846105000000136], [16.729437, 6.839998], [16.728887, 6.833046], [16.727212000000122, 6.827771], [16.724996, 6.822770000000105], [16.723396, 6.817835000000173], [16.72339372400006, 6.817787075000012], [16.723123018000024, 6.812086081000132], [16.722918000000107, 6.806982000000176], [16.72547900000012, 6.802379000000144], [16.72672341200007, 6.799656373], [16.728582000000188, 6.795590000000118], [16.728582000000188, 6.795461000000103], [16.728648187000033, 6.793328197000108], [16.728881, 6.7858260000001], [16.726118, 6.777202000000102], [16.72596949500013, 6.775526390000039], [16.725553, 6.770827], [16.740830000000187, 6.740272], [16.748605, 6.721662000000151], [16.754997000000117, 6.705824000000121], [16.756940000000156, 6.693049], [16.756659000000127, 6.679993], [16.75443500000017, 6.667495], [16.753654672000096, 6.655574062000028], [16.753326, 6.650553], [16.756383, 6.63555], [16.756433320000156, 6.635412233000068], [16.756707730000073, 6.6346609470001], [16.761658, 6.621108], [16.767216, 6.609993], [16.767249495000044, 6.609993181000107], [16.768128434, 6.609997923000151], [16.768328, 6.60999900000013], [16.773603, 6.61111], [16.77848462800017, 6.610256536000122], [16.779408, 6.61], [16.7828857130001, 6.60776829800011], [16.78348019300006, 6.607311259000085], [16.783608, 6.607213], [16.78722000000016, 6.60333], [16.78919900000011, 6.600348], [16.78999, 6.599161], [16.79083, 6.593886000000111], [16.79055200000016, 6.586942], [16.78999400000015, 6.579991], [16.789438000000132, 6.57388], [16.788880000000177, 6.566938000000107], [16.791105, 6.562219], [16.792770000000132, 6.557493], [16.796102000000133, 6.553882], [16.799163000000135, 6.55027200000012], [16.804719, 6.548887], [16.81082600000019, 6.547771000000125], [16.81777700000015, 6.547221], [16.823886, 6.546665000000132], [16.828886, 6.544161], [16.83193800000015, 6.540831], [16.834716000000128, 6.536381], [16.836388000000113, 6.531384000000173], [16.839166, 6.527214000000129], [16.84083, 6.522497000000101], [16.84222, 6.51694], [16.843884, 6.511943], [16.845547000000124, 6.506937000000164], [16.846667, 6.501661], [16.84861, 6.496663], [16.851109, 6.492774000000168], [16.85527300000018, 6.489441], [16.858325, 6.486102], [16.862499000000128, 6.483049], [16.869441, 6.483050000000105], [16.874995, 6.48388], [16.879715000000147, 6.481936000000132], [16.88221900000019, 6.477216], [16.88499700000017, 6.473047], [16.887215, 6.469159], [16.890826, 6.465276000000131], [16.894720000000177, 6.462495], [16.898604, 6.459442], [16.903332, 6.457218], [16.90888500000011, 6.455552], [16.913604000000134, 6.453328], [16.918885000000103, 6.451663000000167], [16.923325000000148, 6.45444], [16.927491, 6.456657000000178], [16.931659, 6.459435], [16.937213, 6.460553000000118], [16.942775, 6.459158000000173], [16.948327, 6.45722], [16.951667, 6.460824000000173], [16.95361, 6.467769000000146], [16.953889000000174, 6.474721], [16.95388400000013, 6.480273000000182], [16.957774, 6.483603], [16.961943, 6.486381], [16.96804900000012, 6.485272000000123], [16.972775000000127, 6.482776000000172], [16.976107000000127, 6.479436], [16.982218, 6.4797200000001], [16.986667000000125, 6.482496], [16.99166300000013, 6.484158], [16.998324, 6.484159], [17.003885, 6.48222], [17.00776900000011, 6.479438], [17.012496, 6.476942000000122], [17.018882000000133, 6.476103000000137], [17.024165, 6.4772210000001], [17.028333, 6.479718000000105], [17.032215, 6.48304800000011], [17.035826, 6.486388], [17.039993, 6.488884], [17.046108, 6.487775], [17.050272000000177, 6.484991], [17.052497, 6.480833000000189], [17.058049, 6.479165], [17.062213000000156, 6.476381], [17.064717, 6.471941], [17.067222000000186, 6.467772], [17.072221, 6.465826000000163], [17.078326, 6.464716000000124], [17.08416000000011, 6.463607], [17.089437, 6.461108], [17.09305300000011, 6.459159], [17.096938, 6.456657000000178], [17.09916100000015, 6.454441000000145], [17.10111000000012, 6.451387], [17.101483893000022, 6.450349252000024], [17.103471, 6.4475920000001], [17.105596, 6.448177], [17.1072, 6.448442000000114], [17.108136920000106, 6.44809142400004], [17.108799587000135, 6.447843468000144], [17.109942000000103, 6.447416000000146], [17.112965, 6.446139000000187], [17.113519291000046, 6.446021851000125], [17.115397, 6.445625], [17.11760500000014, 6.445931], [17.120540000000176, 6.445637], [17.12187, 6.445124], [17.12419800000015, 6.443941], [17.125206, 6.443019000000106], [17.126283968000052, 6.441810322000094], [17.12730900000014, 6.440661], [17.12816, 6.437878000000183], [17.128055, 6.43618], [17.131589, 6.421088000000111], [17.13002900000015, 6.411847], [17.127624353000044, 6.402304497000159], [17.12711574700006, 6.400286168000036], [17.126995, 6.39980700000018], [17.104992000000152, 6.386262], [17.099415557000157, 6.390599842000086], [17.0918, 6.395864], [17.09069136900007, 6.395707006000066], [17.087789000000157, 6.395296], [17.08359001700012, 6.394879033000052], [17.082059000000186, 6.394727000000159], [17.07294426800007, 6.383275919000084], [17.066299000000186, 6.374222], [17.06487, 6.370914456000037], [17.064363278000087, 6.369741604000183], [17.06402300000019, 6.368954], [17.051884000000143, 6.369707000000176], [17.047151729000177, 6.368365997000126], [17.047387915, 6.366585062000127], [17.048090000000116, 6.361291081000047], [17.048090000000116, 6.359924], [17.047847568000122, 6.359683538000183], [17.038512, 6.350969], [17.044815, 6.341308], [17.039658, 6.329374], [17.033159000000182, 6.327086000000122], [17.027052, 6.318576000000121], [17.027052, 6.305722183], [17.027052, 6.301528000000189], [17.026862451000113, 6.301587815000062], [17.014446000000135, 6.30550600000015], [17.014237410000078, 6.304540589000112], [17.013383757000042, 6.300589650000177], [17.012727, 6.29755], [17.002414, 6.294140000000141], [16.989351601000067, 6.296014174000106], [16.985118, 6.296714000000122], [16.984063975000083, 6.295799088000081], [16.979362589000118, 6.291718201000037], [16.978855473000124, 6.288952073000132], [16.977202000000148, 6.279933], [16.975524559000178, 6.275149878000093], [16.97222100000016, 6.267367], [16.973244184000066, 6.265168233000111], [16.978921000000128, 6.249813000000131], [16.976629000000173, 6.247540000000186], [16.976629000000173, 6.247415855000156], [16.976629000000173, 6.241561996000087], [16.976773, 6.240277], [16.968427000000133, 6.216950000000111], [16.966151, 6.212435000000141], [16.963622577000024, 6.21042852700009], [16.96235800000011, 6.209425000000124], [16.959408109000037, 6.202110344000118], [16.954282, 6.191279], [16.958676824, 6.173298953000028], [16.960082000000114, 6.154492000000118], [16.96994500000011, 6.140947], [16.970410040000047, 6.138025582000125], [16.970647, 6.130482], [16.970899, 6.122516]]]}}]}