{"type": "FeatureCollection", "features": [{"type": "Feature", "properties": {"entity_id": "cf-p-bamingui-bangoran-v1", "name_fr": "Bamingui-Bangoran"}, "geometry": {"type": "Polygon", "coordinates": [[[20.888886000000184, 7.283880000000124], [20.923123, 7.339715000000183], [20.923415, 7.339425000000119], [20.92356089100008, 7.339410992000069], [20.932476000000122, 7.338555], [20.935828000000186, 7.340832], [20.954436, 7.362776], [20.97472100000016, 7.391939], [20.991103, 7.41694], [21.006383, 7.442216], [21.019438, 7.460825], [21.03027200000014, 7.470548], [21.046664000000135, 7.481938], [21.056942, 7.488608], [21.066383000000144, 7.496664000000123], [21.0752710000001, 7.504441], [21.080272, 7.513332], [21.078333000000157, 7.52555], [21.074997, 7.531939], [21.068605000000105, 7.542213000000118], [21.064158, 7.549166], [21.057220000000143, 7.559718], [21.054994, 7.563051000000144], [21.053052, 7.583331], [21.055271000000175, 7.594996], [21.06083, 7.601108], [21.069442, 7.606944000000112], [21.076106, 7.610827], [21.08499400000011, 7.616387], [21.090554, 7.61999800000018], [21.094162000000154, 7.623887], [21.09666300000015, 7.628602000000114], [21.098054000000104, 7.633881], [21.09832900000015, 7.641102], [21.098884, 7.652213], [21.10082800000015, 7.663333], [21.105272000000127, 7.677772], [21.109159, 7.687216], [21.114719, 7.694442], [21.123888000000136, 7.699996], [21.130826, 7.703324], [21.12999400000018, 7.740553], [21.129918, 7.741543], [21.127499000000114, 7.77305500000017], [21.125548, 7.798885], [21.117213000000106, 7.813049], [21.10832500000015, 7.826384000000189], [21.102499, 7.839442], [21.10166, 7.847497], [21.10416700000019, 7.862215000000106], [21.111659000000145, 7.874161000000129], [21.117219, 7.881663], [21.125274, 7.891935000000103], [21.12943600000017, 7.902499], [21.131107, 7.916661000000147], [21.129166, 7.930552], [21.12415900000019, 7.953054], [21.121941000000163, 7.999714000000154], [21.199716, 7.999718], [21.299718, 7.999719], [21.39999900000015, 7.999717], [21.452774, 8.000547000000154], [21.40082400000017, 8.093882000000178], [21.381943, 8.133329000000174], [21.378608, 8.149999], [21.384438000000102, 8.162495], [21.393879, 8.169998000000135], [21.40610900000013, 8.174722], [21.426103000000126, 8.184159000000136], [21.445268, 8.1936070000001], [21.46527600000013, 8.208327000000168], [21.47444, 8.217493], [21.479715, 8.22833], [21.479715, 8.233329], [21.479992, 8.252492], [21.49527000000012, 8.256388], [21.512772000000155, 8.256659], [21.529998, 8.257214000000147], [21.541109000000176, 8.255827000000124], [21.55027600000011, 8.252494], [21.564439000000107, 8.245826], [21.578607, 8.239993], [21.59055400000011, 8.234717], [21.597771, 8.2330520000001], [21.60166000000015, 8.235828], [21.605274, 8.246941000000163], [21.609715000000108, 8.262776], [21.614999000000182, 8.275550000000123], [21.618886, 8.281381000000124], [21.62194200000016, 8.283326000000102], [21.627216, 8.284721], [21.64194, 8.28416], [21.65582400000011, 8.284162000000151], [21.668602, 8.288054000000159], [21.682775, 8.295554], [21.701112, 8.30805], [21.720276, 8.321384], [21.72515200000015, 8.329879], [21.754441, 8.337219], [21.767217000000187, 8.335275000000138], [21.770832000000155, 8.333047], [21.774163, 8.326386], [21.774712, 8.321103000000107], [21.777217000000178, 8.314159000000188], [21.779996, 8.305828000000133], [21.788049, 8.294719], [21.801383, 8.284437], [21.811384, 8.279163], [21.827775, 8.270553000000177], [21.835829000000103, 8.263327], [21.842492, 8.249162], [21.847498000000144, 8.22888], [21.852775000000122, 8.213329000000158], [21.860554, 8.202218], [21.87666300000012, 8.195277], [21.899157000000173, 8.195825000000127], [21.928329000000133, 8.203047], [21.966382, 8.211387], [21.989715000000103, 8.218328], [21.994439, 8.22554700000012], [21.994994, 8.234994], [21.990828000000192, 8.244165000000123], [21.98527, 8.24999200000019], [21.980276, 8.253609000000154], [21.971107, 8.259715000000142], [21.9625, 8.268048], [21.958054, 8.280269], [21.958329000000106, 8.289713], [21.96165900000011, 8.304160000000138], [21.96916300000015, 8.319997], [21.977215, 8.337216000000126], [21.984995, 8.353326], [21.992771, 8.368051], [22.00027400000016, 8.386661000000117], [22.001665000000173, 8.405828], [21.998602, 8.42249800000019], [21.992216, 8.436937000000114], [21.980552000000102, 8.45333], [21.970276, 8.469160000000102], [21.963326, 8.481383000000164], [21.9591640000001, 8.496664000000123], [21.956108, 8.52415800000017], [21.95916300000016, 8.54527300000018], [21.965552000000173, 8.561657], [21.9722220000001, 8.575547], [21.991942000000165, 8.596941], [22.002218, 8.604719], [22.010272000000157, 8.606943], [22.029441, 8.613048000000106], [22.051665, 8.617497000000185], [22.075277, 8.623329], [22.093333, 8.620551], [22.103603, 8.613052], [22.114442000000167, 8.602219000000105], [22.133326000000125, 8.591381], [22.149439, 8.585828000000163], [22.168605, 8.581942], [22.218051000000116, 8.578331000000162], [22.27610600000014, 8.576382], [22.310551000000146, 8.57361], [22.329443, 8.56861], [22.353604, 8.565276], [22.366110000000106, 8.565826], [22.372215, 8.567773], [22.37749200000019, 8.573047000000145], [22.379442, 8.57971300000014], [22.391106, 8.591657], [22.39499300000017, 8.627772000000164], [22.394166, 8.644443], [22.393326, 8.65083], [22.387776, 8.658880000000124], [22.379720000000134, 8.66694200000012], [22.368328000000133, 8.674163], [22.35055000000017, 8.677218], [22.325827, 8.681663000000128], [22.306384, 8.679435000000183], [22.281943000000126, 8.681386], [22.263606, 8.687491], [22.249718000000144, 8.692775], [22.224715000000117, 8.698046], [22.210833, 8.701937], [22.201660000000174, 8.709994000000165], [22.195270000000107, 8.71833], [22.188052, 8.725829], [22.178331, 8.732217], [22.164991000000157, 8.738603000000126], [22.152769, 8.743046], [22.138327, 8.748051], [22.129441, 8.755277], [22.122498, 8.763606], [22.118604, 8.774714000000131], [22.115276, 8.796937000000128], [22.10694300000017, 8.835831], [22.101935, 8.857495], [22.097218, 8.883885], [22.086937, 8.911109000000124], [22.081941, 8.936105], [22.086665000000153, 8.949161000000117], [22.089444, 8.959721], [22.089436, 8.969994], [22.083884, 8.976108], [22.073603000000105, 8.983328], [22.062773, 8.986940000000118], [22.05249300000014, 8.991942000000108], [22.038326, 8.997773000000109], [22.02971600000012, 9.001387], [22.019437000000153, 9.00693600000011], [22.014721, 9.012496], [22.012494000000174, 9.025274], [22.010270000000162, 9.040548000000115], [22.006659000000184, 9.058328], [21.998883, 9.070548], [21.988051, 9.08082400000012], [21.975826, 9.087768], [21.962219, 9.093886000000111], [21.95166300000011, 9.097492], [21.941935, 9.103328000000147], [21.931664, 9.110549], [21.919999000000132, 9.134441000000152], [21.912498, 9.143325000000118], [21.901107, 9.157215000000122], [21.89027700000014, 9.164159], [21.881945000000144, 9.167499000000134], [21.867214, 9.174715000000162], [21.858325, 9.176942], [21.849996, 9.181943000000103], [21.8474930000001, 9.186662000000126], [21.839994000000104, 9.22110600000019], [21.83924100000013, 9.22331300000019], [21.832771, 9.24222200000014], [21.825554000000125, 9.262216000000137], [21.818885, 9.27555], [21.809164, 9.285826000000156], [21.800273, 9.29277100000013], [21.79249900000019, 9.301383], [21.791662, 9.307221], [21.78999, 9.339437], [21.78666, 9.357498000000135], [21.78221900000011, 9.383048], [21.77722, 9.404996], [21.771382000000187, 9.41138], [21.75861, 9.419444], [21.746381000000156, 9.428054000000145], [21.730272, 9.44], [21.720548, 9.449991000000125], [21.712771000000146, 9.461939], [21.709998, 9.473325000000102], [21.70777800000019, 9.489444000000105], [21.706388000000118, 9.496103], [21.682769, 9.520552], [21.668608, 9.531105], [21.641383, 9.55194], [21.630830000000117, 9.567493000000127], [21.625825, 9.579714], [21.619717, 9.592495], [21.615555000000143, 9.596386000000109], [21.607773, 9.596661000000154], [21.599438000000134, 9.595553000000109], [21.588330000000155, 9.595271], [21.576665, 9.595269], [21.55888, 9.589720000000113], [21.548329, 9.58833], [21.541939, 9.588055], [21.535831, 9.589717], [21.52694200000019, 9.596106], [21.521935000000155, 9.6013880000001], [21.519162, 9.608884], [21.518888000000118, 9.618607000000168], [21.518885, 9.626941000000159], [21.518881, 9.639437], [21.5186020000001, 9.6474970000001], [21.517770000000155, 9.654165], [21.504717, 9.692216], [21.503883, 9.701105], [21.504435000000115, 9.706659], [21.506665, 9.721657], [21.510277000000144, 9.730829], [21.509164, 9.735553000000152], [21.506661, 9.740554], [21.497217, 9.768883], [21.490831000000185, 9.76860900000014], [21.4847180000001, 9.768331], [21.47832700000015, 9.769163000000162], [21.472222, 9.770269], [21.466662, 9.77194], [21.461108, 9.77388000000019], [21.456384000000185, 9.774716], [21.45138500000013, 9.773049000000185], [21.447768000000167, 9.76971900000018], [21.44527100000016, 9.765271], [21.44332400000019, 9.759716], [21.441384, 9.754996], [21.439443, 9.749719], [21.437496, 9.744164000000126], [21.434715, 9.74], [21.432219, 9.735551000000157], [21.428330000000187, 9.732217000000162], [21.423328, 9.730828], [21.419161, 9.728047000000117], [21.416104, 9.724158], [21.412497, 9.720827], [21.408609, 9.717492], [21.403047, 9.716662], [21.397494000000165, 9.715831], [21.391108, 9.715546000000131], [21.385833, 9.713604], [21.382494, 9.710546], [21.379161000000124, 9.706382], [21.375546000000156, 9.70305100000013], [21.371108000000106, 9.700832], [21.366110000000106, 9.699162], [21.36054600000017, 9.697773], [21.355277000000115, 9.696109], [21.351942, 9.692772000000161], [21.348611000000176, 9.689165000000173], [21.345832, 9.684999], [21.343332, 9.680270000000121], [21.34110500000014, 9.675554], [21.33861, 9.671104], [21.334714000000133, 9.667777000000115], [21.330549000000133, 9.665552], [21.325546, 9.663603], [21.319717, 9.662496000000147], [21.31555500000013, 9.659992000000102], [21.311937000000114, 9.656938], [21.308605000000114, 9.652773], [21.306107, 9.648052000000177], [21.304717, 9.643050000000187], [21.302774000000113, 9.637492], [21.301664, 9.631388000000186], [21.299165, 9.626658000000191], [21.297775, 9.621108000000163], [21.295268, 9.616387000000145], [21.291659, 9.613333], [21.286937, 9.610829], [21.282777, 9.608332000000189], [21.279714, 9.604440000000181], [21.276937, 9.600273], [21.27221500000013, 9.597768], [21.26804600000014, 9.595272000000136], [21.264157, 9.592222], [21.26194, 9.587495], [21.258882, 9.583332], [21.254438, 9.58111], [21.249717, 9.579163], [21.24444, 9.577495], [21.23804700000011, 9.577215], [21.23333100000019, 9.575555000000122], [21.228049000000112, 9.573609], [21.223053000000107, 9.571936], [21.218884000000116, 9.569438000000105], [21.213607000000138, 9.56777000000011], [21.209442000000138, 9.564994000000127], [21.203881, 9.564158], [21.19833000000017, 9.563331000000176], [21.191664000000173, 9.563054], [21.185825, 9.563888], [21.180273, 9.565552], [21.174717, 9.567495000000122], [21.169158, 9.567774], [21.163885000000164, 9.565826], [21.159712, 9.563607000000104], [21.155548000000124, 9.560829000000126], [21.151659, 9.557777], [21.146658000000116, 9.555832], [21.141942, 9.554162], [21.135828, 9.55332600000014], [21.129719000000136, 9.552777], [21.123325, 9.552494], [21.117219, 9.55361], [21.111662, 9.555552000000148], [21.104715, 9.555828], [21.100547000000176, 9.553328000000135], [21.09666300000015, 9.549996000000135], [21.093046000000186, 9.546937000000185], [21.08805400000017, 9.544992], [21.082216, 9.543880000000172], [21.078053, 9.541658], [21.07388900000018, 9.538888000000156], [21.07000100000016, 9.535825], [21.06638, 9.532497], [21.061936, 9.530271], [21.05554500000011, 9.529717], [21.049997, 9.528608], [21.045272, 9.52638700000017], [21.041942, 9.523053], [21.03860500000019, 9.518882], [21.036384000000112, 9.51471800000013], [21.03471800000011, 9.509160000000179], [21.03138200000012, 9.504998], [21.028052000000116, 9.501663000000178], [21.024717, 9.49805], [21.021943, 9.493887], [21.019441000000143, 9.489161000000138], [21.017776, 9.483602], [21.016663000000165, 9.477494], [21.014990000000125, 9.472493000000156], [21.012497, 9.467775], [21.009443000000147, 9.463608], [21.006389, 9.45944], [21.002218, 9.457217], [20.998326000000134, 9.453883000000133], [20.994721, 9.450831], [20.99083, 9.447496000000115], [20.986659, 9.445273], [20.981664000000137, 9.443046000000152], [20.975553, 9.444437000000164], [20.969165000000146, 9.445554000000186], [20.963883000000124, 9.447218], [20.958050000000128, 9.44582400000013], [20.953051, 9.444442], [20.94860800000015, 9.441665000000114], [20.944437000000164, 9.439441000000102], [20.94055, 9.435826000000134], [20.93583200000012, 9.434439000000168], [20.931942000000163, 9.431103000000178], [20.928328, 9.428050000000155], [20.925275000000113, 9.423881], [20.923055, 9.419158], [20.920551, 9.414719000000105], [20.917498, 9.410549], [20.913608, 9.407213], [20.909438000000137, 9.404997], [20.906938, 9.40026900000015], [20.904714, 9.395276], [20.902215, 9.39110600000015], [20.899715000000185, 9.386387000000127], [20.896935, 9.382221], [20.89305, 9.379163000000176], [20.88888, 9.376380000000154], [20.887389438000184, 9.376915220000171], [20.880568211000025, 9.379364535000093], [20.87643037900017, 9.380850317000068], [20.874577015000114, 9.381515809000064], [20.870594000000153, 9.382946], [20.865292813, 9.38485061800003], [20.863079, 9.385646000000122], [20.856586, 9.383714000000168], [20.84489800000017, 9.383714000000168], [20.8378790000001, 9.39269000000013], [20.832455432000074, 9.399625500000013], [20.828016000000105, 9.40432200000015], [20.826328778000118, 9.40745996000004], [20.82351032300005, 9.412701831000106], [20.822822, 9.413982], [20.82241115400018, 9.418874174000166], [20.821318593000058, 9.425009403000047], [20.820659751000107, 9.427553611000064], [20.820359000000167, 9.428715000000125], [20.820358043, 9.428719180000087], [20.820357925000167, 9.428719151], [20.81741, 9.428000000000111], [20.812950129000114, 9.433003391000113], [20.808490129, 9.438006725000037], [20.80403, 9.443010000000186], [20.79824, 9.44340000000011], [20.793170000000146, 9.441730000000177], [20.78676488600007, 9.435560059000068], [20.78036, 9.429390000000183], [20.774234989000092, 9.428740053000126], [20.76811, 9.428090000000111], [20.767, 9.42463], [20.76845002099998, 9.419595004000143], [20.769900000000177, 9.414560000000108], [20.768140000000187, 9.40788], [20.760810000000163, 9.40113], [20.75367, 9.399200000000178], [20.74811, 9.399360000000115], [20.74507, 9.40185], [20.74044000000015, 9.40225], [20.73356, 9.39734], [20.72894, 9.3966], [20.724045038000042, 9.399295034000033], [20.71915, 9.40199], [20.71289, 9.40237], [20.709119962000045, 9.398875020000105], [20.70535, 9.395380000000102], [20.70118, 9.395560000000103], [20.696530024000026, 9.397340031], [20.69188, 9.399120000000153], [20.68354998800004, 9.398863530000028], [20.675219988000038, 9.398606863000055], [20.66689, 9.39835], [20.66277, 9.3953], [20.660082339000155, 9.388317535000112], [20.65739478500018, 9.381335046000117], [20.654707339000026, 9.374352535000128], [20.652020000000164, 9.367370000000165], [20.65141664300006, 9.36055000400006], [20.65081331000016, 9.353730004000113], [20.65021000000013, 9.34691], [20.64772, 9.34228], [20.64128, 9.33990000000017], [20.635835008000015, 9.340405041999986], [20.63039, 9.34091], [20.62625, 9.339020000000176], [20.62353000000013, 9.33462], [20.6252, 9.33097], [20.628470000000107, 9.32848], [20.632995014000073, 9.327390029000071], [20.637520000000166, 9.3263], [20.64057000000014, 9.323120000000188], [20.63786, 9.3178], [20.604330000000118, 9.31646000000012], [20.59966, 9.31984], [20.596940036999968, 9.324630011000124], [20.59422, 9.32942], [20.58815, 9.33279], [20.58412, 9.34032], [20.58085000000017, 9.342800000000125], [20.57807, 9.343000000000131], [20.57578, 9.34136000000018], [20.57148, 9.33349], [20.56737, 9.330220000000168], [20.56066, 9.329670000000135], [20.554595066000104, 9.333500052000147], [20.54853, 9.337330000000122], [20.54349000000019, 9.333590000000129], [20.540720000000135, 9.333320000000185], [20.534650000000113, 9.33737], [20.52864, 9.33707], [20.524770000000103, 9.33196], [20.5261300250001, 9.325545004000105], [20.52749, 9.31913], [20.526870000000145, 9.31338], [20.523940000000152, 9.30760000000015], [20.5182, 9.30454], [20.50827, 9.30326], [20.50202503400004, 9.30518005500005], [20.49578, 9.3071], [20.49622, 9.304940000000158], [20.49372497100012, 9.300885009000126], [20.49123, 9.29683], [20.491530000000125, 9.29224], [20.494630060000134, 9.285390015000075], [20.497730000000104, 9.27854], [20.49805000000015, 9.27211], [20.48275, 9.24113], [20.478599845000076, 9.234490050000034], [20.474449845000095, 9.227850050000086], [20.4703, 9.22121], [20.46805, 9.21374], [20.465625781000085, 9.205686040000103], [20.463201671000036, 9.197632060000046], [20.460777671000017, 9.189578060000144], [20.458353781000028, 9.181524040000056], [20.455930000000137, 9.17347000000018], [20.45025, 9.165580000000148], [20.443860000000143, 9.15952], [20.43423, 9.15388], [20.42629332500013, 9.153696840000123], [20.41835665900004, 9.153513507000184], [20.41042000000016, 9.15333], [20.401654966000024, 9.151945105999971], [20.39289, 9.150560000000155], [20.387830000000122, 9.148430000000133], [20.38176, 9.14324], [20.37801000000013, 9.14002], [20.3532, 9.128200000000106], [20.346270000000118, 9.127640000000156], [20.341495037000186, 9.130445032000068], [20.33672, 9.13325], [20.33187, 9.132500000000107], [20.328219964000027, 9.12900001900016], [20.324570000000165, 9.1255], [20.31813, 9.123580000000118], [20.30336000000011, 9.12154], [20.296043342000132, 9.121763481000016], [20.288726676000124, 9.121986814000138], [20.281410000000108, 9.12221000000011], [20.27364, 9.122100000000103], [20.262410000000102, 9.124480000000176], [20.24771, 9.13227], [20.243200086000172, 9.139085029000057], [20.23869, 9.1459], [20.23405500800004, 9.146510030000059], [20.22942, 9.14712], [20.22533502700003, 9.149460023000131], [20.22125000000017, 9.1518], [20.214324989000147, 9.151220066], [20.20740000000012, 9.15064000000018], [20.201996551000093, 9.146796748000156], [20.1965932170001, 9.142953415000022], [20.19119, 9.13911], [20.17989000000017, 9.13753], [20.15276, 9.13897], [20.147480000000144, 9.140680000000145], [20.13919, 9.13803], [20.13064, 9.138140000000135], [20.11739, 9.14254], [20.11318, 9.14569], [20.10891, 9.15321], [20.10493, 9.15637], [20.10146, 9.156550000000152], [20.09746496200006, 9.153160022000122], [20.09347000000014, 9.14977000000016], [20.090774959000157, 9.14433001100008], [20.08808, 9.138890000000174], [20.081460000000106, 9.133280000000184], [20.0713, 9.132440000000145], [20.064525087000163, 9.137050064000164], [20.057750000000112, 9.14166], [20.05265, 9.1425], [20.04832, 9.140880000000152], [20.04691, 9.140350000000183], [20.041334906000145, 9.134295044000112], [20.03576, 9.12824], [20.02977, 9.127000000000123], [20.02398500600009, 9.127375046000111], [20.01820000000015, 9.12775], [20.01244, 9.126060000000166], [20.010630000000162, 9.123730000000137], [20.01024, 9.11913], [20.011280000000113, 9.111570000000142], [20.00907, 9.104870000000176], [20.007090000000176, 9.1029], [20.000000000000114, 9.1133], [19.997890000000154, 9.1164], [19.99431320100001, 9.109750038000186], [19.99073653400012, 9.103100038000093], [19.988073562000068, 9.098148632000061], [19.98716000000013, 9.096450000000175], [19.98031, 9.09196], [19.95748, 9.088790000000188], [19.949629994000134, 9.088535084000057], [19.94178, 9.088280000000111], [19.93943000000013, 9.087080000000128], [19.93542, 9.08438000000018], [19.932710000000156, 9.07934], [19.93168498400007, 9.073635002], [19.93066000000016, 9.06793000000016], [19.92714, 9.060800000000143], [19.91949, 9.06339], [19.9122150500001, 9.065850073000092], [19.904940000000124, 9.06831000000011], [19.89968495500011, 9.065230038000038], [19.89443, 9.06215], [19.88619, 9.06103000000013], [19.882900000000177, 9.063550000000134], [19.87796, 9.06314], [19.87167, 9.065800000000138], [19.86453, 9.064540000000136], [19.86051997499999, 9.062295022], [19.856510000000128, 9.06005], [19.85297996899999, 9.056895017000045], [19.84945, 9.05374], [19.84570995000007, 9.048855020000133], [19.84197, 9.043970000000115], [19.83551, 9.043410000000108], [19.83271000000019, 9.04498000000018], [19.82871000000017, 9.049510000000168], [19.82558506400005, 9.056925015000047], [19.82246000000015, 9.06434000000013], [19.817419960000052, 9.061505035000096], [19.812380000000132, 9.05867000000012], [19.80432, 9.056710000000123], [19.798090000000116, 9.056150000000116], [19.793680015000177, 9.057345027000167], [19.78927, 9.05854], [19.78465000100016, 9.05858002900004], [19.78003, 9.05862], [19.7795, 9.05853], [19.77288, 9.05736], [19.768084953000027, 9.053835032000109], [19.76329, 9.05031], [19.7596, 9.049340000000143], [19.751629995000087, 9.049100087000113], [19.743660000000148, 9.04886], [19.739304973000117, 9.04660502600018], [19.73495000000014, 9.04435], [19.728205001000106, 9.04441006200011], [19.72146, 9.04447], [19.71991, 9.04058], [19.703710000000115, 9.02884], [19.7019, 9.027530000000183], [19.69580335300003, 9.028103435000105], [19.689706686000022, 9.028676768000025], [19.68361, 9.02925], [19.67779993199997, 9.02500504600016], [19.671990000000164, 9.02076000000011], [19.66668, 9.02042], [19.65899, 9.02395], [19.65298, 9.023950049000177], [19.646970000000124, 9.02395], [19.6391699400001, 9.021155083], [19.631370000000118, 9.018360000000143], [19.622905036000134, 9.019920098000057], [19.614440000000116, 9.021480000000167], [19.608219982000094, 9.020440053000186], [19.602, 9.01940000000019], [19.585880000000145, 9.03089000000017], [19.58183, 9.037040000000104], [19.57762, 9.03995], [19.57278, 9.03918], [19.56867000000011, 9.036360000000172], [19.563930002000177, 9.036510031000034], [19.55919000000017, 9.03666], [19.55436, 9.0352], [19.54845490100007, 9.02913004800007], [19.54255, 9.023060000000157], [19.535230000000126, 9.01858], [19.52302, 9.0163], [19.51723, 9.017130000000122], [19.51464, 9.01984], [19.513265022000155, 9.02567500300006], [19.51189, 9.03151000000014], [19.506760000000156, 9.034170000000131], [19.50099, 9.033850000000143], [19.49894, 9.03197], [19.498109988000124, 9.026560002000053], [19.49728, 9.02115], [19.494100000000174, 9.01834], [19.49086000000017, 9.018060000000162], [19.48828, 9.02054], [19.48259000000013, 9.015170000000126], [19.479140000000143, 9.01442], [19.47376000000014, 9.01823], [19.466484995000144, 9.017990072000089], [19.45921, 9.01775], [19.45815000000016, 9.02554], [19.450760000000116, 9.02496], [19.44121, 9.02893], [19.43910000000011, 9.031190000000151], [19.43532997200009, 9.028485020000119], [19.431560000000104, 9.025780000000168], [19.428110000000117, 9.025870000000111], [19.42067, 9.02776], [19.414020000000107, 9.02487], [19.407540010000105, 9.025430057000051], [19.40106, 9.02599], [19.39602, 9.01878], [19.39567000000011, 9.01829], [19.388770000000136, 9.016780000000153], [19.383905008000113, 9.017370032000088], [19.37904, 9.01796], [19.372389956000177, 9.015530060000117], [19.36574, 9.013100000000122], [19.35788, 9.0134], [19.35460000000012, 9.01563], [19.34623005399999, 9.017985095000085], [19.33786, 9.02034], [19.33245324300009, 9.017320080000047], [19.327046577000033, 9.014300080000112], [19.32164, 9.01128000000017], [19.309240000000102, 9.0078], [19.302310000000148, 9.00790000000012], [19.296030030999987, 9.00972005400007], [19.28975, 9.01154], [19.28240500300012, 9.011685073000024], [19.275060000000167, 9.01183], [19.27046, 9.013330000000167], [19.26368, 9.017810000000111], [19.26178, 9.02076000000011], [19.25722503200012, 9.023320028000171], [19.25267, 9.02588], [19.246775, 9.025890047000132], [19.24088, 9.02590000000015], [19.23551, 9.028790000000129], [19.23043998700018, 9.027895035000085], [19.22537, 9.027], [19.22236, 9.02764], [19.218360000000132, 9.03147], [19.211874868000052, 9.02900017200011], [19.20538982400012, 9.026530230000049], [19.19890486800017, 9.024060172000134], [19.19242, 9.02159], [19.1878, 9.02151], [19.180340000000115, 9.024820000000148], [19.17503, 9.024490000000185], [19.17244497400003, 9.02077000900016], [19.16986, 9.01705], [19.161810000000116, 9.01504], [19.15697, 9.01383], [19.150820000000124, 9.0089], [19.145984988000123, 9.008005032000085], [19.14115, 9.007110000000125], [19.13519, 9.004480000000115], [19.12729000000013, 9.00686], [19.12105, 9.00698], [19.10461, 9.00852], [19.10112, 9.00983], [19.09837003700011, 9.014715011000078], [19.09562, 9.0196], [19.09167, 9.02045], [19.08467494700011, 9.017680067000072], [19.07768, 9.014910000000157], [19.076859988000024, 9.009385002000045], [19.07604, 9.003860000000145], [19.06977000000012, 9.005350000000135], [19.06655000000012, 9.0046], [19.06288495900003, 9.00049501899997], [19.05922, 8.99639], [19.058630000000107, 8.99573], [19.05073, 8.99765], [19.043170000000146, 8.99430000000018], [19.035745030000044, 8.995770075], [19.02832000000012, 8.99724], [19.02328, 8.995070000000112], [19.02248171000008, 8.994327977000069], [19.01874, 8.99085], [19.0161699680001, 8.98632501000003], [19.0136, 8.9818], [19.00974, 8.97806], [19.004210000000114, 8.977030000000127], [19.000000000000114, 8.97898], [18.99875, 8.979830000000163], [18.99273, 8.97924], [18.98758, 8.97518], [18.983770000000163, 8.9683500000001], [18.982604977000165, 8.961000003000095], [18.981440000000134, 8.95365], [18.97748, 8.94837], [18.97594000000015, 8.941510000000164], [18.96851, 8.9403], [18.9661, 8.935990000000174], [18.96235000000013, 8.93378], [18.96035, 8.92762], [18.9571, 8.927], [18.95274000000012, 8.928250000000105], [18.948170000000175, 8.93066], [18.943090000000154, 8.93101], [18.938064969000095, 8.928710034000176], [18.93304000000012, 8.92641], [18.927834997000105, 8.926180036000062], [18.92263000000014, 8.92595], [18.91863000000012, 8.92306], [18.915159951000135, 8.917850016999978], [18.911690000000192, 8.912640000000124], [18.908509936000144, 8.90524001500006], [18.905330000000106, 8.89784], [18.90051502200015, 8.899560031000135], [18.8957, 8.90128], [18.88899, 8.90097], [18.88661000000019, 8.89804], [18.888640000000123, 8.8957], [18.892290000000116, 8.89354], [18.892730000000142, 8.892380000000173], [18.89266, 8.889630000000182], [18.8823000000001, 8.881130000000155], [18.879750000000115, 8.88096000000013], [18.87402495900011, 8.878330044000109], [18.8683, 8.875700000000109], [18.86566000000016, 8.87139000000019], [18.86553, 8.865880000000118], [18.86729, 8.8617], [18.864874970000017, 8.857160008000164], [18.86246, 8.85262], [18.86357, 8.850520000000188], [18.865870000000143, 8.850010000000111], [18.86862, 8.84926], [18.871480000000133, 8.84275], [18.87445, 8.84108], [18.879070000000183, 8.841200000000185], [18.88075, 8.843690000000151], [18.88386, 8.84822000000014], [18.888550000000123, 8.85133], [18.89411, 8.85189], [18.90078, 8.850590000000125], [18.90625, 8.846790000000112], [18.90682, 8.84172], [18.906743331000087, 8.834976669000127], [18.906666664000056, 8.82823333600004], [18.906590000000108, 8.82149], [18.90712, 8.81459], [18.90972, 8.80694], [18.916790000000105, 8.80264], [18.92298000000011, 8.80043000000012], [18.92944491700007, 8.80522505600004], [18.93591, 8.810020000000122], [18.94267000000019, 8.812620000000152], [18.946600000000103, 8.81276], [18.9523, 8.80918], [18.954430045000038, 8.801315008000188], [18.95656, 8.79345000000012], [18.96036000000015, 8.788070000000118], [18.97037, 8.781410000000108], [18.985230000000172, 8.7744], [18.99713000000014, 8.76929], [19.000000000000114, 8.77038000000016], [19.007235045000016, 8.768045069000152], [19.01447000000013, 8.765710000000126], [19.019630000000177, 8.761440000000107], [19.02304517700003, 8.754957550000029], [19.026460236000105, 8.74847506600014], [19.02987517700012, 8.741992550000077], [19.033290000000136, 8.735510000000147], [19.04175, 8.7274], [19.05952, 8.71579], [19.071280000000172, 8.712620000000186], [19.0812600000001, 8.710660000000189], [19.082240000000183, 8.7104700000001], [19.088080113000103, 8.706826757000044], [19.093920112999967, 8.703183424000088], [19.099760000000117, 8.69954], [19.10509, 8.69872], [19.105073196999967, 8.698140294000098], [19.10506910400011, 8.69799905900004], [19.10495, 8.693890000000124], [19.109020000000157, 8.6857], [19.11586000000011, 8.678250000000162], [19.12145, 8.675360000000126], [19.12222, 8.6712500000001], [19.120650000000126, 8.66869], [19.113340000000164, 8.66465], [19.10690996900007, 8.662810054000033], [19.100480000000175, 8.66097000000019], [19.09662, 8.65769], [19.09396, 8.6519], [19.091, 8.649550000000147], [19.08362000000011, 8.649180000000115], [19.08069996800009, 8.644995012000038], [19.07778, 8.640810000000158], [19.07747942000009, 8.640781431], [19.07031, 8.6401], [19.06584, 8.63738], [19.065043305000074, 8.630706671000041], [19.06424663900009, 8.624033337000185], [19.06345000000016, 8.61736], [19.0585, 8.61084], [19.05395995200007, 8.606850027000064], [19.04942000000017, 8.60286], [19.0492, 8.60249000000016], [19.046060000000125, 8.597060000000113], [19.046196672000065, 8.589870003000044], [19.04633333800001, 8.582680003], [19.046470000000113, 8.575490000000116], [19.046334941000055, 8.575067489000048], [19.074716, 8.569158], [19.077610753000044, 8.56804168300016], [19.08694, 8.564444], [19.088881, 8.559443], [19.089991, 8.553881000000104], [19.09111, 8.548329], [19.09193900000014, 8.54277100000013], [19.094716, 8.538888000000156], [19.096382, 8.53361], [19.098332, 8.528608000000133], [19.09943600000014, 8.523327000000165], [19.098328, 8.51722], [19.09693700000014, 8.51165900000018], [19.09583, 8.505552], [19.096659, 8.499994000000129], [19.099442, 8.495832000000178], [19.101108, 8.490553], [19.10305200000016, 8.485832], [19.102769, 8.47888600000016], [19.103602, 8.473608], [19.105551000000162, 8.468606], [19.108609, 8.464721000000168], [19.112776, 8.46194300000019], [19.118331000000126, 8.460269], [19.124717, 8.4591640000001], [19.126939, 8.4549990000001], [19.129722, 8.450828000000115], [19.13277, 8.446943], [19.135547000000145, 8.442221000000131], [19.135826000000122, 8.43611], [19.136664000000167, 8.430552], [19.138601, 8.425271000000123], [19.141665, 8.421936], [19.142497000000162, 8.41582700000015], [19.144162, 8.410549], [19.145825000000173, 8.405831000000148], [19.149157000000173, 8.402213], [19.15332800000016, 8.399165000000153], [19.155549, 8.394991000000118], [19.158331, 8.390829000000167], [19.16083, 8.386381], [19.164156, 8.383053000000189], [19.168885, 8.380548], [19.175273000000118, 8.379714000000149], [19.181385, 8.378611], [19.185825, 8.37611], [19.190829, 8.373882], [19.193327000000124, 8.369444], [19.19666100000012, 8.366106], [19.199999000000105, 8.362218], [19.20360200000016, 8.359437000000185], [19.207220000000177, 8.355555000000152], [19.211384000000123, 8.352777000000174], [19.214437, 8.349442], [19.21777400000019, 8.345554000000106], [19.220827, 8.342219], [19.223603, 8.337498], [19.226384, 8.333327], [19.228607000000125, 8.329442000000142], [19.22971900000016, 8.323331], [19.22888600000016, 8.317493000000184], [19.229714, 8.311936000000117], [19.233325, 8.308325000000139], [19.237773, 8.305832], [19.242495000000133, 8.303607], [19.24582500000014, 8.299999000000128], [19.245552, 8.293055], [19.243049, 8.288607], [19.239436000000126, 8.285271], [19.236385, 8.281108], [19.234163000000137, 8.276666], [19.237222, 8.273052000000177], [19.244162000000188, 8.272491000000116], [19.248884, 8.270275], [19.249721, 8.265548000000138], [19.244994000000133, 8.263054000000182], [19.242215, 8.258888000000127], [19.243882, 8.253881], [19.246666, 8.249999], [19.252217, 8.250833000000114], [19.257771, 8.249439], [19.262218, 8.246938], [19.26499, 8.242776000000163], [19.266663000000165, 8.237499000000184], [19.269437000000153, 8.233608000000117], [19.27332500000017, 8.2305530000001], [19.275831, 8.226106], [19.274712, 8.221381], [19.276110000000187, 8.215827], [19.279162, 8.212493], [19.28388, 8.209998], [19.288606, 8.207493000000113], [19.293608, 8.205275], [19.297215000000108, 8.202214], [19.300828, 8.198883], [19.30304600000011, 8.194718], [19.305823, 8.190277], [19.308323, 8.186109], [19.311658, 8.182213], [19.31499600000012, 8.178604], [19.318886, 8.175829000000135], [19.323054000000184, 8.17277200000018], [19.328332, 8.171109], [19.333332, 8.168882000000167], [19.336939, 8.16583], [19.339166000000148, 8.1608260000001], [19.339444, 8.154716000000121], [19.33972200000011, 8.148606000000143], [19.339720000000113, 8.142499], [19.341938, 8.13749600000017], [19.346105000000136, 8.134438000000102], [19.35055, 8.131937000000107], [19.355272000000127, 8.129992], [19.357218, 8.124991], [19.354714000000115, 8.120273000000111], [19.353052000000105, 8.114716], [19.356384000000105, 8.111388], [19.361938000000123, 8.109443], [19.365553, 8.106382], [19.36555600000014, 8.100825000000157], [19.364440000000172, 8.094721000000163], [19.361388, 8.091110000000128], [19.359164, 8.086388], [19.356106, 8.081379], [19.353325000000154, 8.077773], [19.350830000000144, 8.073054000000127], [19.349715, 8.066941], [19.350832, 8.061381], [19.353328, 8.056944000000158], [19.356665, 8.053327], [19.360825, 8.050549], [19.365269, 8.048048], [19.370826, 8.046383000000105], [19.375553, 8.044159], [19.37916100000018, 8.040548000000115], [19.377772000000164, 8.034159000000159], [19.37333200000012, 8.031942], [19.368605000000173, 8.029999], [19.363055, 8.028885], [19.358051, 8.027215], [19.354166, 8.025272], [19.349442, 8.023608], [19.345832000000144, 8.020272], [19.344162000000154, 8.014715], [19.345829, 7.996944], [19.347498000000144, 7.992217000000153], [19.349442, 7.98693800000018], [19.352772, 7.983610000000112], [19.356109000000117, 7.979994], [19.3588850000001, 7.975553000000161], [19.35833200000019, 7.968604], [19.35583, 7.963885], [19.353602000000137, 7.959443], [19.350554, 7.955272], [19.346936, 7.951936], [19.342497, 7.949718], [19.338324000000114, 7.946938], [19.33471800000018, 7.943882], [19.333610000000135, 7.939166], [19.334719, 7.933607000000165], [19.33666000000011, 7.928886], [19.33972200000011, 7.924993000000143], [19.34472000000011, 7.922776], [19.348605, 7.91971400000017], [19.351104, 7.915547000000174], [19.353051, 7.910547000000179], [19.351940000000127, 7.904713], [19.34943900000013, 7.899994000000106], [19.346108, 7.896384000000182], [19.342777000000126, 7.892775], [19.338605, 7.889994000000115], [19.334438, 7.887773], [19.329162000000167, 7.885825000000125], [19.325828, 7.882775], [19.322217, 7.879158], [19.321109, 7.874443], [19.321381000000144, 7.868332000000123], [19.323331000000167, 7.863603000000182], [19.325833, 7.858886000000155], [19.327774, 7.854166], [19.330824, 7.850824000000159], [19.33554700000019, 7.848331], [19.341940000000136, 7.847218], [19.346666, 7.844995], [19.349719, 7.841103000000146], [19.34999, 7.834993000000168], [19.34777300000013, 7.83055], [19.344721, 7.826658000000123], [19.34054900000018, 7.823886], [19.33638400000018, 7.821665000000166], [19.331105, 7.819437], [19.32638400000019, 7.817771], [19.321938, 7.815552], [19.319719, 7.81083000000018], [19.31943600000011, 7.805276], [19.321941, 7.80083], [19.324720000000184, 7.796661], [19.326939, 7.791658], [19.329715, 7.787218000000166], [19.332774, 7.783885], [19.33611, 7.78027], [19.339166000000148, 7.776666], [19.34249400000016, 7.773051], [19.34554700000018, 7.769158000000118], [19.34832500000016, 7.764998], [19.350827, 7.761103000000162], [19.353609, 7.756383], [19.356939, 7.753048], [19.359994, 7.749435], [19.36333000000019, 7.745829], [19.367775, 7.743609], [19.372491, 7.745825], [19.375274, 7.749991], [19.377771, 7.754439000000161], [19.378883, 7.760553000000129], [19.380832, 7.765277], [19.385554000000127, 7.768052000000125], [19.390547, 7.766386000000125], [19.394717000000128, 7.763050000000135], [19.398047000000133, 7.759714], [19.401111000000185, 7.75611], [19.404718000000173, 7.752492000000188], [19.40777300000019, 7.748888], [19.412494, 7.746386], [19.415272000000186, 7.742217], [19.41610300000019, 7.73694], [19.418604000000187, 7.732215], [19.422771000000125, 7.72943800000013], [19.428325000000143, 7.730553], [19.43138000000016, 7.734716], [19.431109000000106, 7.740825000000143], [19.430549000000156, 7.746938000000171], [19.431662, 7.753051], [19.436382, 7.754715], [19.441386, 7.752498000000116], [19.44416100000018, 7.748049], [19.44638700000013, 7.743886], [19.449164, 7.739717], [19.450832, 7.734991], [19.454164, 7.731105], [19.45805, 7.728331], [19.461942, 7.725269], [19.466937000000144, 7.723052], [19.473052, 7.723331], [19.478606000000184, 7.724436], [19.48416600000013, 7.72527], [19.488328, 7.72805], [19.492215000000158, 7.731382], [19.495827, 7.734437], [19.50055, 7.736381000000108], [19.506939, 7.735276000000169], [19.511659000000122, 7.732773], [19.514436, 7.728604], [19.517498000000103, 7.724991], [19.522221, 7.722776000000124], [19.525552000000175, 7.718881], [19.52305500000017, 7.714443], [19.524162000000103, 7.708884000000182], [19.528333, 7.70582800000011], [19.53388400000017, 7.704164000000105], [19.536109, 7.699992], [19.540274, 7.697215000000142], [19.544436000000132, 7.69666500000011], [19.550553, 7.695554000000186], [19.553609000000108, 7.692221], [19.556939000000114, 7.688326], [19.563331000000176, 7.687491], [19.568049, 7.689163], [19.571936000000164, 7.692495], [19.575548, 7.695549000000142], [19.580270000000155, 7.697492000000125], [19.586667, 7.696386], [19.58999100000011, 7.69277], [19.587493, 7.688333000000114], [19.584719, 7.684160000000134], [19.580275, 7.681935], [19.575825, 7.67916], [19.571661000000177, 7.676941], [19.568051, 7.673327], [19.565823, 7.668607], [19.563886, 7.663325], [19.56555, 7.658329], [19.571103000000164, 7.65694400000018], [19.576111, 7.658605000000136], [19.582495, 7.658888000000104], [19.587771000000146, 7.656938], [19.591944, 7.654161000000101], [19.59472, 7.649992000000168], [19.59554900000012, 7.644717000000128], [19.594992, 7.639159000000177], [19.59471900000017, 7.632218], [19.593885000000114, 7.626103000000114], [19.59221700000012, 7.620548], [19.588886000000173, 7.61666], [19.585555000000113, 7.613603], [19.581386000000123, 7.61082400000015], [19.578052000000127, 7.606666], [19.57777300000015, 7.599995000000149], [19.578332, 7.593884], [19.577216, 7.587493000000109], [19.577494000000115, 7.581385000000125], [19.57833, 7.57583], [19.581106, 7.571661], [19.585276, 7.568605000000161], [19.589722, 7.567773], [19.593604, 7.570826], [19.598324, 7.572769], [19.602493, 7.569713], [19.60610600000018, 7.566942], [19.613052, 7.566661], [19.61860300000012, 7.566106000000161], [19.622498000000178, 7.569437], [19.627498000000173, 7.569718], [19.629721, 7.565555], [19.633053, 7.56194], [19.638602, 7.560275000000161], [19.643607, 7.561935000000176], [19.649719, 7.562213], [19.655270000000144, 7.560828], [19.65860800000013, 7.556942], [19.661102, 7.552776000000165], [19.663885000000107, 7.548608000000115], [19.664106000000118, 7.548163], [19.66610500000013, 7.544165], [19.670828, 7.542221], [19.677216, 7.542216], [19.681941000000165, 7.543888], [19.686109, 7.546665], [19.689994000000127, 7.549996], [19.692774, 7.553888000000143], [19.696659, 7.557219], [19.701665, 7.558887], [19.706384000000185, 7.556663], [19.708046, 7.551659], [19.70850819000009, 7.544663422000042], [19.711390986000026, 7.542389792000051], [19.715831, 7.538888], [19.721382000000176, 7.539991000000157], [19.725553000000104, 7.542218], [19.731109000000117, 7.540553000000102], [19.732774, 7.535829], [19.733328, 7.529439000000139], [19.731662, 7.524164000000155], [19.729166000000134, 7.519719], [19.729717, 7.51305], [19.731942000000117, 7.509158], [19.736941, 7.50694], [19.74166, 7.507214000000147], [19.747215, 7.508055], [19.753325, 7.507493000000125], [19.757495000000176, 7.505555000000186], [19.759997, 7.50138], [19.761939000000154, 7.496382], [19.762213, 7.489996000000133], [19.76027100000016, 7.484995], [19.758883, 7.479438000000187], [19.75916, 7.473331], [19.761659, 7.468887000000109], [19.764161000000172, 7.464721], [19.765274, 7.459164000000101], [19.765548, 7.454437000000155], [19.76333000000011, 7.449719], [19.76166200000017, 7.444165], [19.761659, 7.438052], [19.76526900000016, 7.434443000000158], [19.769992000000173, 7.43194], [19.774713000000133, 7.42999500000019], [19.78055400000011, 7.428887], [19.785274000000186, 7.431108000000108], [19.78944100000018, 7.433884], [19.793610000000115, 7.436102000000119], [19.799165, 7.436105], [19.802491, 7.432219], [19.802768, 7.426104000000123], [19.803053, 7.419997], [19.804438, 7.414438000000132], [19.806102, 7.409714], [19.808607, 7.404999], [19.811659000000134, 7.401666000000148], [19.815825, 7.397771], [19.81888600000019, 7.394439], [19.822215, 7.390832000000103], [19.826381, 7.387776], [19.82805500000012, 7.383052000000134], [19.829716, 7.378049], [19.832494, 7.373610000000156], [19.834715000000188, 7.36943900000017], [19.838881, 7.366383], [19.843606, 7.364159], [19.848608, 7.361662], [19.854715000000112, 7.36193800000018], [19.858327, 7.365271000000121], [19.860825, 7.369994], [19.862770000000125, 7.374435000000176], [19.867775000000165, 7.373885000000143], [19.871937, 7.370549], [19.873610000000156, 7.365825], [19.875551000000144, 7.360828], [19.877214, 7.35610400000013], [19.878884, 7.351110000000119], [19.88222100000013, 7.347495000000151], [19.886943, 7.344992000000161], [19.891382000000135, 7.34305], [19.894165, 7.33833200000015], [19.893607, 7.331938], [19.89194, 7.326386], [19.890555, 7.320271], [19.890831, 7.314165000000173], [19.890828000000113, 7.308054], [19.892495, 7.302771000000178], [19.894718000000125, 7.298051], [19.896388, 7.293047000000115], [19.89888800000017, 7.288883000000169], [19.898608, 7.282215], [19.89749400000011, 7.276107], [19.898328, 7.270554000000118], [19.901661000000104, 7.266660000000172], [19.908049000000176, 7.265554000000122], [19.912773, 7.26333000000011], [19.915273000000127, 7.259166], [19.916103, 7.253325], [19.918046, 7.248607000000163], [19.921943000000113, 7.245825], [19.927499, 7.243881000000101], [19.9322140000001, 7.241657000000146], [19.93555, 7.238051], [19.93582600000019, 7.231937], [19.93749600000018, 7.226943], [19.942219, 7.224720000000104], [19.947216, 7.223602], [19.951939, 7.225551000000166], [19.956939, 7.227219000000105], [19.961665, 7.227771000000132], [19.96721300000013, 7.225827], [19.970551000000114, 7.222491000000105], [19.97304800000012, 7.218048000000181], [19.976943000000176, 7.215274], [19.982499000000132, 7.21333], [19.98804900000016, 7.211665000000153], [19.993331, 7.210273], [19.999437, 7.20916], [20.00499200000013, 7.20721600000013], [20.009158, 7.204439], [20.011383, 7.199998000000107], [20.013331000000164, 7.194993], [20.016381, 7.191661], [20.021939, 7.189996000000122], [20.02749400000016, 7.188051000000144], [20.032216, 7.185827000000131], [20.032491, 7.179714000000104], [20.032776, 7.172771000000125], [20.034444, 7.167769000000135], [20.038609, 7.164992], [20.043884, 7.163051], [20.04860900000017, 7.161106], [20.050553, 7.155831], [20.052772000000175, 7.151661000000161], [20.056937000000175, 7.148884], [20.063887, 7.14833], [20.068602, 7.147215000000188], [20.07304900000014, 7.143885000000125], [20.075833000000102, 7.139439], [20.076108, 7.133326000000125], [20.080829000000108, 7.131102000000112], [20.087769, 7.130548], [20.09138, 7.127498000000173], [20.094167, 7.123331000000178], [20.098328, 7.120275000000106], [20.102769, 7.118054], [20.108326, 7.118885], [20.114165000000185, 7.119991], [20.119157, 7.121937000000116], [20.125277000000153, 7.12222], [20.12861, 7.118606], [20.128326000000186, 7.113328000000138], [20.127221, 7.107213000000115], [20.12749200000013, 7.10083], [20.129439000000104, 7.095825], [20.13305300000013, 7.093055000000163], [20.138055000000122, 7.091936000000146], [20.14277600000014, 7.093884000000173], [20.147492, 7.096103], [20.151663, 7.098886000000164], [20.156388, 7.096382000000119], [20.158609, 7.092492000000107], [20.161527398000146, 7.084707658000127], [20.166106, 7.072495], [20.169996, 7.069442], [20.175831, 7.068602000000169], [20.18221300000016, 7.067495], [20.188324, 7.066381], [20.195271, 7.065826000000186], [20.201382000000137, 7.064722000000131], [20.206384, 7.062774], [20.211109, 7.06027], [20.21416100000016, 7.056659], [20.217494, 7.053054], [20.220555, 7.049442000000113], [20.223331, 7.045276], [20.225554000000102, 7.040827000000149], [20.228329, 7.036660000000154], [20.231382, 7.033049000000176], [20.236936, 7.031383000000176], [20.243053, 7.031666000000143], [20.248052, 7.03361], [20.254160000000184, 7.033884000000171], [20.260270000000162, 7.03277], [20.265273, 7.030272], [20.272216, 7.030275000000131], [20.278333, 7.030548000000181], [20.281935, 7.033327], [20.28777600000012, 7.03472], [20.294721000000152, 7.034164], [20.301661, 7.033887], [20.306936, 7.034719000000109], [20.312499, 7.034719000000109], [20.316386, 7.031666000000143], [20.32055, 7.028331], [20.32527, 7.026385000000175], [20.328884, 7.02304700000019], [20.334439000000145, 7.021659000000113], [20.339992, 7.019992], [20.345551000000114, 7.018055000000174], [20.351111, 7.019442], [20.355275000000177, 7.021664000000158], [20.359163, 7.024998000000153], [20.361939000000177, 7.028884000000176], [20.366658, 7.03083], [20.373047000000156, 7.029721000000109], [20.379164, 7.028605], [20.383881, 7.02638], [20.389439, 7.024442], [20.394443, 7.026105], [20.397775, 7.029715000000181], [20.400273, 7.034442000000126], [20.403047, 7.038049000000171], [20.407776, 7.040831000000139], [20.413884, 7.039715000000172], [20.417496000000142, 7.036386], [20.42027000000013, 7.032219], [20.42193600000013, 7.027498], [20.424715, 7.023053000000175], [20.427774, 7.019441], [20.432490000000143, 7.01721600000019], [20.438888000000134, 7.017772], [20.444999, 7.017773], [20.450547, 7.018889], [20.454713, 7.021380000000136], [20.458607000000143, 7.024442], [20.461936, 7.027771], [20.465833, 7.031103], [20.469439, 7.034159000000159], [20.474164, 7.035824000000105], [20.48027400000018, 7.037220000000104], [20.486388000000147, 7.037499000000139], [20.490552, 7.03972], [20.494164000000126, 7.043325], [20.498055, 7.046107], [20.499995000000126, 7.05083000000019], [20.50249600000012, 7.055826], [20.505829000000176, 7.059442], [20.50861, 7.063606000000163], [20.512768, 7.066106], [20.518052, 7.067772], [20.523609000000135, 7.068886], [20.529716, 7.067777000000149], [20.535827000000154, 7.066939], [20.540268, 7.064437000000169], [20.545833, 7.062497], [20.552215, 7.063331000000176], [20.558326, 7.06333], [20.563051, 7.064993000000186], [20.567772, 7.067773000000159], [20.571107, 7.070831], [20.574444, 7.074717], [20.577771, 7.077774], [20.581659000000116, 7.081104], [20.587216000000183, 7.082217000000128], [20.590825, 7.08555], [20.59472, 7.08861], [20.598888000000102, 7.09110800000019], [20.602214000000174, 7.094165], [20.606107, 7.097773], [20.608885, 7.101657000000102], [20.611382, 7.106110000000115], [20.614443, 7.110269000000187], [20.616943000000106, 7.114993], [20.62027, 7.11805], [20.625549, 7.119993], [20.62972200000013, 7.12222], [20.634718000000134, 7.123888], [20.638328, 7.12722], [20.641381, 7.131388000000186], [20.64388700000012, 7.135832000000164], [20.644162000000108, 7.14277], [20.644994, 7.148883000000126], [20.647495, 7.153606000000138], [20.651111, 7.156659000000161], [20.654161, 7.160547000000122], [20.656935, 7.164717], [20.657498, 7.171661], [20.658051, 7.176939000000175], [20.659157, 7.183327], [20.661102, 7.187498], [20.66443500000014, 7.191662000000122], [20.66693700000019, 7.196384], [20.666943000000174, 7.201939], [20.667498, 7.208883000000185], [20.667771, 7.215551000000175], [20.669721000000152, 7.220830000000149], [20.672492, 7.224720000000104], [20.674997, 7.229713], [20.67638000000011, 7.234999], [20.679719000000148, 7.238882], [20.683051000000148, 7.242217], [20.687776, 7.244435000000124], [20.693329, 7.245824000000141], [20.699435, 7.246107000000109], [20.706388000000118, 7.245552], [20.711385, 7.247217], [20.716106, 7.249165000000175], [20.723049, 7.24861], [20.727768, 7.246110000000158], [20.73194300000017, 7.243330000000185], [20.736662, 7.240831000000185], [20.741941000000168, 7.239161], [20.748051000000146, 7.238328], [20.75443600000017, 7.238607], [20.75972, 7.236659000000145], [20.764718, 7.234165000000189], [20.76832400000012, 7.231382000000167], [20.772495000000106, 7.228332], [20.77804700000013, 7.226938000000132], [20.783602, 7.224995000000149], [20.790268, 7.224721], [20.795830000000137, 7.22555], [20.799994, 7.2283240000001], [20.803887, 7.231109000000117], [20.806662000000188, 7.235277], [20.810554, 7.238603], [20.815552, 7.241104], [20.820269, 7.242772], [20.825278, 7.244715], [20.82972100000012, 7.24749300000019], [20.833328000000165, 7.251110000000153], [20.837773, 7.253330000000176], [20.841937000000144, 7.256102], [20.846939000000134, 7.257496], [20.851665, 7.259163000000171], [20.857776, 7.260551], [20.86333, 7.261388], [20.868047000000104, 7.263046], [20.873047, 7.264997], [20.87749600000012, 7.26749500000011], [20.881108, 7.270832], [20.884166000000107, 7.274437], [20.888886000000184, 7.283880000000124]]]}}]}