{"type": "FeatureCollection", "features": [{"type": "Feature", "properties": {"entity_id": "cf-p-sangha-mbaere-v1", "name_fr": "Sangha-Mbaéré"}, "geometry": {"type": "Polygon", "coordinates": [[[16.596540000000118, 3.47728], [16.5992624700001, 3.481516818000159], [16.600674972000093, 3.48371501000014], [16.604801495, 3.490136764000169], [16.6048100000001, 3.49015], [16.607679989000133, 3.493710005000139], [16.610546044000046, 3.497265093000124], [16.61055, 3.49727], [16.64749, 3.52919], [16.655169965000027, 3.533435032000114], [16.662850000000162, 3.53768], [16.66743499000006, 3.539745011000036], [16.67202, 3.541810000000112], [16.679924997000114, 3.542135034000182], [16.68783, 3.54246], [16.696233300000074, 3.5442867430001], [16.70463663400011, 3.546113410000032], [16.71304000000015, 3.547940000000153], [16.719569996000075, 3.548505023000075], [16.726100000000145, 3.54907], [16.73244330099999, 3.55143337700008], [16.738786634, 3.553796711000075], [16.74513000000013, 3.55616], [16.75174, 3.556800000000123], [16.75453, 3.55707], [16.758990005000044, 3.556025011000031], [16.76345, 3.554980000000171], [16.76894501600009, 3.552325016000054], [16.77444, 3.549670000000106], [16.781310017000067, 3.548503385000117], [16.78818001700006, 3.547336718000167], [16.795050000000174, 3.54617], [16.80261, 3.543390000000102], [16.807122579000122, 3.537917534000087], [16.811635105999983, 3.532445044999974], [16.816147579000074, 3.526972534000095], [16.820660000000146, 3.5215], [16.827075004000108, 3.520910022000123], [16.833490000000154, 3.52032000000014], [16.839593375, 3.517086707000033], [16.84569670899998, 3.513853374000121], [16.8518, 3.510620000000131], [16.86073000000016, 3.511520000000132], [16.86197, 3.51305], [16.873360000000105, 3.52714], [16.8743, 3.536340000000109], [16.871910016000072, 3.542675004000102], [16.86952, 3.54901], [16.86975, 3.553380000000118], [16.87365000000011, 3.55751], [16.878470000000164, 3.559570000000178], [16.883740003000185, 3.558985015000189], [16.88901, 3.558400000000177], [16.89255501200006, 3.555170007000186], [16.896100000000104, 3.551940000000172], [16.910070000000132, 3.550070000000176], [16.932750000000112, 3.55209], [16.944520000000182, 3.55736], [16.946050000000128, 3.55805], [16.951664994, 3.558960017000061], [16.95728, 3.559870000000103], [16.96071, 3.55825], [16.965813398000023, 3.552330029000018], [16.970916732000035, 3.546410029000128], [16.97602, 3.540490000000148], [16.98175, 3.5391], [16.98771, 3.540930000000117], [16.99069, 3.543910000000153], [16.9978, 3.546890000000133], [17.00444, 3.54664], [17.009240000000148, 3.53904], [17.010030004000157, 3.534090001000038], [17.010820000000137, 3.52914], [17.02957, 3.51368], [17.0353, 3.51343], [17.03896, 3.51504], [17.04036000000019, 3.51662], [17.052520000000186, 3.53042], [17.054366643000094, 3.536323338000159], [17.056213310000032, 3.542226671000037], [17.05806, 3.54813], [17.065163309000127, 3.549723388000075], [17.07226664200016, 3.551316722000138], [17.07937, 3.552910000000168], [17.08563996500004, 3.555503376000161], [17.091909965000127, 3.558096710000143], [17.098180000000127, 3.560690000000136], [17.105735006000145, 3.55998503100011], [17.113290000000177, 3.559280000000172], [17.13209000000012, 3.56544], [17.137499985000034, 3.568060016000061], [17.14291, 3.570680000000152], [17.14723000000015, 3.57277], [17.15365, 3.57368], [17.15709, 3.575100000000134], [17.1634600000001, 3.572550000000149], [17.16782501700004, 3.568950011000084], [17.172190000000114, 3.56535], [17.17677, 3.56557], [17.184259964000148, 3.567773395000074], [17.19174996400011, 3.569976728000029], [17.19924, 3.572180000000117], [17.207336650000116, 3.57315673800008], [17.215433315999974, 3.574133405000168], [17.22353, 3.57511], [17.23934, 3.57921], [17.24829, 3.58333], [17.24945, 3.58862], [17.248555008000096, 3.597025001000077], [17.24766000000011, 3.605430000000183], [17.252480000000162, 3.61071], [17.25799, 3.614610000000141], [17.26615588900006, 3.617718148000108], [17.274321833000158, 3.620826222000062], [17.28248783300012, 3.623934222000173], [17.290653889000055, 3.6270421480001], [17.29882, 3.63015], [17.30454, 3.62898], [17.310140030000184, 3.624135018000061], [17.31574, 3.619290000000149], [17.34870000000012, 3.60493], [17.35465, 3.604460000000188], [17.36267000000015, 3.606960000000129], [17.36589, 3.61018], [17.36707153100008, 3.612459189000106], [17.367190283000127, 3.612688263000052], [17.366958, 3.612797], [17.36444352700005, 3.620278760000076], [17.355621, 3.646530000000155], [17.35152, 3.662559000000158], [17.351219824999987, 3.66678082500016], [17.348839000000112, 3.690780000000132], [17.351024, 3.714614], [17.360455959000035, 3.73187013], [17.362047000000132, 3.734781000000169], [17.3733, 3.748161], [17.372147, 3.749989], [17.371219000000167, 3.751537], [17.370391442000084, 3.752768032000176], [17.369161, 3.754717000000142], [17.367776, 3.761663], [17.36610500000012, 3.76277000000016], [17.358608000000117, 3.768884000000128], [17.356388000000152, 3.773048], [17.353609, 3.777214000000129], [17.350831, 3.78138], [17.348051000000112, 3.784994], [17.34555200000011, 3.78916], [17.339444, 3.796661000000142], [17.337217, 3.801666000000182], [17.330548000000135, 3.808329000000128], [17.323330000000112, 3.814713], [17.319162, 3.817499000000169], [17.314443, 3.819438], [17.309715, 3.821665], [17.304996000000187, 3.823603], [17.299438, 3.824993], [17.29388, 3.826382], [17.28944, 3.828608], [17.284161, 3.829997], [17.279442, 3.832215], [17.274443000000133, 3.833883], [17.269714, 3.83583], [17.265555000000177, 3.838608], [17.261665, 3.841384], [17.257776, 3.844161], [17.253048, 3.846388], [17.248888000000136, 3.849166], [17.241380000000106, 3.855270000000189], [17.237499000000128, 3.858047000000113], [17.23333, 3.860824], [17.22861, 3.86277100000018], [17.224161, 3.864998], [17.219163, 3.867217000000153], [17.213883000000124, 3.868605], [17.209163, 3.870552], [17.202775000000145, 3.871382000000153], [17.197495, 3.87277], [17.19193700000011, 3.874159], [17.186657, 3.875547000000154], [17.18193700000012, 3.877774], [17.177217, 3.879721000000188], [17.173049000000162, 3.883050000000139], [17.169159, 3.885827], [17.16416, 3.888054], [17.159159, 3.889442], [17.153609000000188, 3.890830000000108], [17.147491, 3.891659000000118], [17.14055100000013, 3.891659000000118], [17.133881, 3.891658], [17.12749200000019, 3.892497000000162], [17.121940000000166, 3.89305300000018], [17.116381000000104, 3.894442], [17.110831, 3.895830000000103], [17.105272, 3.897499000000153], [17.099992000000157, 3.898886000000175], [17.09499200000016, 3.900824000000114], [17.089999, 3.90222000000017], [17.085272, 3.904999], [17.080551, 3.907217], [17.076381, 3.909994000000154], [17.070275, 3.916103], [17.066105000000107, 3.918609000000117], [17.058882, 3.924721], [17.054991, 3.927497], [17.050830000000133, 3.930274000000168], [17.04666, 3.933051], [17.042499, 3.935828000000186], [17.037768000000142, 3.937774], [17.033048, 3.939992], [17.02777600000013, 3.941379], [17.021665, 3.942217], [17.016384, 3.943604000000164], [17.009444000000144, 3.94360300000011], [17.002494000000127, 3.943602000000169], [16.996102, 3.943608000000154], [16.989161, 3.943607], [16.983051, 3.944435000000169], [16.97611, 3.944443000000149], [16.970549000000176, 3.945830000000115], [16.96665800000011, 3.948607], [16.95999400000011, 3.955549000000133], [16.9525, 3.961661000000106], [16.945268, 3.968053000000168], [16.94110600000016, 3.97083], [16.936935000000176, 3.973606], [16.933324, 3.976942], [16.925829, 3.983055000000149], [16.923048000000108, 3.987221], [16.920276000000115, 3.991387], [16.918324, 3.996102000000121], [16.916103000000135, 4.001388], [16.914161, 4.006104000000107], [16.91332700000015, 4.011658000000125], [16.911105000000134, 4.016383], [16.909163, 4.021388000000115], [16.90722, 4.026104], [16.904998, 4.030829], [16.902496000000156, 4.034995], [16.900273, 4.039440000000184], [16.897771, 4.043605000000184], [16.894998, 4.047771000000125], [16.89249500000011, 4.051665], [16.889993, 4.055831000000126], [16.883049000000142, 4.062774000000161], [16.876383000000146, 4.069716], [16.870548000000156, 4.077217000000189], [16.86444200000011, 4.084438], [16.86166, 4.088604], [16.858887, 4.09277], [16.856105, 4.096936], [16.854162, 4.101661000000149], [16.85138000000012, 4.105827], [16.848886000000164, 4.109993000000145], [16.846383, 4.114158000000145], [16.84361, 4.118053], [16.8408280000001, 4.122219], [16.838884, 4.126663], [16.836941, 4.131660000000181], [16.834998, 4.136384], [16.833606000000145, 4.14194], [16.8308320000001, 4.145826], [16.828329000000167, 4.149991], [16.825826000000177, 4.154166], [16.818881, 4.161109000000181], [16.812214, 4.167771000000187], [16.80499600000013, 4.173882], [16.800272, 4.175828000000138], [16.796109, 4.178605], [16.791936, 4.181382000000156], [16.78527, 4.188333000000114], [16.78304700000018, 4.193049], [16.781383000000176, 4.198054], [16.779999, 4.203329], [16.778047000000186, 4.208325000000116], [16.775272, 4.21194], [16.772769, 4.216106000000138], [16.769995000000108, 4.220272], [16.763607, 4.227213], [16.759443, 4.229999], [16.754719, 4.231936], [16.74722100000014, 4.238048], [16.743049, 4.241105000000175], [16.738884, 4.24361000000016], [16.736995, 4.245421], [16.73527880000006, 4.24738079500014], [16.735128, 4.247553], [16.665555000000154, 4.25971600000014], [16.632214, 4.202215], [16.611939, 4.171662], [16.612987, 4.147082], [16.612867, 4.119221], [16.615494611000145, 4.098756259000083], [16.616787, 4.075591000000145], [16.614034741000125, 4.07626159], [16.586744000000124, 4.082911], [16.56542804999998, 4.079004279], [16.558699000000104, 4.077771], [16.54392599900001, 4.05977682300005], [16.53222049700014, 4.047801886000173], [16.465683189000117, 4.033948424000016], [16.462851151999985, 4.03335579000003], [16.457765000000165, 4.034617], [16.443139, 4.029342], [16.418358078000153, 4.040028378000045], [16.412557000000106, 4.04253], [16.39503347400006, 4.056185454000172], [16.393942, 4.057036], [16.388904395, 4.049818492000043], [16.381976, 4.039892000000123], [16.372668000000147, 4.03066100000018], [16.367350000000158, 4.017473], [16.350064, 4.002967], [16.331112813000118, 4.004072060000055], [16.327461, 4.004285], [16.304857, 3.981866], [16.28870680500006, 3.968136382000125], [16.28624200000013, 3.966041000000132], [16.28489610800017, 3.965424857000073], [16.251672, 3.950215], [16.252556262999974, 3.949532876000092], [16.26505484400019, 3.93989142700002], [16.275605, 3.931753000000185], [16.29799400000013, 3.903622000000155], [16.284744058, 3.895048400000064], [16.24635300000017, 3.872408000000121], [16.233188436000034, 3.86409891500017], [16.217101000000127, 3.853945000000181], [16.214825599000108, 3.853945000000181], [16.191838000000132, 3.853945000000181], [16.17958291000008, 3.852687359000129], [16.16890500000011, 3.852388000000133], [16.147942396000133, 3.850299404000168], [16.131709, 3.84868200000011], [16.11968, 3.856543], [16.120038, 3.862443834000089], [16.121166193000022, 3.881039580000049], [16.121741, 3.890514], [16.118980774000136, 3.912481301000184], [16.118709, 3.913290000000188], [16.118611263, 3.915422058000047], [16.11716100000018, 3.926964], [16.112575000000163, 3.954544000000112], [16.099716, 3.98388000000017], [16.09388600000017, 3.988881], [16.086387000000173, 3.991659], [16.078328, 3.993054], [16.060827, 3.99221800000015], [16.028401405000068, 3.989364555], [16.027736, 3.989306], [15.993649764000054, 3.992801590999989], [15.896951, 4.002398], [15.881433000000186, 3.996335], [15.797631, 3.958659], [15.769007000000101, 3.946007], [15.737031000000115, 3.932907], [15.732978000000116, 3.907110000000102], [15.733401000000129, 3.900517], [15.734968741000102, 3.894549989000154], [15.73768200000012, 3.884223], [15.741434250000111, 3.873773371000027], [15.742661000000169, 3.870357], [15.746416236000186, 3.858874238000169], [15.74800174699999, 3.849787733000028], [15.749260000000106, 3.841024000000118], [15.753718, 3.83256], [15.762882000000104, 3.828147000000115], [15.777256000000136, 3.816418], [15.791162, 3.798218], [15.78851200000014, 3.770551], [15.799014, 3.749154000000146], [15.801355000000115, 3.737746000000186], [15.799862, 3.703797000000179], [15.799643250000088, 3.703808189000142], [15.794173000000114, 3.704088], [15.791101837999975, 3.704189211000028], [15.786311, 3.703965], [15.777886, 3.701859], [15.776452391000191, 3.701695827000151], [15.77299777900015, 3.70130262400005], [15.767921704000173, 3.704409961000181], [15.766452990000175, 3.705309039000156], [15.763352221, 3.706820557000128], [15.760387, 3.708266], [15.759302866999974, 3.710986845999969], [15.757616000000155, 3.717892], [15.752921683000125, 3.719050131000017], [15.743175, 3.721497], [15.7416300000001, 3.724469000000113], [15.740170872000022, 3.726074083000128], [15.738815000000102, 3.728351], [15.73609691500019, 3.733145585000102], [15.7343, 3.737388], [15.732777061000093, 3.738721869000187], [15.726229, 3.744457000000182], [15.72035000000011, 3.748454], [15.715364768000143, 3.75252814300012], [15.710991, 3.755907], [15.704646, 3.760059000000183], [15.703666230000124, 3.761097790000179], [15.699419, 3.764362], [15.694545426000047, 3.766223972000091], [15.693079, 3.766564000000187], [15.688531656, 3.766654664000043], [15.686649326000065, 3.766184081000119], [15.684557000000154, 3.765661], [15.682236788000182, 3.765892678000057], [15.6771260000001, 3.766403], [15.674108922000016, 3.766386066000052], [15.669643000000178, 3.766361], [15.664069459000075, 3.765868215000069], [15.66326400000014, 3.765797000000134], [15.65276890500013, 3.762101875000042], [15.64446, 3.758705], [15.642549056000178, 3.760214431000179], [15.63645, 3.765032], [15.628965000000164, 3.769118000000105], [15.626816353000095, 3.769129194000129], [15.620519000000115, 3.769162], [15.61259500000017, 3.768957000000114], [15.610434324000096, 3.768953691000092], [15.606979013000114, 3.768948400000113], [15.605499009000027, 3.768995709000023], [15.603519, 3.769059], [15.598902000000123, 3.76930300000015], [15.596376, 3.771042000000136], [15.595929514000034, 3.772093657000028], [15.591675000000123, 3.779936], [15.591036570000028, 3.780546969000113], [15.589382101000183, 3.781968966000079], [15.586553000000151, 3.784039000000121], [15.578325, 3.764716], [15.574161000000117, 3.759163000000115], [15.566943000000151, 3.752220000000136], [15.559997, 3.747493], [15.549998000000187, 3.743048000000101], [15.539442, 3.740277000000162], [15.52777, 3.73833000000019], [15.51749500000011, 3.738327], [15.506941, 3.738324], [15.499998000000119, 3.739161], [15.498046000000102, 3.74222], [15.494992, 3.755828], [15.49361, 3.766107], [15.491938, 3.770269000000155], [15.489166, 3.773609], [15.484998000000132, 3.777493000000106], [15.477499, 3.781659], [15.469017417000146, 3.784725433000176], [15.465284141000154, 3.783326551000073], [15.46407283800005, 3.783326022000097], [15.45474600000017, 3.782005], [15.441591826000149, 3.780140533000065], [15.435316000000114, 3.779251000000102], [15.430064987000037, 3.776068358000032], [15.429441, 3.77583], [15.423054, 3.771663], [15.418611000000112, 3.76611], [15.4163115180001, 3.763613912000153], [15.414499, 3.761816], [15.40395678300007, 3.751360048000038], [15.40333, 3.750827000000186], [15.399932245000173, 3.747711117], [15.396664, 3.744714000000101], [15.378332, 3.733332000000189], [15.376845239000033, 3.732571572000154], [15.363211516000035, 3.725598381000054], [15.354436000000135, 3.72111], [15.352953090000028, 3.720510858000182], [15.337075941000023, 3.714096], [15.334740727999986, 3.713152502000128], [15.327990000000113, 3.710425], [15.293756000000144, 3.686566], [15.282430587000022, 3.677149063000059], [15.28628102, 3.673066796000057], [15.292096960000038, 3.666900553000119], [15.297912820000022, 3.660734271000081], [15.303728601000103, 3.654567950000114], [15.309544303000052, 3.648401590999981], [15.315359925000052, 3.642235193000147], [15.321175468000092, 3.636068757000089], [15.326990932000058, 3.62990228200016], [15.332806317000063, 3.623735769000177], [15.338621623000051, 3.617569218000028], [15.344436851000125, 3.611402628000178], [15.356424160000131, 3.598768457000119], [15.362595234000025, 3.592301872000178], [15.368766221000044, 3.585835243000076], [15.37493711999997, 3.579368571999964], [15.381107934000056, 3.572901859000069], [15.387278660999982, 3.566435102000128], [15.393449301000032, 3.559968304000108], [15.399619856000129, 3.553501463000146], [15.405790325000055, 3.547034579000126], [15.411960707999981, 3.540567653999972], [15.418131005000077, 3.534100686000102], [15.424301217000107, 3.527633677000154], [15.430471343000079, 3.521166625000092], [15.436641385000087, 3.514699531000076], [15.442811341000038, 3.508232396000096], [15.448981213000025, 3.501765219000106], [15.455151000000114, 3.495298000000162], [15.461139179000043, 3.489632097000026], [15.467127286000164, 3.483966155000019], [15.473115322000183, 3.478300175000186], [15.479103286000054, 3.472634155000151], [15.485091179000108, 3.46696809700012], [15.491079, 3.461302], [15.496954304000155, 3.454454639], [15.502829523000173, 3.447607241000128], [15.508704659000102, 3.440759805000027], [15.514579710000135, 3.433912332000034], [15.520454678000021, 3.427064822000148], [15.526329563, 3.420217274000038], [15.532204364000165, 3.413369690000138], [15.538079082000081, 3.406522068000015], [15.54395371600009, 3.399674410000102], [15.54982826800017, 3.392826715000126], [15.555702738000036, 3.385978982000097], [15.561577124000053, 3.379131214000154], [15.567451429000187, 3.372283408000044], [15.573325651000061, 3.365435566000144], [15.579199791000065, 3.358587687000067], [15.585073850000128, 3.351739772000087], [15.59094782600016, 3.344891821000033], [15.596821721000083, 3.338043834000189], [15.602695535000066, 3.331195810000054], [15.60856926800011, 3.324347750000072], [15.614442919, 3.31749965400013], [15.62031649000005, 3.310651522000171], [15.62618998000005, 3.303803354000024], [15.632063389999985, 3.296955150999963], [15.637936719000038, 3.29010691100018], [15.643809968000085, 3.283258636000141], [15.649683137000068, 3.276410325000086], [15.655556226000101, 3.269561979000116], [15.66142923600006, 3.262713598], [15.667302166000127, 3.255865181000104], [15.673175016000016, 3.249016728000072], [15.679047788000105, 3.242168241000172], [15.684920480000187, 3.235319718000085], [15.690793094000071, 3.228471161000186], [15.696665629000051, 3.2216225680001], [15.702538086, 3.2147739400001], [15.708410464000053, 3.207925278000062], [15.714282764000131, 3.201076581000166], [15.720154986000182, 3.194227849000129], [15.726027130000034, 3.187379082000064], [15.731899197000132, 3.180530281000131], [15.737771186000032, 3.173681445000113], [15.743643098000064, 3.166832575000115], [15.749514932000068, 3.159983671000077], [15.75538669000008, 3.153134732000126], [15.761258371000167, 3.146285760000126], [15.767129975000103, 3.139436753000155], [15.773001503000103, 3.132587712000031], [15.778872954000178, 3.125738637000097], [15.784744329000034, 3.118889529000057], [15.790615629000172, 3.112040386000103], [15.796486852000044, 3.105191210000044], [15.802358, 3.098342000000173], [15.80424500000015, 3.099352], [15.804645, 3.099649000000113], [15.805056, 3.100071], [15.805176, 3.100417000000107], [15.805246, 3.10082100000011], [15.805264, 3.101109000000122], [15.80641, 3.103391000000158], [15.807337000000189, 3.10508300000015], [15.808477, 3.106485], [15.80929900000018, 3.107478], [15.812097, 3.108580000000131], [15.812493000000131, 3.108602000000189], [15.813252, 3.108345], [15.818626, 3.104932], [15.82137900000015, 3.103359000000125], [15.822487000000137, 3.103707000000156], [15.826528, 3.106498000000158], [15.82765400000011, 3.107330000000104], [15.828150000000107, 3.10783], [15.829594, 3.109571], [15.830826000000172, 3.111208000000147], [15.833595000000116, 3.114174], [15.834223, 3.11455], [15.837017000000117, 3.115579000000139], [15.83904600000011, 3.115689], [15.84022700000014, 3.115629000000183], [15.840585, 3.115372], [15.842755, 3.113043000000118], [15.844088, 3.11155], [15.84677900000014, 3.112092], [15.848831, 3.114361], [15.851324000000147, 3.11607], [15.85178000000019, 3.116026], [15.852140000000134, 3.115981], [15.855048, 3.115299], [15.857424, 3.11464500000011], [15.859733, 3.113878], [15.861756000000128, 3.111846000000185], [15.865719000000126, 3.104519], [15.866301000000135, 3.104093000000148], [15.866914, 3.103824], [15.867179000000135, 3.103726000000165], [15.867690000000152, 3.10354800000016], [15.867914, 3.103479000000107], [15.868422000000123, 3.10336], [15.868845000000135, 3.103286000000139], [15.870532, 3.10315], [15.871409, 3.103102], [15.87222400000013, 3.103183000000172], [15.87466, 3.103997], [15.878517000000159, 3.105012000000158], [15.879376, 3.105180000000189], [15.882394000000147, 3.104814], [15.88333200000011, 3.104455], [15.883858, 3.104248000000155], [15.88670900000011, 3.102888], [15.887363, 3.1025360000001], [15.89162800000014, 3.098467], [15.892247, 3.093284], [15.892843000000141, 3.091449], [15.896514, 3.09053], [15.898369000000116, 3.088554000000158], [15.900421, 3.085412], [15.901959000000147, 3.081986], [15.902259, 3.078145], [15.906624000000136, 3.073300000000131], [15.909195, 3.071013000000107], [15.91013700000019, 3.067767000000117], [15.912825, 3.062176], [15.916108, 3.05475], [15.920783000000142, 3.044958], [15.925731, 3.041975], [15.931353, 3.040439000000106], [15.931900000000155, 3.040228], [15.933277, 3.038544000000172], [15.934652000000142, 3.036597], [15.936369, 3.033271000000127], [15.94019800000018, 3.027563], [15.941569000000129, 3.024331000000132], [15.942169, 3.022396], [15.942341, 3.021692], [15.942327000000148, 3.021153], [15.9482, 3.018664000000172], [15.948566000000142, 3.018713000000162], [15.94897200000014, 3.018727], [15.949313000000132, 3.018481000000122], [15.950636, 3.017503], [15.951066, 3.017034000000137], [15.953877, 3.01351300000016], [15.954317, 3.012889], [15.954747000000111, 3.012168], [15.95493800000014, 3.011655], [15.954985000000136, 3.011077], [15.957953, 3.006104000000107], [15.964183000000162, 3.001594000000182], [15.967994, 2.995948], [15.96815700000019, 2.995678], [15.96854100000013, 2.995213000000149], [15.968785, 2.995051], [15.96901, 2.995003], [15.969242, 2.995086000000128], [15.970721, 2.996057000000178], [15.97161, 2.997104], [15.974840000000142, 3.0019], [15.974332, 3.003926], [15.974363, 3.004324000000111], [15.97446200000013, 3.004624], [15.974723, 3.004821], [15.976141000000155, 3.005700000000104], [15.977090000000146, 3.006183], [15.979674000000102, 3.006558], [15.981208, 3.006491], [15.98209700000018, 3.006215], [15.983366, 3.005879000000164], [15.985654000000125, 3.005538], [15.987022, 3.005349], [15.992005000000177, 3.006737000000101], [15.993778000000134, 3.007488], [15.994057000000169, 3.007650000000126], [15.996091, 3.008845], [15.997528000000102, 3.009914], [15.997766, 3.010279], [15.998011, 3.010574000000133], [15.99830100000014, 3.010834000000159], [15.998495, 3.010987], [15.998818, 3.010982000000126], [15.999293000000137, 3.01095], [16.000356000000124, 3.010631], [16.00163, 3.009443], [16.002021, 3.008908000000133], [16.002075000000104, 3.008692], [16.002411, 3.007270000000176], [16.002087000000188, 3.002207000000112], [16.005358000000115, 2.998318], [16.006271, 2.993917], [16.006403, 2.990002000000118], [16.007199, 2.989417], [16.007495, 2.989226], [16.00778800000012, 2.989083000000107], [16.00922300000019, 2.988945], [16.0098210000001, 2.988939], [16.010482, 2.988985000000184], [16.010618000000136, 2.989075000000128], [16.015198, 2.989325], [16.01906, 2.987704], [16.024431000000106, 2.985881], [16.029441, 2.983987000000184], [16.032045, 2.980812000000185], [16.032174, 2.980525], [16.031103, 2.972087], [16.03144, 2.968372000000102], [16.032635, 2.966174], [16.035135, 2.963872], [16.037861, 2.96203700000018], [16.038554, 2.960003], [16.039097, 2.957379], [16.041955, 2.9543], [16.04565600000018, 2.949256000000105], [16.04844400000013, 2.94364000000013], [16.049926, 2.94202700000011], [16.052237, 2.938006], [16.052622, 2.936951], [16.05254, 2.934253], [16.052363000000184, 2.93062], [16.053653000000168, 2.92641], [16.054044, 2.921258], [16.056679, 2.919434], [16.057074, 2.919193000000121], [16.057574, 2.919074], [16.058136, 2.91906200000011], [16.058426, 2.919252], [16.05877500000014, 2.919663000000128], [16.059051, 2.919724], [16.059447, 2.919552000000181], [16.06105700000012, 2.918631000000175], [16.061365, 2.918339000000174], [16.06149, 2.917922000000146], [16.062202000000184, 2.914526], [16.06409, 2.913750000000107], [16.065433000000155, 2.913616], [16.06728, 2.913017], [16.067714, 2.912849000000165], [16.068376000000114, 2.91257000000013], [16.068663, 2.912182], [16.070372, 2.906385000000171], [16.06962, 2.90375500000016], [16.071768000000134, 2.900503], [16.072019, 2.900475], [16.072626, 2.900057], [16.07431700000018, 2.898565], [16.074786, 2.897874000000115], [16.07509800000014, 2.897392], [16.074949, 2.895755000000122], [16.074816, 2.895273], [16.074540000000127, 2.895029], [16.074032, 2.894967000000122], [16.072785, 2.89248600000019], [16.073226000000147, 2.887896000000183], [16.07534900000013, 2.880796], [16.077699, 2.876219], [16.079488, 2.873327000000188], [16.082696000000112, 2.863590000000102], [16.08381, 2.858146000000147], [16.084008000000154, 2.853627000000188], [16.08464600000019, 2.846124], [16.086586000000125, 2.841078000000152], [16.087805, 2.838502000000176], [16.089256, 2.831444], [16.08646000000016, 2.824947], [16.083962, 2.823638], [16.08197900000016, 2.822541000000115], [16.080826000000116, 2.821249000000137], [16.07928900000013, 2.816103000000112], [16.07666300000011, 2.812088000000131], [16.073588, 2.808257], [16.072296000000108, 2.806784], [16.072066, 2.806579000000113], [16.071638000000178, 2.806453], [16.069123000000104, 2.806053000000134], [16.065489000000184, 2.804661], [16.06374, 2.803711000000135], [16.060504, 2.8016], [16.05840200000017, 2.800736], [16.054388, 2.799208], [16.05160300000017, 2.798283], [16.051153, 2.798168000000146], [16.0505, 2.797768], [16.048859000000164, 2.796341000000155], [16.047846, 2.794728], [16.04705300000012, 2.79254], [16.047434, 2.788430000000176], [16.048262000000136, 2.785795000000121], [16.050906, 2.7807], [16.051288, 2.780633], [16.05143, 2.78044], [16.051498, 2.778843000000109], [16.05157300000019, 2.776664], [16.051546, 2.77641], [16.051478000000145, 2.776078], [16.051326000000188, 2.775794], [16.049673, 2.773418000000106], [16.05047, 2.769471], [16.050966, 2.768617], [16.053457, 2.766477000000123], [16.055771, 2.764825], [16.055516000000125, 2.76224400000018], [16.055309, 2.759502000000111], [16.056158, 2.757570000000158], [16.057374, 2.756066], [16.060301, 2.755961], [16.06055300000014, 2.755921000000114], [16.060947, 2.75572], [16.061147, 2.755379], [16.06105, 2.75239], [16.061027, 2.751912], [16.060976000000153, 2.751557], [16.060829, 2.751083], [16.060249, 2.74926], [16.060934, 2.744690000000105], [16.063389000000143, 2.739189], [16.063584000000105, 2.738900000000115], [16.063675, 2.73867], [16.063744, 2.737523], [16.063382000000104, 2.7339300000001], [16.062171, 2.733165], [16.059869, 2.732948], [16.058325, 2.732145], [16.055614, 2.729565], [16.055262, 2.728642], [16.057475, 2.726760000000183], [16.05819600000018, 2.726367000000153], [16.05990000000014, 2.725974000000178], [16.059695, 2.723431], [16.057427000000132, 2.721053000000154], [16.05638800000014, 2.715547000000186], [16.058053, 2.712682], [16.05953, 2.710415000000125], [16.061581000000103, 2.70982], [16.06457200000017, 2.710216000000173], [16.068281, 2.707180000000164], [16.072706, 2.706796000000168], [16.07453, 2.707207], [16.076648, 2.707718], [16.076492, 2.707965000000115], [16.076489, 2.708277000000123], [16.07655100000011, 2.708473], [16.07683, 2.708652], [16.077129000000127, 2.70875], [16.077419000000134, 2.708757], [16.078833, 2.708527], [16.079489, 2.708271], [16.080853, 2.707471], [16.081595000000164, 2.706933000000163], [16.083528848000128, 2.704514568000036], [16.083750000000123, 2.704238], [16.081924, 2.702292], [16.081054847000132, 2.699236991000134], [16.080986, 2.698995], [16.080445, 2.695129000000122], [16.082678, 2.690782000000183], [16.082803000000126, 2.689673], [16.082599, 2.688470000000166], [16.082052000000147, 2.686751], [16.079193, 2.686001], [16.077304, 2.685397000000137], [16.07596800000016, 2.684164], [16.074632000000122, 2.682520000000125], [16.07319400000017, 2.679129], [16.072269000000176, 2.67614900000018], [16.071344, 2.67193600000013], [16.071036000000106, 2.669058], [16.07093300000014, 2.665873], [16.072461, 2.662407], [16.072200000000123, 2.658355000000142], [16.071353, 2.656303], [16.070193000000188, 2.655277], [16.068967000000157, 2.654786], [16.068744, 2.654452000000163], [16.067785, 2.651709], [16.066536, 2.644884], [16.06782900000013, 2.641138], [16.068543, 2.638439], [16.07026, 2.631258], [16.071108, 2.623698], [16.07175500000011, 2.621583000000157], [16.072885000000156, 2.618706000000145], [16.074015, 2.616034], [16.075041, 2.614418000000114], [16.077776, 2.610601], [16.0809, 2.602573], [16.081517, 2.600620000000106], [16.082339000000104, 2.597640000000126], [16.082956000000138, 2.594763000000114], [16.083058, 2.591783], [16.083161, 2.587878000000103], [16.083161, 2.584898], [16.082648, 2.581713], [16.08210600000018, 2.577292000000114], [16.08196400000014, 2.5726820000001], [16.08177300000017, 2.569973000000118], [16.08091800000011, 2.568071000000145], [16.078229, 2.561777000000177], [16.077407, 2.559003000000189], [16.07617400000015, 2.556331], [16.07494, 2.553967], [16.073502, 2.552015], [16.072063000000185, 2.549652], [16.070357, 2.546132000000171], [16.06912499499998, 2.540466501000083], [16.06789300000014, 2.534801000000186], [16.067177, 2.533323000000109], [16.06552, 2.53077], [16.0650720000001, 2.52862000000016], [16.065341, 2.526291], [16.065833, 2.52441], [16.066371000000117, 2.523201000000142], [16.070043, 2.515587], [16.073502, 2.509781], [16.075351, 2.508137], [16.077407, 2.506184], [16.081003, 2.501868], [16.084412, 2.497441], [16.084938, 2.4924180000001], [16.083647, 2.488496000000112], [16.083455, 2.483091], [16.08403, 2.479169], [16.081877, 2.474338], [16.08163800000017, 2.47405], [16.078002, 2.471181000000115], [16.076615, 2.470941000000153], [16.075249, 2.46991], [16.07381000000015, 2.468471], [16.07298800000018, 2.466622], [16.072371, 2.464978], [16.072474, 2.463333], [16.073296, 2.461689], [16.07453, 2.460353], [16.07596800000016, 2.458915], [16.077715000000126, 2.45757900000018], [16.080181, 2.456037000000151], [16.082236, 2.454188000000102], [16.083161, 2.452749], [16.083881000000133, 2.450488], [16.084394, 2.448330000000169], [16.084394, 2.446892], [16.083881000000133, 2.445145], [16.083264, 2.443192000000124], [16.083367, 2.441446], [16.085319, 2.438465000000178], [16.08645, 2.437335000000132], [16.088197, 2.436616000000129], [16.090149, 2.435794000000158], [16.092307, 2.434869000000162], [16.094156000000112, 2.433841], [16.095903, 2.432197], [16.097034, 2.430450000000121], [16.09816400000011, 2.428703000000155], [16.10176100000018, 2.422024], [16.104227, 2.416989000000115], [16.10556300000013, 2.413906000000111], [16.106796, 2.411029], [16.107926, 2.407740000000103], [16.108042000000125, 2.403353], [16.108281000000147, 2.402492], [16.108807000000184, 2.401392000000158], [16.111728, 2.398903], [16.115531000000146, 2.392429000000163], [16.117226, 2.38886], [16.117800000000102, 2.382434000000103], [16.119868000000167, 2.378704], [16.124267, 2.371568], [16.12866600000018, 2.36741300000017], [16.133714, 2.364311], [16.137951000000157, 2.362061], [16.139679000000115, 2.360265], [16.141426, 2.35821], [16.142454, 2.355847], [16.143266, 2.353794], [16.143495, 2.352424], [16.143495, 2.349226000000101], [16.142956, 2.343487], [16.143517, 2.336309], [16.144669, 2.330873000000167], [16.145083000000113, 2.32981000000018], [16.146975, 2.325738], [16.148516000000143, 2.322758], [16.150366, 2.319059], [16.154579000000183, 2.309502000000123], [16.155423, 2.307102000000157], [16.155584, 2.30598], [16.16034100000013, 2.294755000000123], [16.162697, 2.291211], [16.164029, 2.28780600000016], [16.163494, 2.283851000000141], [16.162663, 2.280505], [16.162506, 2.277263], [16.163107, 2.275982000000113], [16.164467000000116, 2.275172], [16.166924, 2.271355], [16.167682000000184, 2.26827], [16.167199, 2.26651900000013], [16.166435, 2.264673000000187], [16.165353, 2.262509], [16.16267900000014, 2.258116000000143], [16.16153300000019, 2.256461000000172], [16.160387, 2.255315], [16.160041, 2.250751], [16.160144000000173, 2.245298], [16.16059900000016, 2.243992000000162], [16.161405, 2.242772000000116], [16.164713, 2.240561000000127], [16.169281000000183, 2.240106], [16.1724430000001, 2.238969], [16.1735010000001, 2.237936], [16.175283, 2.236344], [16.176748, 2.235262], [16.180186, 2.233161], [16.18193100000019, 2.232171000000164], [16.18407900000011, 2.230667], [16.185476, 2.229521], [16.186837, 2.228376], [16.191145000000176, 2.223053000000164], [16.19179702800011, 2.220334896000168], [16.19199, 2.22051], [16.19523, 2.223450000000128], [16.20876, 2.24667], [16.21093999200002, 2.252185002000033], [16.213120000000117, 2.25770000000017], [16.217282432000047, 2.265592519000108], [16.22144491, 2.27348502600006], [16.225607432000174, 2.281377519000046], [16.229770000000144, 2.289270000000158], [16.233728722000137, 2.296771159000059], [16.23768748600014, 2.304272306000144], [16.241646291000052, 2.311773441000014], [16.245605138000144, 2.319274564000125], [16.24956402700002, 2.326775675000022], [16.25352295700003, 2.334276774000102], [16.25748192900005, 2.341777862000072], [16.261440943000025, 2.349278937000122], [16.26540000000017, 2.35678], [16.268154987000116, 2.363335003000145], [16.27091, 2.369890000000112], [16.27457, 2.37402], [16.277667458000167, 2.380285011000183], [16.28076494400011, 2.386550015000012], [16.2838624580001, 2.392815011000039], [16.28696, 2.39908], [16.288580000000138, 2.40071], [16.2904, 2.402530000000183], [16.29797, 2.417930000000183], [16.29912, 2.42299], [16.303221078999968, 2.431036298000151], [16.307322206000094, 2.439082582000083], [16.311423382000157, 2.447128852000105], [16.315524608000032, 2.455175109000152], [16.319625882000082, 2.463221352], [16.32372720500007, 2.471267582000166], [16.327828578000037, 2.479313798000135], [16.331930000000114, 2.48736], [16.335369971999967, 2.492800009000177], [16.338809972000035, 2.498240009000142], [16.34225, 2.50368], [16.344274993000056, 2.508170002000099], [16.3463, 2.51266], [16.34982, 2.52046], [16.353697566000108, 2.527927225000155], [16.357575176000125, 2.535394438000083], [16.36145283000019, 2.54286163800009], [16.36533052900012, 2.550328825], [16.36920827299997, 2.55779600000011], [16.373086061000038, 2.565263162000178], [16.376963895000074, 2.572730311999976], [16.3808417730001, 2.580197449000082], [16.38471969700015, 2.587664573000097], [16.388597667000056, 2.595131684000023], [16.39247568100012, 2.60259878200003], [16.396353742000088, 2.610065868000049], [16.400231848000146, 2.617532940000103], [16.40411, 2.625000000000114], [16.407462448000103, 2.631452515000092], [16.410814931000118, 2.637905020000062], [16.414167448000114, 2.644357515000081], [16.41752, 2.65081], [16.421189984000137, 2.656325006000031], [16.42486, 2.66184], [16.428533287000107, 2.66965667900007], [16.432206620000045, 2.677473345000067], [16.43588, 2.685290000000123], [16.440011540000114, 2.692800038000144], [16.444143129999986, 2.700310060000163], [16.44827477100017, 2.707820068], [16.448574372, 2.708364638000091], [16.452406463000102, 2.715330059999985], [16.45653820600012, 2.722840038000186], [16.46067, 2.73035], [16.463190000000168, 2.732640000000117], [16.4647, 2.735540000000128], [16.474440000000186, 2.75425], [16.475820000000112, 2.759770000000117], [16.479664935000017, 2.766437520000068], [16.48350991400008, 2.773105027000042], [16.487354934999985, 2.779772520000108], [16.491200000000106, 2.78644], [16.493839986000012, 2.792530003000024], [16.496480000000133, 2.79862], [16.50038, 2.80345], [16.52013000000011, 2.8423], [16.52477, 2.88049], [16.520890000000122, 2.88786], [16.5138, 2.893390000000181], [16.507740015000024, 2.896280016000048], [16.50168, 2.89917], [16.490250000000174, 2.90931], [16.489590000000135, 2.922890000000109], [16.491457987000047, 2.963034468999979], [16.493380000000172, 3.004340000000184], [16.49666996600007, 3.010006677000035], [16.49995996600012, 3.015673344], [16.50325, 3.02134], [16.508891883000103, 3.02699206], [16.51453382400001, 3.032644090000133], [16.520175824000034, 3.038296091000177], [16.525817883000116, 3.04394806], [16.53146, 3.049600000000112], [16.54454, 3.065690000000188], [16.54431000000011, 3.070290000000114], [16.541575012000123, 3.074895004000098], [16.538840000000107, 3.07950000000011], [16.533203404, 3.086183364000135], [16.52756673700003, 3.092866698000137], [16.52193, 3.099550000000136], [16.51234, 3.12051], [16.5116700050001, 3.128215001000171], [16.511, 3.13592], [16.509060010999974, 3.141795002000151], [16.507120000000157, 3.14767], [16.50577, 3.159870000000183], [16.507379991000107, 3.165505002000089], [16.508990000000153, 3.17114], [16.513700000000142, 3.178110000000174], [16.53241, 3.20584], [16.534556641000165, 3.212050005000037], [16.536703307000153, 3.218260005000104], [16.53885, 3.22447000000011], [16.542869976000134, 3.230680008000036], [16.54689, 3.23689000000013], [16.55055998600011, 3.240910007000139], [16.55423000000019, 3.244930000000124], [16.558360000000164, 3.25343], [16.557455006000055, 3.259880001000113], [16.55655000000013, 3.26633], [16.553360026000178, 3.274500006000039], [16.55017, 3.28267000000011], [16.55456000000015, 3.30568], [16.556969990000084, 3.309815003000153], [16.559380000000147, 3.31395], [16.563893286, 3.31916002100013], [16.568406619000143, 3.32437002100005], [16.572920000000124, 3.329580000000135], [16.577070000000106, 3.34269], [16.58009, 3.368920000000116], [16.580272496000077, 3.375937502000056], [16.58045499500014, 3.382955002000188], [16.580637496000065, 3.389972502000091], [16.58082, 3.39699], [16.582920000000115, 3.416090000000167], [16.58465325700007, 3.424525012000117], [16.586386545000096, 3.432960019], [16.58811986300003, 3.441395021], [16.589853211000047, 3.449830019], [16.591586590000077, 3.458265012000084], [16.59332000000012, 3.4667], [16.594929991000186, 3.471990002000041], [16.596540000000118, 3.47728]]]}}]}