{"type": "FeatureCollection", "features": [{"type": "Feature", "properties": {"entity_id": "cf-p-haute-kotto-v1", "name_fr": "Haute-Kotto"}, "geometry": {"type": "Polygon", "coordinates": [[[21.926940000000172, 5.933048000000156], [21.934718000000146, 5.927499], [21.93671502300009, 5.925579384], [21.94359100000014, 5.910542], [21.94462600000014, 5.894125], [21.944996, 5.894443], [21.941385, 5.878887], [21.938882, 5.8572190000001], [21.941939, 5.843331000000148], [21.940271, 5.820826], [21.931101000000183, 5.778052000000116], [21.924997000000133, 5.752492], [21.919159, 5.74138100000016], [21.91082500000016, 5.729159], [21.906388, 5.721102], [21.904164, 5.704718000000128], [21.90388800000011, 5.694437000000164], [21.903333, 5.680269000000123], [21.901105, 5.671664000000135], [21.892492, 5.661384], [21.87777, 5.650825], [21.866381, 5.640828000000113], [21.861381, 5.629721000000188], [21.858331000000135, 5.615824], [21.853605, 5.614991], [21.844441000000188, 5.621108], [21.820548, 5.644999], [21.797771000000125, 5.6633250000001], [21.779996, 5.675547], [21.771108, 5.678607000000113], [21.762772, 5.676666], [21.752768000000174, 5.672497000000135], [21.742775, 5.663881], [21.719443, 5.644996], [21.685554, 5.619714], [21.661941000000127, 5.597213], [21.662769, 5.549161], [21.693324000000132, 5.549165], [21.728325, 5.545270000000187], [21.751661, 5.541661], [21.772216, 5.534165], [21.788048000000174, 5.522214000000133], [21.802494, 5.513881], [21.81638, 5.51610200000016], [21.821107, 5.514718], [21.85305200000016, 5.496383], [21.900020081000093, 5.477124657000047], [21.900368000000185, 5.477056107000067], [21.900368000000185, 5.482332424000106], [21.900646854000172, 5.484359901000062], [21.900673, 5.48455], [21.901434111000185, 5.485531242999969], [21.903726, 5.488486000000137], [21.907776000000126, 5.490270000000123], [21.910829, 5.493881000000101], [21.916381000000115, 5.49499400000019], [21.921104000000128, 5.49722], [21.925826, 5.499437000000114], [21.930554, 5.501385], [21.934715, 5.503887], [21.93805200000014, 5.507216], [21.942216, 5.509997], [21.945554000000186, 5.513326000000177], [21.948049, 5.517491000000177], [21.950828000000115, 5.521383000000128], [21.952775, 5.526102000000151], [21.9549990000001, 5.530827000000102], [21.95694, 5.535825000000102], [21.959441, 5.539720000000159], [21.963048, 5.543054000000154], [21.96583100000015, 5.547215000000165], [21.969717000000173, 5.549998], [21.973330000000146, 5.553054], [21.982221, 5.554972], [21.98476009200016, 5.555780854000147], [21.985237697000116, 5.555933], [21.985944, 5.556158], [21.995926667000106, 5.556028586000025], [21.996049, 5.556027], [21.996890168000164, 5.556444062000139], [22.000299, 5.557914], [22.006217011000103, 5.560943242000064], [22.006413071000168, 5.561043599000129], [22.006492, 5.561084000000164], [22.00561058000011, 5.561692074], [22.00283, 5.563939000000119], [22.003628, 5.565126000000134], [22.00472200000013, 5.568603], [22.009164000000112, 5.571388], [22.012493, 5.574715], [22.01638, 5.577498], [22.019996, 5.58083100000016], [22.023325000000114, 5.584158], [22.027218, 5.58666200000016], [22.030825, 5.589995], [22.034998, 5.592773], [22.037495, 5.596937000000139], [22.0408240000001, 5.600273000000129], [22.043327, 5.604158], [22.045547000000113, 5.609159], [22.044437, 5.614435000000185], [22.040829, 5.617774], [22.03471800000011, 5.61860200000018], [22.029995, 5.616388000000143], [22.024717, 5.61499700000013], [22.021935, 5.619161], [22.023047, 5.624437000000171], [22.026109, 5.628602000000171], [22.028048000000126, 5.633329000000117], [22.031387000000166, 5.636665000000107], [22.035552000000166, 5.639443], [22.041939000000184, 5.639159], [22.047492, 5.638050000000135], [22.052215, 5.635828000000117], [22.057773, 5.634441], [22.063325, 5.633331000000112], [22.068605000000105, 5.631938000000162], [22.073889000000122, 5.631658], [22.078884, 5.634165], [22.082223000000113, 5.637491], [22.08277, 5.641938], [22.082217000000185, 5.64805100000018], [22.081664, 5.654163000000153], [22.079999000000157, 5.659436], [22.078606, 5.664993], [22.077497, 5.670277000000112], [22.075547, 5.674997000000189], [22.072775, 5.67916200000019], [22.069437, 5.68249800000018], [22.066661, 5.686384], [22.059716, 5.693052], [22.05610800000011, 5.696383], [22.05360500000012, 5.700553000000127], [22.05166400000013, 5.705273], [22.050277000000108, 5.710552], [22.049162, 5.716106], [22.04805, 5.721939], [22.047492, 5.72833], [22.049162, 5.733607000000177], [22.050825, 5.738328000000138], [22.054437, 5.741938], [22.05861, 5.744436000000178], [22.061663, 5.747774000000106], [22.065830000000176, 5.750551], [22.069439, 5.753882000000146], [22.071943, 5.757775], [22.071937000000105, 5.763046], [22.071943, 5.769995000000165], [22.070551, 5.775553000000116], [22.069993, 5.781109000000129], [22.06943600000011, 5.787491], [22.068605000000105, 5.794164], [22.068608, 5.800826], [22.070883, 5.804612], [22.074937, 5.811046], [22.074917053000036, 5.811184482000101], [22.07443378400012, 5.814539649000153], [22.072991000000115, 5.819788000000131], [22.069718, 5.824993], [22.071383, 5.830548000000135], [22.072771, 5.836107], [22.07332900000017, 5.841936], [22.072778, 5.848049], [22.07221900000019, 5.854162000000144], [22.071109, 5.859994], [22.071385, 5.866941], [22.071108, 5.873328000000186], [22.07323, 5.87715500000013], [22.073278005000134, 5.87718819100013], [22.07647781700001, 5.87940052700003], [22.078456438000046, 5.880768537000051], [22.07883, 5.883653], [22.078912375000016, 5.885091825000188], [22.078935, 5.885487000000126], [22.078935, 5.886873628999979], [22.0786030000001, 5.893049000000133], [22.080824000000177, 5.897771], [22.083325000000173, 5.901941000000136], [22.086936, 5.905271000000141], [22.08999100000017, 5.908608000000186], [22.09361100000018, 5.911937000000137], [22.09693600000014, 5.915271], [22.100827, 5.91804900000011], [22.104994, 5.92138], [22.10804800000011, 5.925273], [22.111107, 5.928888], [22.117774000000168, 5.935554], [22.12055000000015, 5.939441000000102], [22.122777, 5.943883000000142], [22.12332600000019, 5.950269], [22.122777, 5.956381], [22.120826, 5.960824000000116], [22.118047, 5.964999], [22.113887, 5.967773], [22.110549000000105, 5.971103], [22.10638900000015, 5.973886000000107], [22.118063594000148, 5.984771594], [22.134991, 6.000555000000134], [22.148050000000183, 6.012495], [22.16166100000015, 6.021939], [22.178879000000165, 6.030276], [22.20082500000018, 6.036107], [22.216942000000188, 6.037777], [22.22944100000018, 6.043884000000162], [22.234441000000174, 6.054436000000123], [22.240553000000148, 6.063608], [22.251383, 6.064163], [22.259992, 6.064998], [22.26888200000019, 6.064717], [22.272491000000173, 6.061105], [22.27610600000014, 6.050555], [22.280829000000153, 6.042495000000145], [22.288887, 6.036382], [22.295827, 6.035831000000144], [22.309717, 6.039440000000127], [22.321387, 6.041382], [22.336383000000183, 6.045271000000128], [22.346388, 6.046104000000128], [22.36110200000013, 6.042494], [22.371107, 6.03805], [22.37999500000018, 6.035829000000149], [22.386107000000152, 6.037774000000127], [22.39055, 6.044165000000135], [22.439998000000116, 6.069164000000171], [22.467213000000186, 6.081939], [22.473609, 6.09083], [22.481665, 6.107494], [22.489438, 6.116661], [22.495549, 6.12555500000019], [22.500833000000114, 6.146938], [22.503054, 6.160830000000146], [22.50777200000016, 6.181386], [22.514995, 6.195824], [22.525828, 6.216938], [22.537497, 6.234442], [22.54471000000018, 6.246098], [22.559164000000123, 6.250831000000176], [22.579718, 6.254166], [22.604444, 6.257771000000105], [22.630273, 6.259717], [22.64971700000018, 6.264436], [22.664996000000144, 6.269996000000162], [22.680824, 6.274443], [22.693885000000137, 6.273605000000146], [22.710275, 6.268888000000118], [22.721383000000174, 6.263882], [22.734993, 6.260273], [22.749718, 6.259992000000182], [22.761101, 6.262772], [22.768328, 6.264996000000167], [22.779437000000144, 6.268604], [22.786386000000107, 6.270831000000157], [22.794164, 6.272777], [22.802220000000148, 6.274162], [22.812491, 6.273883], [22.821658000000127, 6.271110000000135], [22.830832000000157, 6.266382], [22.838609, 6.259991000000127], [22.84499300000016, 6.250277], [22.850272000000132, 6.239719], [22.85444, 6.228605], [22.861662, 6.21083], [22.873883, 6.187218], [23.018601, 6.146387], [23.153325000000166, 6.11138300000016], [23.271935000000155, 6.082221000000118], [23.272035, 6.082354000000123], [23.277220000000113, 6.090270000000146], [23.27971700000012, 6.09444], [23.284721000000104, 6.096386000000109], [23.288323, 6.09916], [23.292772, 6.10166], [23.295546000000115, 6.105826], [23.295274000000177, 6.112491], [23.294166000000132, 6.117773], [23.292499, 6.123324], [23.291941, 6.129439], [23.291943, 6.135277], [23.293326, 6.14082500000012], [23.296106, 6.144721], [23.297772, 6.14944], [23.295829, 6.15444], [23.293331, 6.158329000000151], [23.291664, 6.16388], [23.29110300000019, 6.169718000000103], [23.292491, 6.174996], [23.295827, 6.178329], [23.30138600000015, 6.179719], [23.3072140000001, 6.180549], [23.311381, 6.183331], [23.313325000000134, 6.188054], [23.31471400000015, 6.193333], [23.314162000000124, 6.199161000000117], [23.313883000000146, 6.20471700000013], [23.316105000000107, 6.209436000000153], [23.319441, 6.212776], [23.323608, 6.215548000000126], [23.328609, 6.216660000000104], [23.33500000000015, 6.217498], [23.33972, 6.215552000000116], [23.343048, 6.212214000000131], [23.345827000000156, 6.208051000000125], [23.350550000000112, 6.205828], [23.356664, 6.205551], [23.362496000000192, 6.206103], [23.36805, 6.207770000000153], [23.373328, 6.208885], [23.380273, 6.209159000000113], [23.386941, 6.208883], [23.39305000000013, 6.209439], [23.39722200000017, 6.212496], [23.40388, 6.217214000000126], [23.406939, 6.220549000000176], [23.410552000000166, 6.223884], [23.412774000000184, 6.228610000000117], [23.413887, 6.233882], [23.414164, 6.240546], [23.413887, 6.247219], [23.41471900000016, 6.253328000000181], [23.415832, 6.258609000000149], [23.418046000000118, 6.263327], [23.420546000000172, 6.267493000000172], [23.42332800000014, 6.271387000000118], [23.425829000000135, 6.275553], [23.429443, 6.278887], [23.432493000000136, 6.282221], [23.436107, 6.285554000000104], [23.438053, 6.290275], [23.440276, 6.294992], [23.44332700000018, 6.298325], [23.448323, 6.300276000000167], [23.453051, 6.302212000000111], [23.458328, 6.303880000000106], [23.462497, 6.306658], [23.46693800000014, 6.308608000000163], [23.47194300000018, 6.310549000000151], [23.47583, 6.313054000000136], [23.48054900000011, 6.315554], [23.484444000000167, 6.318050000000142], [23.4880500000001, 6.321382000000142], [23.490551, 6.325547000000142], [23.494166, 6.32888], [23.497494, 6.332217], [23.50138100000015, 6.334721000000172], [23.50555000000014, 6.337498], [23.510278, 6.339442000000133], [23.51499200000012, 6.341664000000151], [23.519720000000177, 6.343608], [23.523889000000167, 6.346385000000168], [23.527776, 6.348880000000179], [23.532494000000156, 6.350824000000102], [23.537499, 6.353326000000152], [23.541941, 6.35527500000012], [23.546105000000125, 6.35777400000012], [23.54944300000011, 6.361109], [23.553603, 6.363886], [23.557490000000143, 6.36638], [23.561660000000188, 6.369164000000183], [23.564716, 6.372773000000166], [23.56693900000016, 6.374713], [23.662215, 6.423052], [23.771940000000143, 6.486381], [23.886386, 6.550825], [23.99111, 6.608604000000184], [24.096384, 6.667775000000177], [24.260706, 6.752611000000115], [24.262777746999973, 6.756027787000107], [24.263053000000127, 6.76222], [24.263604, 6.768604000000153], [24.26583, 6.773331], [24.268326000000116, 6.777221000000111], [24.274439, 6.777773000000138], [24.27777500000019, 6.774717], [24.281941, 6.771663000000103], [24.286106, 6.76944], [24.29110300000019, 6.767771000000153], [24.297498000000132, 6.768604000000153], [24.303054, 6.769997000000103], [24.306658, 6.772499], [24.310277, 6.775831], [24.31082400000014, 6.781938000000139], [24.308885, 6.78694], [24.303332, 6.786664], [24.298604000000182, 6.787497], [24.298047, 6.79333], [24.297219000000155, 6.799437], [24.295829, 6.804714000000104], [24.289717, 6.805547000000104], [24.284993, 6.807497000000126], [24.282215, 6.811658], [24.28249, 6.818047000000149], [24.284164, 6.822775], [24.288327, 6.825552], [24.294437000000187, 6.82638], [24.30054900000016, 6.82694], [24.306382000000156, 6.827773], [24.3119420000001, 6.828888], [24.31582900000018, 6.831661000000167], [24.319441, 6.834992000000113], [24.321943000000147, 6.839158000000168], [24.328053000000125, 6.839994], [24.331388, 6.843331000000148], [24.329993, 6.848323000000164], [24.32805500000012, 6.853326], [24.325272, 6.85722], [24.323328000000174, 6.861938000000123], [24.324718, 6.867215000000101], [24.325831000000164, 6.87249700000018], [24.328334000000154, 6.876663], [24.333331, 6.878609000000154], [24.34027300000014, 6.878607000000159], [24.345272, 6.877499000000114], [24.34943600000014, 6.880274], [24.349437, 6.885275000000149], [24.346660000000156, 6.889437], [24.341946000000178, 6.891387000000122], [24.335272, 6.891385000000128], [24.331386, 6.894158], [24.329443, 6.898884000000123], [24.327778000000137, 6.904159000000107], [24.32582500000018, 6.908886], [24.32499300000012, 6.914715], [24.32361100000014, 6.920270000000187], [24.322492000000125, 6.925552], [24.31999400000018, 6.930272000000116], [24.318882, 6.934160000000134], [24.323053000000186, 6.937221], [24.328330000000165, 6.938331], [24.334444000000133, 6.93888800000019], [24.34027700000013, 6.939719], [24.34444200000013, 6.942493000000184], [24.345834, 6.94777], [24.346665, 6.953602000000103], [24.34777700000018, 6.95916], [24.349721000000102, 6.963881], [24.354442, 6.965831], [24.361107000000175, 6.966662], [24.36666700000012, 6.964998], [24.371387, 6.963332], [24.376104, 6.961104000000148], [24.381381, 6.961382], [24.384718000000134, 6.964717000000121], [24.38805500000018, 6.968052], [24.39305300000018, 6.969996], [24.398054, 6.971663], [24.402491, 6.974163], [24.406389000000104, 6.976942000000179], [24.41249900000014, 6.977774], [24.418049000000167, 6.976109000000179], [24.423048, 6.974991], [24.428606, 6.976387000000102], [24.434442000000104, 6.976939000000129], [24.439997000000176, 6.975550000000112], [24.44333, 6.9724930000001], [24.448324, 6.970276000000183], [24.453607, 6.969161], [24.458882, 6.970268], [24.465274, 6.97138], [24.471108000000186, 6.970548000000122], [24.475276, 6.973052], [24.47971600000011, 6.975274000000184], [24.486105, 6.975832], [24.492221, 6.97527], [24.4961100000001, 6.978047000000117], [24.49861, 6.981942000000174], [24.500000000000114, 6.987492], [24.50194, 6.991942000000165], [24.505554, 6.995268000000181], [24.509439, 6.998331000000121], [24.512216, 7.002219000000139], [24.514165, 7.00666], [24.516387, 7.011380000000145], [24.520276000000138, 7.014165000000162], [24.524164000000155, 7.011658], [24.528329000000156, 7.009163], [24.532491, 7.006106], [24.536384000000112, 7.003885000000139], [24.541658, 7.00499], [24.544436, 7.008887], [24.545827, 7.014436], [24.547216, 7.019441], [24.548331, 7.024995000000104], [24.551936000000126, 7.028330000000153], [24.555274, 7.031662000000154], [24.556944, 7.036384], [24.555826, 7.04194], [24.554434, 7.047216000000105], [24.553048000000103, 7.052768000000128], [24.553047, 7.059158], [24.552218, 7.065270000000169], [24.551103000000126, 7.070549], [24.548331, 7.074721], [24.545553, 7.078607], [24.543326, 7.083606000000145], [24.540828, 7.087218], [24.53944200000018, 7.092771], [24.539993000000152, 7.098605], [24.542217000000107, 7.103325], [24.544716000000108, 7.107494], [24.546663, 7.112219], [24.548611000000164, 7.116935000000183], [24.55055, 7.121660000000134], [24.552769000000126, 7.126103], [24.55388, 7.131381], [24.554719000000148, 7.137771], [24.554719000000148, 7.14416000000017], [24.553602000000126, 7.150546], [24.552492, 7.155549000000121], [24.551385, 7.161106], [24.55027500000017, 7.16693800000013], [24.551109, 7.173052], [24.551661, 7.178886000000148], [24.551664000000187, 7.185828], [24.554435000000126, 7.189715000000149], [24.55749900000012, 7.19305], [24.562499000000116, 7.194997], [24.562214, 7.200554], [24.56027100000017, 7.204995], [24.557777, 7.209161000000108], [24.55360300000018, 7.212498000000153], [24.548048000000108, 7.213882], [24.542493, 7.215275], [24.538608000000124, 7.21749], [24.53582400000016, 7.221940000000131], [24.5375, 7.227215000000172], [24.538603, 7.232493], [24.541385, 7.236387], [24.542494, 7.241942000000108], [24.542213000000118, 7.248052], [24.538325000000157, 7.251383], [24.532495, 7.251658], [24.52833100000015, 7.249158000000136], [24.524439000000143, 7.246384], [24.519437, 7.244437000000119], [24.514435, 7.245828], [24.51111, 7.249165000000175], [24.509443, 7.254439000000104], [24.510279, 7.260553], [24.513602, 7.263883], [24.516944000000137, 7.267213], [24.520268, 7.270552000000123], [24.521111000000133, 7.275273000000141], [24.519435, 7.280548000000124], [24.51749800000016, 7.285275], [24.514721, 7.289163], [24.512772, 7.294157], [24.51194, 7.299994], [24.511382, 7.306102], [24.509162000000174, 7.31055], [24.50916400000017, 7.316101000000117], [24.50971800000019, 7.321935], [24.511383, 7.327496], [24.512497, 7.332774000000143], [24.514443000000142, 7.337222000000111], [24.517774, 7.340828], [24.520271, 7.344719000000111], [24.523331000000155, 7.348607000000129], [24.525826000000166, 7.352775000000179], [24.528609, 7.35666], [24.531103000000144, 7.360828], [24.532769000000144, 7.366379000000109], [24.53333, 7.372499], [24.53360800000013, 7.37833], [24.535269, 7.383604000000162], [24.539164, 7.386385], [24.545275000000174, 7.385825], [24.54777, 7.389992], [24.548603, 7.395828000000108], [24.54860500000018, 7.402495], [24.548329, 7.409158000000104], [24.550551, 7.413885], [24.55444000000017, 7.41638], [24.560546, 7.4172200000001], [24.565824, 7.418604], [24.566664000000117, 7.424717000000101], [24.56666600000011, 7.431383], [24.56805100000014, 7.436663000000181], [24.570556000000124, 7.440829], [24.572492, 7.445552], [24.574717000000135, 7.449992], [24.57638500000013, 7.454712], [24.578607, 7.459438], [24.580552000000125, 7.464160000000106], [24.581387, 7.469996], [24.582493000000113, 7.475549000000115], [24.584438, 7.480272], [24.589162, 7.480828], [24.595277, 7.481658], [24.596104, 7.487493], [24.590556, 7.48888200000016], [24.584992000000113, 7.489995], [24.58055300000018, 7.492216000000155], [24.577220000000125, 7.495547], [24.573052, 7.498324], [24.568330000000117, 7.500275000000101], [24.56361, 7.501941000000102], [24.55944200000016, 7.504718], [24.55527700000016, 7.507219], [24.555551, 7.512773], [24.562773, 7.517496000000165], [24.563095300999976, 7.517997372000082], [24.55221300000011, 7.528054000000111], [24.54666400000019, 7.529443000000128], [24.54194100000018, 7.531385], [24.539720000000102, 7.536102], [24.539715, 7.542769000000135], [24.53832700000015, 7.548324], [24.536935, 7.553325], [24.535546, 7.558881], [24.533606000000134, 7.563332000000116], [24.531385, 7.568049000000144], [24.52999700000015, 7.573604], [24.527492000000166, 7.577221000000179], [24.52555500000011, 7.582217], [24.518602, 7.588886], [24.51527, 7.591941], [24.511943, 7.595549000000176], [24.508880000000147, 7.599436], [24.506382, 7.60333], [24.503603000000112, 7.607497], [24.502498000000173, 7.612493], [24.500832000000173, 7.618055], [24.49943800000011, 7.623325000000136], [24.498327, 7.628884], [24.496109, 7.633324000000187], [24.495547, 7.639442000000145], [24.494443, 7.645269000000155], [24.494165000000123, 7.651666], [24.493052, 7.657492], [24.493330000000128, 7.662770000000137], [24.493881, 7.668605], [24.495276, 7.674161], [24.496385000000146, 7.679715000000101], [24.498054, 7.684712000000161], [24.49999400000013, 7.689435000000174], [24.501666000000114, 7.694164000000114], [24.502494, 7.699992], [24.501666000000114, 7.706107], [24.5019410000001, 7.712768], [24.500277, 7.718331], [24.49832800000013, 7.722775], [24.49638300000015, 7.727773], [24.49361, 7.731387], [24.490273000000116, 7.734997], [24.486942, 7.738053], [24.484166, 7.741936], [24.481943000000115, 7.746940000000166], [24.48083, 7.751937000000112], [24.48054800000017, 7.758888], [24.481387000000154, 7.764716000000135], [24.482497000000137, 7.770270000000153], [24.484716, 7.774995000000104], [24.486667, 7.779718000000116], [24.488325, 7.784161], [24.489162, 7.790275000000122], [24.488325, 7.796381000000167], [24.47388800000016, 7.819158], [24.46721700000012, 7.837493], [24.463605, 7.862775], [24.46221500000013, 7.88416], [24.462214, 7.910272], [24.460549000000128, 7.914157000000102], [24.45527600000014, 7.919991000000152], [24.450556, 7.926937], [24.449165, 7.934165000000178], [24.453051, 7.943887], [24.46027700000019, 7.94972], [24.464720000000113, 7.952492], [24.468882, 7.960547], [24.473328, 7.98583200000013], [24.479999, 8.019991000000118], [24.484166, 8.058323], [24.478327, 8.071662], [24.473887, 8.074444], [24.466663, 8.078049], [24.45944400000019, 8.08110100000016], [24.453053, 8.0858300000001], [24.448603000000105, 8.092772], [24.444998, 8.098329], [24.437497, 8.103888], [24.431939000000114, 8.106383000000164], [24.4255500000001, 8.108604], [24.42027, 8.113048], [24.417498, 8.118604], [24.418052, 8.128055], [24.418882000000167, 8.13666], [24.41916600000019, 8.152492000000109], [24.414718, 8.162212], [24.406943000000126, 8.167216000000167], [24.399718, 8.168608], [24.391941, 8.170550000000162], [24.382778, 8.172220000000152], [24.373325, 8.174164], [24.361663000000192, 8.178607000000113], [24.338052, 8.199716], [24.291385, 8.236940000000118], [24.273901, 8.273433], [24.27466930700018, 8.275983550000092], [24.27307791000004, 8.276629440000079], [24.27219859300004, 8.276986302000125], [24.266130679000128, 8.279448907000187], [24.259183350000058, 8.282268252000165], [24.252235921000135, 8.285087476000172], [24.24450495600007, 8.286877859000072], [24.236773922000054, 8.288668091000034], [24.229042817000106, 8.290458174000094], [24.202909607000038, 8.305398310999976], [24.199119818999975, 8.312885405999964], [24.195329888, 8.320372463000126], [24.190441510000028, 8.325052967000147], [24.18555301700013, 8.32973340899997], [24.18066440700011, 8.334413790000099], [24.177928086000122, 8.340336490000027], [24.175191683000094, 8.346259169000064], [24.172455196999977, 8.352181828000141], [24.168338803000097, 8.357321979000062], [24.1642223020001, 8.362462086], [24.160308100000066, 8.365871037999966], [24.15639383000007, 8.369279951000067], [24.153941957000143, 8.373931129000141], [24.15354485000006, 8.379251381000131], [24.15496934000015, 8.385899001000041], [24.152832634000106, 8.391122137000025], [24.15069587000005, 8.396345260999965], [24.15310672800001, 8.402132473999984], [24.155517658, 8.407919670000126], [24.15913342600004, 8.413241615000175], [24.162749293, 8.418563524999968], [24.16636525900003, 8.423885400000017], [24.166127847000155, 8.42910853], [24.165890429, 8.434331659000065], [24.165028527000118, 8.439804721000144], [24.1641666000001, 8.445277780000083], [24.167640022000114, 8.451675486000113], [24.171113559, 8.45807315899998], [24.16817179800006, 8.465534919999982], [24.165229924000187, 8.472996656000134], [24.16228793700003, 8.480458367000097], [24.166640220000147, 8.483843531000105], [24.170992580000018, 8.48722864600012], [24.176437909000185, 8.487294628000086], [24.181883239000058, 8.487360534], [24.203876790000038, 8.50036747300004], [24.205886912000096, 8.50828988800015], [24.20789711600014, 8.516212290000169], [24.210748036000155, 8.522670809000147], [24.21359905200012, 8.529129304000094], [24.21645016400015, 8.535587777000046], [24.22078514599997, 8.543155801000069], [24.225120298000036, 8.550723774000176], [24.229455622000103, 8.558291695000094], [24.233791117000067, 8.565859565000096], [24.241228828000033, 8.569309670000166], [24.24866667300006, 8.572759631000054], [24.256104652000033, 8.576209448000156], [24.255621071000064, 8.584430503000078], [24.255137469000033, 8.592651553000167], [24.250108436000062, 8.598648220000086], [24.245079245000056, 8.60464482000009], [24.24004989500014, 8.610641353000062], [24.23502038700019, 8.616637817000026], [24.229990721000036, 8.62263421400013], [24.223220442000013, 8.641977867000037], [24.22335924500004, 8.642150832000084], [24.228735666000034, 8.648850650000043], [24.234112276000076, 8.655550390000144], [24.239489077000087, 8.662250052000047], [24.24455383300011, 8.665890483000112], [24.24961868600002, 8.669530847000033], [24.25468363700014, 8.673171142000058], [24.263842113000123, 8.681632355000147], [24.26465506600016, 8.69121468100002], [24.25892914400015, 8.695128205], [24.253203104000136, 8.699041642000054], [24.245466238000176, 8.699281792000022], [24.237729363000142, 8.699521785000115], [24.229992477, 8.69976162100005], [24.221920131, 8.696081946000163], [24.21384794300019, 8.692402099000049], [24.20577591200015, 8.688722081000037], [24.197704037999983, 8.685041891000026], [24.189817474999984, 8.689509258000044], [24.18193072600019, 8.69397646100009], [24.17404379000004, 8.698443499000064], [24.166156667000052, 8.70291037300018], [24.160369813000102, 8.698062238000034], [24.154583107000065, 8.693214013999977], [24.1487965500001, 8.688365701], [24.145710126000154, 8.6848044890001], [24.14262376000005, 8.681243252], [24.13811290600006, 8.683854843], [24.133601990000045, 8.686466381000116], [24.124732625000092, 8.688401793000025], [24.115863170000125, 8.690336999000067], [24.107932337000022, 8.69111107499998], [24.100001472000088, 8.691884986000161], [24.09207057500015, 8.69265873200004], [24.084139645000107, 8.693432313000017], [24.076208682000185, 8.694205729000089], [24.068097337999973, 8.694053593000092], [24.059986001000027, 8.693901284], [24.051874671, 8.693748803000119], [24.045156964000114, 8.689528108000047], [24.0384394080001, 8.685307293000108], [24.03172200200015, 8.681086359000119], [24.02500474599998, 8.676865305999968], [24.01828764000004, 8.672644133000063], [24.011570684000105, 8.668422842000098], [24.006347541000025, 8.667473218000055], [24.001124425000057, 8.666523522000148], [23.997800526000105, 8.661458699000036], [23.994476716000065, 8.656393846000128], [23.991152995000107, 8.651328962999969], [23.98759171000006, 8.644918776000111], [23.984030545000053, 8.638508553000065], [23.969310816000075, 8.637558893000175], [23.964348426000186, 8.654590394000081], [23.964455469000086, 8.661981449000109], [23.964562516000115, 8.669372502000158], [23.964918618000127, 8.676613664000115], [23.965274734000104, 8.683854823], [23.96563086300017, 8.691095978000078], [23.965987006000034, 8.69833713100013], [23.959526937000135, 8.70405278100003], [23.9530666710001, 8.709768320000137], [23.94660620999997, 8.715483747000064], [23.938481959000057, 8.716451277000033], [23.93035766700018, 8.717418634000012], [23.92223333300018, 8.718385816000136], [23.91410895700011, 8.719352825000101], [23.905984539000087, 8.720319660000087], [23.89703806500006, 8.719836385000121], [23.888091614000132, 8.719352899000114], [23.879145187000177, 8.718869202000121], [23.870198782000045, 8.71838529500019], [23.865040581000017, 8.722254096000086], [23.85988227400003, 8.726122826999983], [23.854723860000036, 8.729991486000074], [23.846341150000114, 8.727413074000083], [23.837958556000046, 8.72483447600007], [23.829576076000137, 8.722255693000136], [23.82119371200008, 8.71967672400018], [23.812811463000116, 8.717097570000135], [23.80442932800014, 8.714518231000113], [23.796047308000084, 8.711938707000058], [23.78766540400005, 8.709358998000027], [23.779283614000065, 8.706779102999974], [23.732858848000035, 8.713549382000167], [23.727055902000075, 8.718385384999976], [23.721252806000052, 8.723221298000169], [23.715449561000128, 8.728057121000177], [23.70790549000003, 8.727477111000155], [23.700361442000087, 8.726896952000175], [23.692817417000185, 8.726316642000143], [23.685273416000086, 8.725736183000151], [23.677729438000142, 8.725155573000052], [23.670273439000027, 8.72939691900018], [23.662817272000154, 8.733638117999988], [23.655360936000136, 8.737879170000099], [23.64790443100003, 8.742120074000127], [23.64044775800005, 8.746360830000185], [23.632990917000086, 8.750601438000047], [23.6255339060001, 8.754841899000155], [23.61735449500003, 8.750923684000043], [23.609175256000185, 8.747005291000107], [23.600996188000067, 8.743086721000111], [23.59281729000014, 8.739167974000111], [23.586952883000095, 8.734104107000121], [23.58108863400014, 8.729040147000148], [23.575224543000104, 8.723976096000115], [23.56936061000016, 8.718911953000031], [23.563496835000024, 8.713847718000181], [23.557633218000092, 8.708783391000111], [23.545451465000156, 8.700382914000045], [23.52684894700019, 8.698074460000157], [23.517993016000105, 8.70381522100007], [23.51347403000011, 8.713531691000014], [23.516955978999988, 8.720970729000044], [23.520438065000178, 8.728409732000102], [23.52392028900016, 8.735848700000133], [23.52263979500009, 8.742600946000152], [23.521359255000164, 8.749353185000075], [23.5200786690001, 8.756105418000175], [23.517251207000072, 8.759747139000126], [23.51442369000017, 8.763388839000186], [23.50682641000003, 8.77715890900015], [23.497833468000067, 8.809300462000067], [23.5031454060001, 8.816167546000031], [23.50845754, 8.823034553000014], [23.51376987000009, 8.829901482000025], [23.51908239700009, 8.836768333], [23.524395120000122, 8.843635107000125], [23.528236229000015, 8.851344484000037], [23.532077497000046, 8.859053818000177], [23.535918926000022, 8.86676310900009], [23.539760515000182, 8.874472358000105], [23.543602264000185, 8.88218156400012], [23.547444174000077, 8.889890726999965], [23.551286245000085, 8.897599848000027], [23.555128476000107, 8.9053089250001], [23.558970868000074, 8.913017960000161], [23.562813422000033, 8.92072695200011], [23.566656136, 8.928435901000114], [23.570499012000028, 8.936144807000062], [23.57434205000004, 8.943853671], [23.578185249000114, 8.951562491000118], [23.582028610000066, 8.95927126800018], [23.585872133000066, 8.966980001000024], [23.589715818, 8.97468869200003], [23.58852253900011, 8.983140579000064], [23.58732920400007, 8.99159245900006], [23.5861358140001, 9.000044331000026], [23.584942369000032, 9.008496195000134], [23.5830366350001, 9.022883428000114], [23.582324378000067, 9.028818801000114], [23.577142444000117, 9.034654016000047], [23.569029138000076, 9.031192951000094], [23.56602177900004, 9.025020188000155], [23.563014522000174, 9.018847398000105], [23.560007368000072, 9.01267458100017], [23.555971263000117, 9.008163719000152], [23.551935259000174, 9.003652812000041], [23.55098557700012, 8.99510587500015], [23.550035939000054, 8.986558932000037], [23.539589679000073, 8.956644643000175], [23.509439660000112, 8.949541944000032], [23.502186294000182, 8.95316937900003], [23.49493278400007, 8.95679667100012], [23.487679130000117, 8.960423821000063], [23.48042533199998, 8.964050827000108], [23.473171391000108, 8.967677691000176], [23.465917305000175, 8.971304411000062], [23.45866307600005, 8.974930989000086], [23.451408702000094, 8.978557423000098], [23.454211768, 8.98597291700014], [23.45701494700006, 8.993388387000152], [23.459818241000164, 9.000803832000031], [23.45997651100015, 9.009034221999968], [23.460134788000175, 9.017264608000062], [23.460293072000127, 9.02549499100013], [23.462350571000115, 9.034041946], [23.46440816800009, 9.042588886000033], [23.466465861000074, 9.051135810000062], [23.465266141000086, 9.05904631900006], [23.464066369000136, 9.066956820000087], [23.462866544000065, 9.074867314000187], [23.461666666999974, 9.082777800000144], [23.463483865000057, 9.090995074000034], [23.46530114700016, 9.099212336000107], [23.46711851100008, 9.10742958500009], [23.46893595800009, 9.115646821000041], [23.47075348900006, 9.123864045000118], [23.47257110200013, 9.132081255], [23.47438879900011, 9.14029845300007], [23.474882255000125, 9.142529101000093], [23.474882256, 9.142529102000026], [23.459158000000173, 9.148608], [23.453886, 9.159438], [23.449712, 9.17027], [23.448881, 9.179993], [23.450552, 9.189997000000176], [23.451381, 9.19944], [23.454718000000128, 9.211661000000163], [23.45777100000015, 9.220272000000136], [23.467779, 9.233327], [23.46972000000011, 9.235000000000127], [23.463329000000158, 9.237497000000133], [23.455556, 9.240555], [23.44277700000015, 9.241941000000168], [23.433049000000153, 9.241661], [23.41583100000014, 9.239436000000183], [23.408436, 9.23652200000015], [23.403887, 9.234713], [23.391659000000118, 9.228608], [23.382491, 9.222771000000137], [23.372496000000183, 9.214715], [23.364721, 9.20527200000015], [23.356109, 9.189714], [23.347217, 9.173330000000135], [23.33916100000016, 9.14221300000014], [23.335273, 9.108886], [23.331662000000165, 9.079160000000115], [23.32665900000012, 9.05611], [23.321943, 9.037217], [23.321384000000137, 9.034436000000142], [23.320278, 9.027494], [23.31249400000013, 9.0199980000001], [23.303884, 9.012215], [23.292775000000177, 9.003046], [23.28, 8.99583100000018], [23.26943800000015, 8.991664000000185], [23.26000000000016, 8.989719], [23.248052, 8.98916400000013], [23.236942000000113, 8.988608000000113], [23.224997000000144, 8.987775000000113], [23.214158, 8.98611], [23.200828, 8.982217000000162], [23.188887, 8.97444], [23.174716000000103, 8.960827000000108], [23.172886, 8.959551], [23.131944, 8.931103000000121], [23.102222000000154, 8.911939], [23.092497, 8.903605], [23.08694000000014, 8.895547], [23.080274000000145, 8.88082900000012], [23.076943, 8.837492000000111], [23.078882, 8.800554], [23.0802690000001, 8.787774000000127], [23.077217000000132, 8.775825], [23.072491, 8.767218000000184], [23.065823000000137, 8.759163], [23.05693700000012, 8.753879000000154], [23.049162, 8.751663000000121], [23.03804900000017, 8.751659000000132], [23.028604, 8.754719], [23.020276, 8.7577730000001], [23.008606000000157, 8.762494000000117], [22.99333300000012, 8.760552000000189], [22.96361, 8.753055000000188], [22.938325000000134, 8.751385], [22.922496000000137, 8.747497], [22.833611, 8.712773], [22.814997, 8.701110000000142], [22.682771, 8.701102], [22.671384, 8.699997], [22.657217, 8.694714], [22.644166, 8.688054], [22.619717, 8.669999000000132], [22.59249300000016, 8.652776], [22.581108000000143, 8.645549], [22.566663, 8.632219], [22.559164000000123, 8.621380000000102], [22.548055, 8.608888], [22.54055, 8.599994], [22.532214000000124, 8.591385], [22.521943, 8.586105], [22.514990000000182, 8.583604], [22.506658000000186, 8.582493000000113], [22.49388800000014, 8.581658000000118], [22.482773000000122, 8.582494], [22.47277, 8.58805400000017], [22.462769, 8.593327000000158], [22.449159000000122, 8.598886], [22.434712000000104, 8.599992], [22.425553, 8.597218], [22.412221000000102, 8.592218], [22.391106, 8.591657], [22.379442, 8.57971300000014], [22.37749200000019, 8.573047000000145], [22.372215, 8.567773], [22.366110000000106, 8.565826], [22.353604, 8.565276], [22.329443, 8.56861], [22.310551000000146, 8.57361], [22.27610600000014, 8.576382], [22.218051000000116, 8.578331000000162], [22.168605, 8.581942], [22.149439, 8.585828000000163], [22.133326000000125, 8.591381], [22.114442000000167, 8.602219000000105], [22.103603, 8.613052], [22.093333, 8.620551], [22.075277, 8.623329], [22.051665, 8.617497000000185], [22.029441, 8.613048000000106], [22.010272000000157, 8.606943], [22.002218, 8.604719], [21.991942000000165, 8.596941], [21.9722220000001, 8.575547], [21.965552000000173, 8.561657], [21.95916300000016, 8.54527300000018], [21.956108, 8.52415800000017], [21.9591640000001, 8.496664000000123], [21.963326, 8.481383000000164], [21.970276, 8.469160000000102], [21.980552000000102, 8.45333], [21.992216, 8.436937000000114], [21.998602, 8.42249800000019], [22.001665000000173, 8.405828], [22.00027400000016, 8.386661000000117], [21.992771, 8.368051], [21.984995, 8.353326], [21.977215, 8.337216000000126], [21.96916300000015, 8.319997], [21.96165900000011, 8.304160000000138], [21.958329000000106, 8.289713], [21.958054, 8.280269], [21.9625, 8.268048], [21.971107, 8.259715000000142], [21.980276, 8.253609000000154], [21.98527, 8.24999200000019], [21.990828000000192, 8.244165000000123], [21.994994, 8.234994], [21.994439, 8.22554700000012], [21.989715000000103, 8.218328], [21.966382, 8.211387], [21.928329000000133, 8.203047], [21.899157000000173, 8.195825000000127], [21.87666300000012, 8.195277], [21.860554, 8.202218], [21.852775000000122, 8.213329000000158], [21.847498000000144, 8.22888], [21.842492, 8.249162], [21.835829000000103, 8.263327], [21.827775, 8.270553000000177], [21.811384, 8.279163], [21.801383, 8.284437], [21.788049, 8.294719], [21.779996, 8.305828000000133], [21.777217000000178, 8.314159000000188], [21.774712, 8.321103000000107], [21.774163, 8.326386], [21.770832000000155, 8.333047], [21.767217000000187, 8.335275000000138], [21.754441, 8.337219], [21.72515200000015, 8.329879], [21.720276, 8.321384], [21.701112, 8.30805], [21.682775, 8.295554], [21.668602, 8.288054000000159], [21.65582400000011, 8.284162000000151], [21.64194, 8.28416], [21.627216, 8.284721], [21.62194200000016, 8.283326000000102], [21.618886, 8.281381000000124], [21.614999000000182, 8.275550000000123], [21.609715000000108, 8.262776], [21.605274, 8.246941000000163], [21.60166000000015, 8.235828], [21.597771, 8.2330520000001], [21.59055400000011, 8.234717], [21.578607, 8.239993], [21.564439000000107, 8.245826], [21.55027600000011, 8.252494], [21.541109000000176, 8.255827000000124], [21.529998, 8.257214000000147], [21.512772000000155, 8.256659], [21.49527000000012, 8.256388], [21.479992, 8.252492], [21.479715, 8.233329], [21.479715, 8.22833], [21.47444, 8.217493], [21.46527600000013, 8.208327000000168], [21.445268, 8.1936070000001], [21.426103000000126, 8.184159000000136], [21.40610900000013, 8.174722], [21.393879, 8.169998000000135], [21.384438000000102, 8.162495], [21.378608, 8.149999], [21.381943, 8.133329000000174], [21.40082400000017, 8.093882000000178], [21.452774, 8.000547000000154], [21.39999900000015, 7.999717], [21.299718, 7.999719], [21.199716, 7.999718], [21.121941000000163, 7.999714000000154], [21.12415900000019, 7.953054], [21.129166, 7.930552], [21.131107, 7.916661000000147], [21.12943600000017, 7.902499], [21.125274, 7.891935000000103], [21.117219, 7.881663], [21.111659000000145, 7.874161000000129], [21.10416700000019, 7.862215000000106], [21.10166, 7.847497], [21.102499, 7.839442], [21.10832500000015, 7.826384000000189], [21.117213000000106, 7.813049], [21.125548, 7.798885], [21.127499000000114, 7.77305500000017], [21.129918, 7.741543], [21.12999400000018, 7.740553], [21.130826, 7.703324], [21.131558198999983, 7.703638251000029], [21.141661, 7.70055], [21.1499960000001, 7.693882], [21.163049000000115, 7.683052000000146], [21.176936000000183, 7.663881], [21.187773000000107, 7.648325], [21.199157, 7.631943000000149], [21.213881, 7.619714000000158], [21.226388, 7.612491], [21.244998, 7.606664], [21.26471800000013, 7.604714000000172], [21.279996000000153, 7.604160000000149], [21.300274, 7.602219000000161], [21.321661000000177, 7.595549000000176], [21.335271, 7.585826], [21.360551, 7.568883], [21.381659, 7.553332000000182], [21.392493000000115, 7.540828000000147], [21.403608000000133, 7.524714000000188], [21.412491, 7.509442], [21.420552, 7.492771], [21.423886, 7.477491], [21.424998000000187, 7.459996], [21.423604000000125, 7.438609], [21.41999800000019, 7.410555], [21.41610900000012, 7.380832000000112], [21.41360200000014, 7.36444100000017], [21.411381, 7.352776000000119], [21.40915800000016, 7.342216000000121], [21.409993000000156, 7.32888800000012], [21.414441000000124, 7.319437000000107], [21.420553, 7.313047], [21.430271000000175, 7.306938000000116], [21.447213, 7.304160000000138], [21.461386000000175, 7.303605], [21.476945, 7.303049], [21.497496, 7.302213000000165], [21.509994000000177, 7.303605], [21.5183320000001, 7.305552], [21.528054, 7.308602000000178], [21.538601000000142, 7.311388], [21.553602000000183, 7.311664], [21.565276, 7.307214], [21.575549, 7.296943], [21.581941, 7.284715000000119], [21.583047, 7.273608], [21.583333, 7.266664000000105], [21.580000000000155, 7.232494000000145], [21.57833200000016, 7.207495000000108], [21.57582600000012, 7.17610800000017], [21.582774, 7.143048], [21.588884000000178, 7.126107], [21.59499200000016, 7.09777], [21.598325, 7.069716], [21.600829000000147, 7.052217], [21.601662000000147, 7.02472], [21.602498, 7.003047], [21.60303954900013, 7.00021816900005], [21.603880000000117, 6.995828000000131], [21.60444200000012, 6.991659], [21.609437, 6.989998], [21.618328, 6.988327], [21.625275, 6.98666500000013], [21.635271, 6.980547], [21.637772, 6.969161], [21.636940000000152, 6.960553], [21.634164000000112, 6.950554000000125], [21.631107000000156, 6.937214], [21.63277, 6.924995000000138], [21.636109, 6.917498000000137], [21.639997000000108, 6.911943], [21.648329000000103, 6.899442], [21.65083, 6.892496], [21.653884000000176, 6.879998000000114], [21.653603, 6.870826], [21.651107, 6.867221], [21.646664, 6.861387], [21.642214, 6.856938000000127], [21.63888, 6.852499], [21.637776, 6.851382000000115], [21.63833, 6.845272000000136], [21.641657000000123, 6.839438], [21.646107, 6.831657], [21.645831, 6.8227720000001], [21.644999, 6.817221000000188], [21.643606, 6.81138], [21.639717, 6.805826], [21.630827, 6.801383000000158], [21.619995000000188, 6.794998], [21.617216, 6.793607000000179], [21.610551, 6.789438000000189], [21.607776000000115, 6.786384000000112], [21.606387, 6.780831], [21.607221, 6.768884], [21.612221, 6.763054000000125], [21.620275, 6.760275], [21.62805200000014, 6.756385], [21.633611, 6.746108000000106], [21.63555, 6.732772000000125], [21.635830000000112, 6.718325000000107], [21.635828000000117, 6.706938], [21.636102, 6.694721], [21.639439000000152, 6.686938000000168], [21.643884, 6.679993], [21.65138400000012, 6.67166], [21.656659000000104, 6.663608], [21.66194, 6.651386], [21.664442000000122, 6.643048], [21.66666000000015, 6.64027700000014], [21.674441, 6.634160000000122], [21.681936, 6.630833000000166], [21.684716, 6.629717], [21.691660000000127, 6.623602000000176], [21.693886, 6.619438], [21.69526900000011, 6.611386000000152], [21.695827, 6.606103000000189], [21.698609, 6.599164], [21.701105000000155, 6.593047000000126], [21.704160000000172, 6.589717000000121], [21.707773000000145, 6.587772000000143], [21.71444300000013, 6.58665800000017], [21.729167000000132, 6.585829000000103], [21.736108000000172, 6.587497], [21.75083, 6.587216000000126], [21.75832400000013, 6.586665], [21.772214, 6.584715000000131], [21.77832700000016, 6.581658000000175], [21.781102, 6.580272], [21.791382000000112, 6.568605000000161], [21.794442, 6.561106], [21.794991000000152, 6.55527700000016], [21.79527400000012, 6.544995000000142], [21.794438, 6.538331000000142], [21.790273, 6.523329], [21.786659000000157, 6.512498], [21.781935, 6.502499000000114], [21.779441000000133, 6.481383], [21.776387, 6.460552], [21.773886, 6.441385], [21.77749100000011, 6.424158], [21.784717, 6.406937], [21.794436, 6.392218], [21.803054, 6.377773000000161], [21.809163000000183, 6.369166000000178], [21.813325, 6.355276], [21.811657, 6.342496], [21.803047, 6.322772], [21.794442, 6.304719], [21.776662, 6.276937000000146], [21.75999400000012, 6.257216], [21.747771, 6.241659000000141], [21.740825, 6.231388000000152], [21.736939000000177, 6.220269], [21.739436000000183, 6.210551], [21.746382, 6.20472], [21.761106, 6.197775], [21.775826000000166, 6.191944], [21.789713, 6.179996000000187], [21.796666000000187, 6.164993000000152], [21.799712000000113, 6.151944000000128], [21.79943900000012, 6.141104], [21.799160000000143, 6.131108], [21.801661, 6.120277000000101], [21.808331, 6.110552000000155], [21.817777, 6.100271], [21.821109, 6.090553000000114], [21.819443, 6.076658], [21.817777, 6.059161000000131], [21.818604, 6.049996000000135], [21.826659, 6.043327], [21.839163, 6.042217], [21.859445000000107, 6.043882000000167], [21.87665900000013, 6.042775], [21.887768, 6.037217], [21.895549, 6.018326], [21.89638, 6.006666], [21.89944000000014, 5.979716], [21.904993, 5.963325000000111], [21.905831, 5.962218000000178], [21.909441000000186, 5.951107], [21.913469, 5.946071000000131], [21.918326, 5.939992], [21.926940000000172, 5.933048000000156]]]}}]}