{"type": "FeatureCollection", "features": [{"type": "Feature", "properties": {"entity_id": "cf-p-vakaga-v1", "name_fr": "Vakaga"}, "geometry": {"type": "Polygon", "coordinates": [[[22.387776, 8.658880000000124], [22.393326, 8.65083], [22.394166, 8.644443], [22.39499300000017, 8.627772000000164], [22.391106, 8.591657], [22.412221000000102, 8.592218], [22.425553, 8.597218], [22.434712000000104, 8.599992], [22.449159000000122, 8.598886], [22.462769, 8.593327000000158], [22.47277, 8.58805400000017], [22.482773000000122, 8.582494], [22.49388800000014, 8.581658000000118], [22.506658000000186, 8.582493000000113], [22.514990000000182, 8.583604], [22.521943, 8.586105], [22.532214000000124, 8.591385], [22.54055, 8.599994], [22.548055, 8.608888], [22.559164000000123, 8.621380000000102], [22.566663, 8.632219], [22.581108000000143, 8.645549], [22.59249300000016, 8.652776], [22.619717, 8.669999000000132], [22.644166, 8.688054], [22.657217, 8.694714], [22.671384, 8.699997], [22.682771, 8.701102], [22.814997, 8.701110000000142], [22.833611, 8.712773], [22.922496000000137, 8.747497], [22.938325000000134, 8.751385], [22.96361, 8.753055000000188], [22.99333300000012, 8.760552000000189], [23.008606000000157, 8.762494000000117], [23.020276, 8.7577730000001], [23.028604, 8.754719], [23.03804900000017, 8.751659000000132], [23.049162, 8.751663000000121], [23.05693700000012, 8.753879000000154], [23.065823000000137, 8.759163], [23.072491, 8.767218000000184], [23.077217000000132, 8.775825], [23.0802690000001, 8.787774000000127], [23.078882, 8.800554], [23.076943, 8.837492000000111], [23.080274000000145, 8.88082900000012], [23.08694000000014, 8.895547], [23.092497, 8.903605], [23.102222000000154, 8.911939], [23.131944, 8.931103000000121], [23.172886, 8.959551], [23.174716000000103, 8.960827000000108], [23.188887, 8.97444], [23.200828, 8.982217000000162], [23.214158, 8.98611], [23.224997000000144, 8.987775000000113], [23.236942000000113, 8.988608000000113], [23.248052, 8.98916400000013], [23.26000000000016, 8.989719], [23.26943800000015, 8.991664000000185], [23.28, 8.99583100000018], [23.292775000000177, 9.003046], [23.303884, 9.012215], [23.31249400000013, 9.0199980000001], [23.320278, 9.027494], [23.321384000000137, 9.034436000000142], [23.321943, 9.037217], [23.32665900000012, 9.05611], [23.331662000000165, 9.079160000000115], [23.335273, 9.108886], [23.33916100000016, 9.14221300000014], [23.347217, 9.173330000000135], [23.356109, 9.189714], [23.364721, 9.20527200000015], [23.372496000000183, 9.214715], [23.382491, 9.222771000000137], [23.391659000000118, 9.228608], [23.403887, 9.234713], [23.408436, 9.23652200000015], [23.41583100000014, 9.239436000000183], [23.433049000000153, 9.241661], [23.44277700000015, 9.241941000000168], [23.455556, 9.240555], [23.463329000000158, 9.237497000000133], [23.46972000000011, 9.235000000000127], [23.467779, 9.233327], [23.45777100000015, 9.220272000000136], [23.454718000000128, 9.211661000000163], [23.451381, 9.19944], [23.450552, 9.189997000000176], [23.448881, 9.179993], [23.449712, 9.17027], [23.453886, 9.159438], [23.459158000000173, 9.148608], [23.474882256, 9.142529102000026], [23.476206580000166, 9.148515638000106], [23.478024443000038, 9.156732810000165], [23.4798423900001, 9.164949970000066], [23.48166042100013, 9.173167116000172], [23.489971380999975, 9.174148762000186], [23.498282386000085, 9.175130217000117], [23.50659343700005, 9.176111481000135], [23.51490453399998, 9.177092554000069], [23.523215676, 9.178073436000034], [23.531526864000057, 9.179054127000086], [23.53607098100008, 9.18542646000003], [23.540615260000095, 9.191798733000098], [23.545159702000092, 9.198170947000165], [23.549704307000127, 9.204543101000127], [23.557301763999988, 9.206777836000072], [23.564899317000084, 9.209012410000184], [23.572496965000028, 9.21124682400017], [23.579072608000104, 9.209538325000096], [23.58564818800005, 9.207829705000108], [23.594373783000037, 9.20922893400018], [23.59478321299997, 9.214224054000113], [23.59519265500012, 9.219219173000113], [23.599450790000105, 9.222167113000182], [23.60796706000002, 9.222658436000017], [23.610690189000024, 9.230107285000031], [23.61157184600006, 9.236694030000137], [23.612453535999975, 9.243280770000126], [23.61333525800012, 9.249867506000157], [23.62189281900004, 9.250178894000157], [23.630450395000025, 9.250490079000087], [23.639007986000138, 9.250801059000025], [23.64196418900002, 9.256869172000052], [23.64492049300003, 9.262937258000079], [23.648732439000128, 9.268927582000117], [23.652544515000045, 9.274917863999974], [23.65972621399999, 9.290397455000118], [23.651922146000175, 9.294522492999988], [23.650210656000127, 9.299812635000023], [23.648499115, 9.305102768000154], [23.645128055000157, 9.310652260000097], [23.641756889000135, 9.316201718000059], [23.63838561700004, 9.321751143000142], [23.637140878000025, 9.336376819000066], [23.63838561700004, 9.342600510000125], [23.63791884700015, 9.347657261000109], [23.63745206300007, 9.35271400900018], [23.63885239300015, 9.378697920999969], [23.64678760000004, 9.383054505000189], [23.648343523000108, 9.38927819700018], [23.64772115400001, 9.393012412000132], [23.648187931, 9.400947619000078], [23.65316684400011, 9.403771118], [23.658145837000063, 9.406594546000065], [23.66994536599998, 9.435161827000172], [23.67180845000013, 9.450066495000101], [23.667150825000135, 9.456276805000186], [23.662493032000157, 9.462487052000029], [23.655040493000172, 9.457725998000114], [23.647588159000122, 9.452964784000187], [23.64013603, 9.448203411000122], [23.631441640000048, 9.481738915], [23.63189155300006, 9.48820950600009], [23.632341483000175, 9.494680094000046], [23.634684278000123, 9.499612373000048], [23.637027139999987, 9.504544635000116], [23.640479730000038, 9.516135471999974], [23.640972948000183, 9.522177505000116], [23.641466184000137, 9.528219535], [23.64565861400007, 9.533398419000036], [23.64738490900004, 9.537837463000187], [23.645104253000113, 9.54135758800004], [23.637651918000188, 9.544462727000166], [23.631848256000126, 9.541290053000012], [23.625231362000136, 9.544548386000088], [23.627754627000115, 9.551857704000156], [23.630278, 9.559167000000116], [23.634702574000073, 9.566648885000177], [23.63912734200005, 9.57413071100018], [23.64355230300015, 9.581612477000135], [23.647977458000128, 9.5890941830001], [23.652402807000044, 9.596575830000177], [23.656828350000012, 9.604057417000092], [23.66125408700003, 9.61153894400013], [23.66568001900015, 9.619020411000179], [23.670106145000034, 9.626501818], [23.674532467000176, 9.633983165000075], [23.678958983000143, 9.641464453000026], [23.683385694000037, 9.648945680000054], [23.68781260000003, 9.656426847000091], [23.69223970200005, 9.663907952999978], [23.696667000000105, 9.671389], [23.6989619740001, 9.67792703400005], [23.697895222000113, 9.68679669900007], [23.69682841300005, 9.695666356], [23.695761549000053, 9.704536005000023], [23.69469462800015, 9.713405646000126], [23.693627651000043, 9.722275279000144], [23.69256061800013, 9.731144905000178], [23.69149352900007, 9.740014521999967], [23.690426384000148, 9.748884132000057], [23.68935918200009, 9.757753733000186], [23.68829192300018, 9.766623327000104], [23.687224608000065, 9.775492912000061], [23.686157237000145, 9.784362490000092], [23.685089807999987, 9.79323205999998], [23.684022324000125, 9.802101622000066], [23.68295478200008, 9.81097117500019], [23.68188718400006, 9.819840721000048], [23.680819527999972, 9.828710259000104], [23.679751816000135, 9.837579789000188], [23.67868404700016, 9.84644931000014], [23.67761622100005, 9.85531882400005], [23.67654833800009, 9.864188330000104], [23.675480398, 9.873057827000025], [23.67441240100004, 9.881927317000077], [23.673344346000192, 9.890796799000157], [23.673045307000052, 9.893279985000106], [23.672276234000094, 9.899666272000104], [23.667664095000134, 9.907136987000172], [23.66305174700011, 9.914607636000028], [23.65843919000008, 9.922078218000138], [23.65382642500009, 9.92954873300016], [23.649213450000047, 9.937019181000096], [23.64460026500018, 9.944489563000047], [23.63998687100002, 9.95195987700015], [23.635373268000137, 9.95943012500004], [23.6307594540001, 9.966900305000138], [23.626145431000168, 9.974370419000081], [23.621531197000138, 9.981840465000118], [23.616916753000055, 9.989310444000125], [23.608657086000107, 10.002901633000135], [23.60501193700003, 10.00902286700017], [23.601366651999967, 10.015144060000125], [23.59772123000016, 10.021265210000138], [23.592920947000096, 10.02887211500007], [23.588120440000182, 10.036478948000024], [23.58331970900008, 10.044085708000068], [23.57851875400013, 10.051692394000042], [23.573717574000057, 10.059299008000096], [23.568916169999966, 10.06690554800008], [23.56411454100015, 10.074512014999982], [23.559312686000112, 10.082118408999975], [23.554510607000054, 10.089724730000057], [23.549708302, 10.097330977000126], [23.544905771000117, 10.104937151000115], [23.540103015000113, 10.11254325100009], [23.535300033000055, 10.120149278000099], [23.530496824000124, 10.12775523099998], [23.52569339000007, 10.135361111000122], [23.520889728000157, 10.14296691700008], [23.516085840000017, 10.150572649000026], [23.511281726000107, 10.158178307000128], [23.506477384000107, 10.165783891000046], [23.501672815000063, 10.173389401000122], [23.496868018000157, 10.180994837000071], [23.492062994000094, 10.188600200000053], [23.487257742000054, 10.196205488000146], [23.482452263000084, 10.203810701000123], [23.477646555000035, 10.21141584100019], [23.47284061800019, 10.21902090600014], [23.468034454000076, 10.226625897000133], [23.46322806000012, 10.234230813000181], [23.45842143800013, 10.241835655000045], [23.453614586000185, 10.249440422000134], [23.44880750600015, 10.257045115000096], [23.444000196000104, 10.264649733000113], [23.44057356400009, 10.27006996200015], [23.439192656000046, 10.272254276000012], [23.43438488700008, 10.279858745000126], [23.429576887000167, 10.287463138000078], [23.424768658000175, 10.29506745700013], [23.419960198000012, 10.302671700000019], [23.415151507000132, 10.310275869000122], [23.41034258600007, 10.31787996300011], [23.405533434000063, 10.325483981000048], [23.40072405100011, 10.333087924000154], [23.3959144370001, 10.340691792000086], [23.391104590999987, 10.348295584000027], [23.386294514000042, 10.355899301000079], [23.376926599, 10.370774169000185], [23.372368782000137, 10.378045327000166], [23.367810755, 10.385316417000126], [23.363252516999978, 10.392587439000067], [23.358694069000137, 10.399858392999988], [23.354135409000037, 10.407129279000117], [23.349576538000065, 10.414400097000055], [23.34501745700004, 10.421670846999973], [23.340458163000108, 10.428941528], [23.335898658000076, 10.436212141], [23.331338941000183, 10.443482686000038], [23.32677901300019, 10.450753162000126], [23.322218872000064, 10.458023570000023], [23.317658519000133, 10.465293909000025], [23.312156370000082, 10.46900795099998], [23.30665409000011, 10.472721898000088], [23.30018905100013, 10.475748182000189], [23.29372388600018, 10.478774334000093], [23.279693240000086, 10.485927213000139], [23.26923903200003, 10.493355202000032], [23.261535932000015, 10.501333413000111], [23.25586914500002, 10.508101345000057], [23.25020211100008, 10.51486917300008], [23.244534831000124, 10.521636896000075], [23.238867303000177, 10.528404516000137], [23.233199528000057, 10.535172031000059], [23.227628751000054, 10.539161285000091], [23.22205783100003, 10.543150440000034], [23.21648676700005, 10.547139496], [23.21091556000016, 10.551128453000103], [23.203350100000023, 10.554567427999984], [23.19578447100008, 10.558006221000028], [23.191107589000183, 10.565434210000092], [23.186843438999972, 10.570248677000109], [23.18257915600003, 10.575063085000181], [23.176251705000084, 10.579740032000188], [23.169924063, 10.584416850000082], [23.16350494300019, 10.587534903000062], [23.157085693, 10.590652824000188], [23.150666312999988, 10.59377061400005], [23.145439209000074, 10.60339948900014], [23.142413059000148, 10.610277273000065], [23.139386774000116, 10.617155025000159], [23.137594676000163, 10.620118946], [23.13581040300005, 10.623069927000188], [23.13223389500007, 10.628984786000103], [23.127282096999977, 10.635037302000114], [23.122330104000184, 10.641089738000176], [23.117377916000066, 10.64714209300007], [23.11283863799997, 10.650443455000072], [23.108299262000116, 10.653744750999977], [23.101146384000174, 10.65704607900011], [23.09454377100019, 10.659109479000165], [23.087941069000067, 10.66117274000004], [23.08365490099999, 10.664304449000099], [23.07749001200017, 10.669771585000035], [23.071324903000175, 10.675238598000021], [23.066362008000112, 10.679038489000106], [23.061398989999986, 10.682838300000128], [23.056435848000035, 10.68663803100003], [23.050464850000026, 10.690050221000092], [23.045431837000024, 10.692926228000147], [23.04449371900006, 10.693462296000064], [23.038522454000088, 10.696874256000115], [23.03145656300012, 10.700757325000154], [23.024390493000055, 10.70464023400018], [23.016687393000097, 10.707666451000023], [23.008434072000114, 10.707941562000087], [23.004582522000135, 10.712893555000107], [23.002931881000052, 10.717295331000173], [23.001281193000068, 10.721697098000163], [22.99857336600013, 10.728234352000129], [22.99586542300017, 10.73477157900004], [22.990753509000115, 10.748055405000116], [22.988349546999984, 10.754802008000127], [22.985945478000133, 10.761548589000085], [22.981748332000166, 10.76709036700015], [22.973495011000182, 10.77094191700013], [22.96909323900013, 10.77616902], [22.964966670000024, 10.782909261000043], [22.9608399170001, 10.789649445000123], [22.95657579000016, 10.795977022000045], [22.952311485000166, 10.8023045380001], [22.94749715500012, 10.80904479000003], [22.942682610000077, 10.815784964000102], [22.935804842000152, 10.825688949000039], [22.926451078000184, 10.842195593000156], [22.922049306000133, 10.850999135999984], [22.920948885000143, 10.8569140190001], [22.919848420000108, 10.862828896], [22.91668473400017, 10.871082236000063], [22.913520874000085, 10.879335540000113], [22.909119102000034, 10.886763529000177], [22.905680258000075, 10.890202433000127], [22.902241334999985, 10.893641297000102], [22.89508858400012, 10.899006040000188], [22.88793557700012, 10.904370615000062], [22.883344268000087, 10.907447338000168], [22.87875286500008, 10.91052399200015], [22.873629820000133, 10.92280303300015], [22.875510141000177, 10.931368940000027], [22.870655077000094, 10.93175950900013], [22.8658, 10.93215], [22.85951999000008, 10.931660065000074], [22.85324, 10.93117], [22.84741000000014, 10.93413], [22.83990500599998, 10.934210276000101], [22.832400008000036, 10.934290369000053], [22.83207786400004, 10.934293798999988], [22.824895006000077, 10.934370276000038], [22.81739000000016, 10.93445], [22.80904624200008, 10.936616456000081], [22.800702363000084, 10.938782685000149], [22.792358363000176, 10.940948685000137], [22.784014242000126, 10.94311445599999], [22.77567, 10.945280000000139], [22.768700000000138, 10.94409], [22.76122, 10.949570000000165], [22.75981000000013, 10.952940000000126], [22.757920029, 10.957450007000148], [22.75603, 10.96196], [22.75030508800012, 10.966530054000145], [22.744580000000155, 10.9711], [22.73945002900018, 10.972795043000076], [22.73432, 10.97449], [22.72648994900004, 10.97353020100013], [22.718659949000028, 10.97257020100011], [22.7108300000001, 10.971610000000169], [22.703140000000133, 10.97226000000012], [22.697400000000187, 10.975390000000118], [22.694750000000113, 10.975240000000156], [22.68883004900016, 10.977720058000159], [22.682910000000163, 10.9802], [22.673129987000152, 10.979940247000116], [22.65577, 10.979480000000137], [22.647863527000027, 10.983116873000029], [22.639956860000154, 10.986753540000109], [22.632050000000163, 10.99039], [22.62545676500008, 10.992606809999984], [22.618863432000126, 10.994823477000182], [22.612270000000137, 10.99704], [22.60444, 10.996720000000153], [22.59754656600012, 10.994556823000153], [22.59065323300007, 10.992393490000097], [22.58376, 10.990230000000167], [22.57706, 10.9877], [22.57303, 10.984350000000177], [22.568690000000117, 10.98419], [22.56096, 10.98788], [22.55681004100012, 10.990805029000057], [22.55266, 10.99373], [22.54466528000006, 10.997190317000047], [22.536670373000163, 11.000650422000092], [22.528675280000073, 11.00411031700014], [22.52068, 11.0075700000001], [22.514859997000144, 11.007420056000115], [22.50904, 11.007270000000176], [22.503119958000184, 11.005165058000102], [22.4972, 11.003060000000175], [22.493980000000136, 10.99729], [22.4866, 10.99875], [22.481780015000083, 10.999695038000084], [22.47696000000019, 11.000640000000146], [22.46859, 10.999210000000119], [22.4680495880001, 10.998599395000156], [22.46500995100007, 10.995165022000094], [22.46143, 10.99112], [22.45656, 10.9878700000001], [22.449695007000173, 10.98817507700005], [22.44283000000013, 10.988480000000152], [22.438079943000105, 10.98488503700014], [22.433330000000126, 10.981290000000115], [22.43081000000018, 10.97438], [22.42432, 10.97066], [22.418965010000136, 10.971200047000082], [22.41361, 10.97174], [22.408024991000104, 10.971245051000096], [22.402440000000126, 10.97075], [22.396409880000135, 10.96780012000005], [22.390379880000012, 10.964850120000051], [22.38435, 10.9619], [22.377150000000142, 10.96891], [22.376620000000173, 10.96944], [22.373399940000184, 10.963900018000118], [22.37018, 10.95836], [22.355990000000133, 10.95643], [22.348717488000034, 10.956267760000117], [22.341444984000134, 10.956105347000118], [22.334172488000092, 10.955942760000084], [22.3269, 10.955780000000118], [22.32366000000013, 10.95438], [22.318339909000088, 10.94928504700016], [22.313020000000165, 10.94419], [22.29819, 10.93582], [22.28984, 10.93139], [22.28217, 10.93065], [22.273889894000092, 10.926835113000152], [22.26561, 10.92302], [22.258460038000123, 10.92462008400014], [22.25131, 10.926220000000171], [22.245270000000176, 10.92547], [22.240774941000097, 10.921520034000139], [22.23628, 10.917570000000126], [22.22237, 10.91282], [22.21365497400018, 10.91193012400015], [22.204940000000136, 10.91104], [22.20023998099998, 10.909800036000092], [22.19554, 10.90856], [22.189144909, 10.904320067000128], [22.18275000000017, 10.90008], [22.180059903000085, 10.894656692000183], [22.177369903000056, 10.889233359000059], [22.17468, 10.883810000000153], [22.16670495900013, 10.882250104000036], [22.158730000000105, 10.88069000000013], [22.156070000000113, 10.878900000000158], [22.15180000000015, 10.87602], [22.14436, 10.87833], [22.136433388000057, 10.879373538000095], [22.128506722, 10.880416870999966], [22.120580000000132, 10.88146], [22.11684000000014, 10.88305000000014], [22.111980000000187, 10.880480000000148], [22.10500000000019, 10.88066], [22.0987, 10.88291], [22.09354507200004, 10.887125044000186], [22.08839, 10.89134], [22.081620000000157, 10.894970000000171], [22.074160000000177, 10.895830000000103], [22.067094915000155, 10.89221508200012], [22.06003, 10.888600000000167], [22.054325006000056, 10.888900053000043], [22.04862000000014, 10.8892], [22.04168, 10.88432], [22.0361, 10.88313], [22.029340000000104, 10.88561], [22.02601, 10.885850000000175], [22.02072, 10.886230000000182], [22.01654, 10.88505], [22.01160987300011, 10.88118008000015], [22.006679873000053, 10.87731008000003], [22.00175, 10.87344000000013], [21.99558000400009, 10.8736200620001], [21.989410000000134, 10.8738], [21.98596494200018, 10.868715020000138], [21.98252, 10.86363], [21.978330000000142, 10.86314], [21.974585033000153, 10.865755023000077], [21.97084000000018, 10.86837], [21.96221, 10.87129], [21.96284001200013, 10.865775002000078], [21.96347, 10.86026], [21.96023, 10.85817], [21.952790000000107, 10.857190000000116], [21.94904000000014, 10.86015], [21.946795033000114, 10.86461500900009], [21.94455, 10.869080000000167], [21.94152, 10.86929], [21.942160012000045, 10.863565001999973], [21.9428, 10.85784], [21.94303, 10.85574], [21.940040000000124, 10.85226], [21.93398000000019, 10.853360000000123], [21.9274, 10.86021], [21.924210062000043, 10.866045018000023], [21.92102, 10.87188], [21.91264, 10.872500000000116], [21.90851, 10.86603], [21.904350000000136, 10.863240000000133], [21.89923000000016, 10.862740000000144], [21.893265074000112, 10.866485058000023], [21.8873, 10.870230000000106], [21.88079000000016, 10.869950000000188], [21.87825000000015, 10.867850000000146], [21.874934926000094, 10.861160019000067], [21.87162000000012, 10.854470000000106], [21.86517, 10.8466], [21.85658, 10.84469], [21.84916, 10.846430000000112], [21.84443000000016, 10.84753], [21.843069978000074, 10.842640004000089], [21.84171000000015, 10.837750000000142], [21.83716501300006, 10.8386150340001], [21.832620000000134, 10.83948], [21.82817985200012, 10.834450066000102], [21.82373985200013, 10.829420066000125], [21.819300000000112, 10.824390000000164], [21.818150000000173, 10.821240000000103], [21.814120000000173, 10.81031], [21.80995, 10.80911], [21.806269957000154, 10.805620021999971], [21.80259, 10.80213], [21.796914962000187, 10.800110052000093], [21.79124000000013, 10.798090000000116], [21.788490000000138, 10.79461], [21.78811000000013, 10.78748000000013], [21.789455024000063, 10.782095004000041], [21.790800000000104, 10.77671], [21.788324943000077, 10.769785011000181], [21.78585, 10.76286000000016], [21.785099987000024, 10.757450001999985], [21.78435, 10.75204], [21.78639503900007, 10.746200008000187], [21.78844, 10.740360000000123], [21.789710000000184, 10.73187], [21.788019973000075, 10.727025004999973], [21.786330000000135, 10.72218000000015], [21.78712501200016, 10.717725002000122], [21.78792, 10.71327], [21.78684, 10.708230000000185], [21.78338, 10.70614], [21.783170000000155, 10.703380000000152], [21.786000039999976, 10.699035013000127], [21.78883000000019, 10.69469], [21.78912, 10.68779], [21.788119983000172, 10.68272500200004], [21.78712000000013, 10.677660000000174], [21.78859, 10.66940000000011], [21.78236, 10.66451000000012], [21.780780000000107, 10.659220000000118], [21.775574954000035, 10.656530043000032], [21.770370000000128, 10.653840000000173], [21.767494966000072, 10.650250014000108], [21.76462, 10.64666000000011], [21.75861, 10.642240000000129], [21.75303, 10.642650000000117], [21.74882, 10.64561], [21.744705069000133, 10.650745028000017], [21.74059000000011, 10.65588], [21.73617000000013, 10.656070000000113], [21.73363000000012, 10.65398], [21.732, 10.629140000000177], [21.732660019000036, 10.620410003000188], [21.73332, 10.61168], [21.730134925000016, 10.60441001800018], [21.72695, 10.597140000000138], [21.729, 10.57647], [21.73104505000009, 10.568900008000185], [21.73309, 10.561330000000169], [21.73292, 10.55421], [21.729800000000125, 10.53924000000012], [21.725549929000124, 10.534030029000064], [21.7213, 10.52882], [21.721030000000155, 10.52732], [21.71986661800014, 10.520836674000122], [21.71870328500006, 10.514353340000127], [21.71754, 10.50787], [21.719690000000128, 10.501220000000103], [21.73269000000016, 10.477890000000116], [21.738365073000125, 10.473850051000056], [21.74404, 10.46981], [21.75085, 10.463860000000125], [21.75255, 10.458360000000141], [21.75145, 10.452610000000107], [21.75499004900007, 10.44828002000014], [21.75853000000012, 10.443950000000143], [21.75836, 10.438890000000185], [21.75622495900012, 10.432890008000015], [21.754090000000133, 10.42689], [21.75811, 10.420270000000187], [21.764280023000083, 10.419080060000113], [21.770450000000153, 10.41789], [21.77099, 10.41169], [21.766630000000134, 10.404020000000173], [21.760707185000058, 10.398440167000103], [21.754784580000035, 10.39286022300007], [21.748862185, 10.387280167000029], [21.74294, 10.3817], [21.742134988000032, 10.37709500200009], [21.74133, 10.372490000000141], [21.74041000000011, 10.367200000000139], [21.740605004000088, 10.360765001000175], [21.7408, 10.354330000000175], [21.73440002400008, 10.355520064000075], [21.728, 10.35671], [21.72556996300017, 10.351885010000046], [21.723140000000114, 10.347060000000113], [21.72347, 10.342650000000106], [21.729620000000125, 10.33006], [21.73350006000004, 10.32515502400014], [21.73738, 10.32025], [21.736455512000134, 10.317861999000058], [21.73443, 10.312630000000127], [21.73029, 10.30846], [21.72826, 10.30177], [21.72459, 10.297840000000122], [21.71949, 10.29572], [21.71621655100006, 10.290096701999971], [21.71294321700009, 10.284473368000135], [21.70967, 10.27885], [21.705510000000118, 10.276290000000188], [21.69391000000013, 10.27596], [21.68809002600011, 10.27740005200019], [21.68227000000013, 10.278840000000116], [21.67647, 10.2781], [21.67465, 10.27441], [21.67561000000012, 10.2712], [21.682000000000187, 10.264990000000125], [21.68264, 10.264370000000156], [21.68034000000017, 10.261590000000183], [21.67526, 10.25901], [21.66946498200008, 10.25804005200007], [21.66367, 10.257070000000112], [21.66069, 10.25314], [21.663040000000137, 10.24948], [21.66863, 10.248150000000123], [21.673790000000167, 10.2419900000001], [21.67569, 10.23764], [21.672710000000166, 10.233710000000144], [21.66832, 10.23183], [21.66204336100003, 10.232540121000056], [21.655766695000068, 10.233250121000026], [21.64949, 10.23396], [21.645229955000104, 10.230585028000064], [21.640970000000152, 10.22721], [21.636800000000108, 10.22672000000017], [21.632850000000133, 10.227370000000121], [21.627940000000137, 10.231000000000108], [21.62236, 10.23141], [21.616619881000076, 10.224805052000022], [21.61088, 10.2182], [21.59747, 10.21303], [21.58935, 10.212490000000116], [21.58469, 10.21475], [21.57911, 10.215150000000165], [21.573169941000174, 10.213563442000122], [21.56722994100005, 10.21197677500004], [21.561290000000156, 10.210390000000132], [21.55382, 10.21423], [21.550750053, 10.219715015000133], [21.547680000000128, 10.2252], [21.54394, 10.227920000000154], [21.53675, 10.22694], [21.52984487700013, 10.221245074000137], [21.522940000000176, 10.21555], [21.51912983400007, 10.208553381000115], [21.515319834000138, 10.201556714000048], [21.51151, 10.19456], [21.51012, 10.18985], [21.50451, 10.18714], [21.499174999, 10.187075044000153], [21.49384, 10.1870100000001], [21.492434965000143, 10.17894500500006], [21.491030000000137, 10.17088], [21.48763, 10.16463], [21.481150000000127, 10.1634], [21.47585, 10.15887], [21.471964960000093, 10.155540023000128], [21.468080000000157, 10.15221], [21.47114, 10.14857000000012], [21.47166, 10.143750000000125], [21.46898, 10.13613], [21.46212000000014, 10.128460000000132], [21.45542, 10.127000000000123], [21.45012, 10.12371], [21.448330000000112, 10.11863], [21.45097, 10.11246], [21.45377, 10.11066000000011], [21.45475, 10.10676], [21.45252, 10.09984], [21.45376502500011, 10.093420004000109], [21.455010000000186, 10.087], [21.45344000000017, 10.08308], [21.445090000000107, 10.08297], [21.441400000000158, 10.080850000000112], [21.437800000000152, 10.073220000000106], [21.43795000200015, 10.068005001000188], [21.438100000000134, 10.06279], [21.43749, 10.05935], [21.43314, 10.054250000000138], [21.43203, 10.04873], [21.429730000000177, 10.047320000000127], [21.425075021000055, 10.048770033000096], [21.42042, 10.05022], [21.41603000000015, 10.048340000000167], [21.411894954000104, 10.044735026000126], [21.40776000000011, 10.041130000000123], [21.40365, 10.03442], [21.403, 10.03005000000013], [21.40448000000015, 10.02133], [21.40221, 10.01671], [21.39599, 10.012970000000166], [21.394889980000187, 10.007100003000062], [21.393790000000138, 10.001230000000135], [21.38508000000013, 9.99172], [21.37726, 9.985210000000109], [21.373330000000124, 9.98379], [21.369150000000104, 9.98444], [21.36423000000019, 9.987730000000113], [21.36238, 9.98897], [21.3594, 9.985030000000165], [21.357044947000134, 9.977650010000048], [21.35469, 9.97027], [21.347550000000126, 9.965600000000109], [21.34061, 9.96370000000013], [21.33642, 9.96526], [21.333255032000068, 9.96856001500015], [21.33009, 9.971860000000106], [21.3243, 9.97088], [21.320810000000108, 9.97222], [21.319400000000144, 9.97359], [21.318180022000092, 9.979440003000093], [21.31696, 9.985290000000191], [21.30948, 9.99004], [21.307134941000072, 9.981740010000067], [21.30479, 9.97344], [21.30182, 9.96927], [21.29789000000011, 9.96809], [21.29438000000016, 9.971270000000118], [21.29271000000017, 9.97538], [21.287830000000156, 9.977170000000172], [21.28695000000016, 9.9786], [21.282630000000154, 9.985620000000154], [21.2760301080001, 9.988310131000048], [21.26943010800005, 9.991000131000021], [21.26283, 9.993690000000129], [21.25843997800007, 9.992035029000021], [21.25405000000012, 9.99038000000013], [21.25131, 9.98644000000013], [21.250329983000086, 9.98068500200003], [21.24935, 9.97493], [21.24292, 9.96935], [21.24250000000012, 9.96544], [21.23745, 9.96033000000017], [21.234, 9.95777], [21.22760991700011, 9.955633456000044], [21.22121991700004, 9.953496789000098], [21.21483, 9.95136], [21.21255, 9.94766], [21.21332000000018, 9.94077], [21.211750000000166, 9.93570000000011], [21.207254966, 9.933235030000105], [21.20276, 9.93077], [21.20253, 9.93028], [21.200730000000135, 9.92639], [21.202565048999986, 9.917560007000134], [21.2044, 9.90873], [21.20309, 9.90136], [21.19898000000012, 9.89534], [21.19262, 9.89114], [21.19011, 9.890010000000132], [21.18383000000017, 9.89176], [21.180519962000062, 9.887925017000043], [21.177210000000116, 9.88409], [21.170957248000036, 9.879637676000073], [21.164704664000112, 9.875185234000128], [21.15845224800006, 9.870732676000102], [21.1522, 9.866280000000131], [21.145823098000164, 9.860153456000035], [21.139446431000067, 9.854026789000159], [21.133070000000146, 9.8479], [21.129489886000044, 9.842626706000033], [21.125909886000102, 9.837353373000099], [21.12233, 9.832080000000133], [21.119874951000043, 9.825385010000048], [21.11742, 9.818690000000174], [21.11636, 9.81178], [21.11716001200017, 9.806925002000185], [21.11796, 9.80207], [21.11808, 9.801330000000178], [21.11531, 9.79194], [21.10774, 9.785200000000145], [21.09254, 9.77676], [21.085130000000163, 9.77644], [21.07907, 9.778910000000167], [21.074210000000107, 9.77862000000016], [21.06872489200009, 9.772010045000115], [21.06324000000012, 9.7654], [21.05813000000012, 9.766490000000147], [21.053690042000085, 9.769660028999965], [21.04925, 9.77283000000017], [21.044245028000034, 9.774725037], [21.039240000000177, 9.77662], [21.034854983000173, 9.775310028000035], [21.03047, 9.774000000000171], [21.02542000000011, 9.76934], [21.02385, 9.76496], [21.02434000000011, 9.76181], [21.02485, 9.758540000000153], [21.02932015600004, 9.752690061000067], [21.033790156000066, 9.746840061000114], [21.03826, 9.74099], [21.038540000000125, 9.73755000000017], [21.03628, 9.732010000000116], [21.03053000000017, 9.72850000000011], [21.021030000000167, 9.72862], [21.01033000000018, 9.73217], [21.005216818000065, 9.737130078000064], [21.000103484000135, 9.742090078000103], [20.994990000000143, 9.747050000000172], [20.993259969000064, 9.741000005000103], [20.99153, 9.73495], [20.99302, 9.727150000000165], [20.996905066000124, 9.721450023000045], [21.00079, 9.715750000000128], [21.002590027000053, 9.710715005], [21.00439, 9.70568], [21.00188, 9.701980000000162], [20.98081000000019, 9.701280000000168], [20.97378, 9.70513], [20.97218, 9.706], [20.96941, 9.70574], [20.96782, 9.70227000000017], [20.96973, 9.6977], [20.97416, 9.69546], [20.98088501500007, 9.694730065999977], [20.98761, 9.694000000000187], [20.99391000000014, 9.69063], [20.99861, 9.684940000000154], [20.99497, 9.678920000000176], [20.99046988000009, 9.674426727000082], [20.985969880000084, 9.669933393000122], [20.98147, 9.66544], [20.98106, 9.661070000000109], [20.985960000000148, 9.65745], [20.99364, 9.65478000000013], [20.99624, 9.65021], [20.99375, 9.64559], [20.9889, 9.643930000000182], [20.98241, 9.64454], [20.97519, 9.6479], [20.970330000000104, 9.64716], [20.96715, 9.64253], [20.96858, 9.63864000000018], [20.97186, 9.635690000000181], [20.979630016000044, 9.634975087999976], [20.9874, 9.634260000000154], [20.99073, 9.62671], [20.98802, 9.62071], [20.978330000000142, 9.61715], [20.969635027000038, 9.618195109000112], [20.960940000000164, 9.619240000000104], [20.95446, 9.61871], [20.95148, 9.616380000000106], [20.95012, 9.61384], [20.95141507700015, 9.607075011000177], [20.952710103000186, 9.600310015000161], [20.954005077000033, 9.593545011000174], [20.955300000000136, 9.58678], [20.95428, 9.57597], [20.951590000000124, 9.5679], [20.94424, 9.563450000000103], [20.9404900400001, 9.567080021000152], [20.936740000000157, 9.57071000000019], [20.93116, 9.57226], [20.92747, 9.571070000000134], [20.924320000000137, 9.56414000000018], [20.92438000100003, 9.558970001000034], [20.924440000000118, 9.553800000000138], [20.921944968000048, 9.549405009000168], [20.91945, 9.54501], [20.91904, 9.540640000000167], [20.92191, 9.53333], [20.91942, 9.52847], [20.91529, 9.52543], [20.910875019000116, 9.526875028000063], [20.906460000000152, 9.52832], [20.89928, 9.528], [20.894910000000152, 9.526110000000187], [20.88611498800003, 9.52566011099998], [20.87732000000011, 9.52521000000013], [20.8745, 9.52310000000017], [20.87368, 9.52012000000019], [20.87652, 9.515100000000132], [20.874480000000176, 9.51139000000012], [20.868750000000148, 9.50719], [20.866369971000154, 9.503025009000169], [20.863990000000115, 9.49886], [20.86521502000005, 9.49313500300002], [20.866440000000182, 9.487410000000182], [20.86255000000017, 9.48414], [20.85539000000017, 9.482450000000142], [20.84956, 9.4856], [20.84472, 9.48439], [20.83945, 9.479960000000176], [20.83527652900017, 9.474243385000136], [20.831103195000026, 9.468526718000078], [20.826930000000118, 9.462810000000104], [20.825844982000035, 9.45694000300017], [20.82476, 9.45107], [20.8262150220001, 9.445800004000091], [20.82767, 9.44053], [20.827330000000188, 9.43042000000014], [20.820358043, 9.428719180000087], [20.820359000000167, 9.428715000000125], [20.820659751000107, 9.427553611000064], [20.821318593000058, 9.425009403000047], [20.82241115400018, 9.418874174000166], [20.822822, 9.413982], [20.82351032300005, 9.412701831000106], [20.826328778000118, 9.40745996000004], [20.828016000000105, 9.40432200000015], [20.832455432000074, 9.399625500000013], [20.8378790000001, 9.39269000000013], [20.84489800000017, 9.383714000000168], [20.856586, 9.383714000000168], [20.863079, 9.385646000000122], [20.865292813, 9.38485061800003], [20.870594000000153, 9.382946], [20.874577015000114, 9.381515809000064], [20.87643037900017, 9.380850317000068], [20.880568211000025, 9.379364535000093], [20.887389438000184, 9.376915220000171], [20.88888, 9.376380000000154], [20.89305, 9.379163000000176], [20.896935, 9.382221], [20.899715000000185, 9.386387000000127], [20.902215, 9.39110600000015], [20.904714, 9.395276], [20.906938, 9.40026900000015], [20.909438000000137, 9.404997], [20.913608, 9.407213], [20.917498, 9.410549], [20.920551, 9.414719000000105], [20.923055, 9.419158], [20.925275000000113, 9.423881], [20.928328, 9.428050000000155], [20.931942000000163, 9.431103000000178], [20.93583200000012, 9.434439000000168], [20.94055, 9.435826000000134], [20.944437000000164, 9.439441000000102], [20.94860800000015, 9.441665000000114], [20.953051, 9.444442], [20.958050000000128, 9.44582400000013], [20.963883000000124, 9.447218], [20.969165000000146, 9.445554000000186], [20.975553, 9.444437000000164], [20.981664000000137, 9.443046000000152], [20.986659, 9.445273], [20.99083, 9.447496000000115], [20.994721, 9.450831], [20.998326000000134, 9.453883000000133], [21.002218, 9.457217], [21.006389, 9.45944], [21.009443000000147, 9.463608], [21.012497, 9.467775], [21.014990000000125, 9.472493000000156], [21.016663000000165, 9.477494], [21.017776, 9.483602], [21.019441000000143, 9.489161000000138], [21.021943, 9.493887], [21.024717, 9.49805], [21.028052000000116, 9.501663000000178], [21.03138200000012, 9.504998], [21.03471800000011, 9.509160000000179], [21.036384000000112, 9.51471800000013], [21.03860500000019, 9.518882], [21.041942, 9.523053], [21.045272, 9.52638700000017], [21.049997, 9.528608], [21.05554500000011, 9.529717], [21.061936, 9.530271], [21.06638, 9.532497], [21.07000100000016, 9.535825], [21.07388900000018, 9.538888000000156], [21.078053, 9.541658], [21.082216, 9.543880000000172], [21.08805400000017, 9.544992], [21.093046000000186, 9.546937000000185], [21.09666300000015, 9.549996000000135], [21.100547000000176, 9.553328000000135], [21.104715, 9.555828], [21.111662, 9.555552000000148], [21.117219, 9.55361], [21.123325, 9.552494], [21.129719000000136, 9.552777], [21.135828, 9.55332600000014], [21.141942, 9.554162], [21.146658000000116, 9.555832], [21.151659, 9.557777], [21.155548000000124, 9.560829000000126], [21.159712, 9.563607000000104], [21.163885000000164, 9.565826], [21.169158, 9.567774], [21.174717, 9.567495000000122], [21.180273, 9.565552], [21.185825, 9.563888], [21.191664000000173, 9.563054], [21.19833000000017, 9.563331000000176], [21.203881, 9.564158], [21.209442000000138, 9.564994000000127], [21.213607000000138, 9.56777000000011], [21.218884000000116, 9.569438000000105], [21.223053000000107, 9.571936], [21.228049000000112, 9.573609], [21.23333100000019, 9.575555000000122], [21.23804700000011, 9.577215], [21.24444, 9.577495], [21.249717, 9.579163], [21.254438, 9.58111], [21.258882, 9.583332], [21.26194, 9.587495], [21.264157, 9.592222], [21.26804600000014, 9.595272000000136], [21.27221500000013, 9.597768], [21.276937, 9.600273], [21.279714, 9.604440000000181], [21.282777, 9.608332000000189], [21.286937, 9.610829], [21.291659, 9.613333], [21.295268, 9.616387000000145], [21.297775, 9.621108000000163], [21.299165, 9.626658000000191], [21.301664, 9.631388000000186], [21.302774000000113, 9.637492], [21.304717, 9.643050000000187], [21.306107, 9.648052000000177], [21.308605000000114, 9.652773], [21.311937000000114, 9.656938], [21.31555500000013, 9.659992000000102], [21.319717, 9.662496000000147], [21.325546, 9.663603], [21.330549000000133, 9.665552], [21.334714000000133, 9.667777000000115], [21.33861, 9.671104], [21.34110500000014, 9.675554], [21.343332, 9.680270000000121], [21.345832, 9.684999], [21.348611000000176, 9.689165000000173], [21.351942, 9.692772000000161], [21.355277000000115, 9.696109], [21.36054600000017, 9.697773], [21.366110000000106, 9.699162], [21.371108000000106, 9.700832], [21.375546000000156, 9.70305100000013], [21.379161000000124, 9.706382], [21.382494, 9.710546], [21.385833, 9.713604], [21.391108, 9.715546000000131], [21.397494000000165, 9.715831], [21.403047, 9.716662], [21.408609, 9.717492], [21.412497, 9.720827], [21.416104, 9.724158], [21.419161, 9.728047000000117], [21.423328, 9.730828], [21.428330000000187, 9.732217000000162], [21.432219, 9.735551000000157], [21.434715, 9.74], [21.437496, 9.744164000000126], [21.439443, 9.749719], [21.441384, 9.754996], [21.44332400000019, 9.759716], [21.44527100000016, 9.765271], [21.447768000000167, 9.76971900000018], [21.45138500000013, 9.773049000000185], [21.456384000000185, 9.774716], [21.461108, 9.77388000000019], [21.466662, 9.77194], [21.472222, 9.770269], [21.47832700000015, 9.769163000000162], [21.4847180000001, 9.768331], [21.490831000000185, 9.76860900000014], [21.497217, 9.768883], [21.506661, 9.740554], [21.509164, 9.735553000000152], [21.510277000000144, 9.730829], [21.506665, 9.721657], [21.504435000000115, 9.706659], [21.503883, 9.701105], [21.504717, 9.692216], [21.517770000000155, 9.654165], [21.5186020000001, 9.6474970000001], [21.518881, 9.639437], [21.518885, 9.626941000000159], [21.518888000000118, 9.618607000000168], [21.519162, 9.608884], [21.521935000000155, 9.6013880000001], [21.52694200000019, 9.596106], [21.535831, 9.589717], [21.541939, 9.588055], [21.548329, 9.58833], [21.55888, 9.589720000000113], [21.576665, 9.595269], [21.588330000000155, 9.595271], [21.599438000000134, 9.595553000000109], [21.607773, 9.596661000000154], [21.615555000000143, 9.596386000000109], [21.619717, 9.592495], [21.625825, 9.579714], [21.630830000000117, 9.567493000000127], [21.641383, 9.55194], [21.668608, 9.531105], [21.682769, 9.520552], [21.706388000000118, 9.496103], [21.70777800000019, 9.489444000000105], [21.709998, 9.473325000000102], [21.712771000000146, 9.461939], [21.720548, 9.449991000000125], [21.730272, 9.44], [21.746381000000156, 9.428054000000145], [21.75861, 9.419444], [21.771382000000187, 9.41138], [21.77722, 9.404996], [21.78221900000011, 9.383048], [21.78666, 9.357498000000135], [21.78999, 9.339437], [21.791662, 9.307221], [21.79249900000019, 9.301383], [21.800273, 9.29277100000013], [21.809164, 9.285826000000156], [21.818885, 9.27555], [21.825554000000125, 9.262216000000137], [21.832771, 9.24222200000014], [21.83924100000013, 9.22331300000019], [21.839994000000104, 9.22110600000019], [21.8474930000001, 9.186662000000126], [21.849996, 9.181943000000103], [21.858325, 9.176942], [21.867214, 9.174715000000162], [21.881945000000144, 9.167499000000134], [21.89027700000014, 9.164159], [21.901107, 9.157215000000122], [21.912498, 9.143325000000118], [21.919999000000132, 9.134441000000152], [21.931664, 9.110549], [21.941935, 9.103328000000147], [21.95166300000011, 9.097492], [21.962219, 9.093886000000111], [21.975826, 9.087768], [21.988051, 9.08082400000012], [21.998883, 9.070548], [22.006659000000184, 9.058328], [22.010270000000162, 9.040548000000115], [22.012494000000174, 9.025274], [22.014721, 9.012496], [22.019437000000153, 9.00693600000011], [22.02971600000012, 9.001387], [22.038326, 8.997773000000109], [22.05249300000014, 8.991942000000108], [22.062773, 8.986940000000118], [22.073603000000105, 8.983328], [22.083884, 8.976108], [22.089436, 8.969994], [22.089444, 8.959721], [22.086665000000153, 8.949161000000117], [22.081941, 8.936105], [22.086937, 8.911109000000124], [22.097218, 8.883885], [22.101935, 8.857495], [22.10694300000017, 8.835831], [22.115276, 8.796937000000128], [22.118604, 8.774714000000131], [22.122498, 8.763606], [22.129441, 8.755277], [22.138327, 8.748051], [22.152769, 8.743046], [22.164991000000157, 8.738603000000126], [22.178331, 8.732217], [22.188052, 8.725829], [22.195270000000107, 8.71833], [22.201660000000174, 8.709994000000165], [22.210833, 8.701937], [22.224715000000117, 8.698046], [22.249718000000144, 8.692775], [22.263606, 8.687491], [22.281943000000126, 8.681386], [22.306384, 8.679435000000183], [22.325827, 8.681663000000128], [22.35055000000017, 8.677218], [22.368328000000133, 8.674163], [22.379720000000134, 8.66694200000012], [22.387776, 8.658880000000124]]]}}]}