{"type": "FeatureCollection", "features": [{"type": "Feature", "properties": {"entity_id": "cf-p-ouham-fafa-v1", "name_fr": "Ouham-Fafa"}, "geometry": {"type": "Polygon", "coordinates": [[[18.656310636000114, 6.92930640700007], [18.65143111100008, 6.938781992000088], [18.650429, 6.940728], [18.649436, 6.949999], [18.651383, 6.961108000000138], [18.65555300000011, 6.966384], [18.664156000000162, 6.973603000000139], [18.673608000000115, 6.977213], [18.684993, 6.980826], [18.690276, 6.982771000000184], [18.696663, 6.991939], [18.704162, 7.014721000000179], [18.703883, 7.029719000000171], [18.706660000000113, 7.04833], [18.714161000000104, 7.059718], [18.719435, 7.066104000000109], [18.72555, 7.069161], [18.733047, 7.071105000000159], [18.740549000000158, 7.073608000000149], [18.745551, 7.077495], [18.747776, 7.08443700000015], [18.748053, 7.091937], [18.746381, 7.097494], [18.743051, 7.098053000000164], [18.728328, 7.099995], [18.717221000000166, 7.102215000000115], [18.709284, 7.105137], [18.707083000000125, 7.11332], [18.709718, 7.122218], [18.71388400000012, 7.126663000000178], [18.72165600000011, 7.129995000000179], [18.727768, 7.13249100000013], [18.737492000000145, 7.136935000000108], [18.747221, 7.14082800000017], [18.756659000000127, 7.146665000000155], [18.763049, 7.153329000000156], [18.767496, 7.15888], [18.769993, 7.162498], [18.77138, 7.166386000000102], [18.771661, 7.17193600000013], [18.76943800000015, 7.191661], [18.769441, 7.197493000000122], [18.769437, 7.202494], [18.771659, 7.205554], [18.774165, 7.20805200000018], [18.776384, 7.210832000000153], [18.781657, 7.214435], [18.788052, 7.217217000000176], [18.796386000000155, 7.21944], [18.808327000000133, 7.223881000000176], [18.819436, 7.227218], [18.830273, 7.232498000000135], [18.836938, 7.236107000000118], [18.842496, 7.241386], [18.846384, 7.251110000000153], [18.794159, 7.395550000000185], [18.720276000000183, 7.585550000000126], [18.71729, 7.602477], [18.720271, 7.60916600000013], [18.724164000000144, 7.614721], [18.72943700000019, 7.620832], [18.759444000000144, 7.636939000000154], [18.88416000000018, 7.694161], [19.021662000000106, 7.759999000000107], [19.020268, 7.762774], [19.016108, 7.765827], [19.01138800000018, 7.768047], [19.00722000000013, 7.76555], [19.003053000000136, 7.763054000000125], [18.996106000000168, 7.763327000000118], [18.99055600000014, 7.763884], [18.9863840000001, 7.766658], [18.98221500000011, 7.769721000000175], [18.979992, 7.773884], [18.97944400000017, 7.779999], [18.979166, 7.786103], [18.977495, 7.791109], [18.976106, 7.796384], [18.97666, 7.803328000000135], [18.978886, 7.808054], [18.982491, 7.811387], [18.9863840000001, 7.814436000000114], [18.989157, 7.8186070000001], [18.991663, 7.82333], [18.992491, 7.829441000000145], [18.990828, 7.834439000000145], [18.987222000000145, 7.837776], [18.984164, 7.841659000000163], [18.980829, 7.844993000000159], [18.977771000000132, 7.848885000000109], [18.975828, 7.853885000000105], [18.97694500000017, 7.859994], [18.979721, 7.863605000000177], [18.98416500000019, 7.866387000000145], [18.989158, 7.868054], [18.994719000000146, 7.869436000000178], [18.998885, 7.871662000000129], [19.003329, 7.874435], [19.005555000000186, 7.879161000000124], [19.007214000000147, 7.884163000000115], [19.006384, 7.88999200000012], [19.002771, 7.893609], [18.99805300000014, 7.896109], [18.991658, 7.900277], [18.987496, 7.903331000000151], [18.984993, 7.907497], [18.986382000000106, 7.911662], [18.989348368000037, 7.912650394000138], [18.99138500000015, 7.913329000000147], [18.99666200000013, 7.915273], [19.00138500000014, 7.91694200000012], [19.006382, 7.91888], [19.011105, 7.920549000000108], [19.01582900000011, 7.923328], [19.019163000000106, 7.926382000000103], [19.023051, 7.92972], [19.025828, 7.933330000000183], [19.02916, 7.938054], [19.03111, 7.943052], [19.03221900000017, 7.94916], [19.030274000000134, 7.953881], [19.024438, 7.954993], [19.020274, 7.957777], [19.019435, 7.963606], [19.019999000000155, 7.96944], [19.023325, 7.973604], [19.026106, 7.977493], [19.028608000000133, 7.98249600000014], [19.030269, 7.987497], [19.02971300000013, 7.993603], [19.028054000000168, 7.99888], [19.026108, 8.004441], [19.024995, 8.009992], [19.025549000000183, 8.016665], [19.027216, 8.022217], [19.030271, 8.026383000000124], [19.035829, 8.027213], [19.041104, 8.026936], [19.044438, 8.030829000000153], [19.045549000000165, 8.036936], [19.044997000000137, 8.043331], [19.045271, 8.04999700000019], [19.047772, 8.054719], [19.05193400000013, 8.057214000000101], [19.055553, 8.06055300000014], [19.05860900000016, 8.064719], [19.058326, 8.070831], [19.055824000000143, 8.074998], [19.051662, 8.078053000000182], [19.047221, 8.080272], [19.04222, 8.082776], [19.040547000000174, 8.087495], [19.04193800000013, 8.091659000000107], [19.045554, 8.094719000000168], [19.050825, 8.096661], [19.056384, 8.097499000000141], [19.058326, 8.102497000000142], [19.06027200000011, 8.10777400000012], [19.059992, 8.114166000000182], [19.058605, 8.119441], [19.055554, 8.123054], [19.052773000000116, 8.127495], [19.05110900000011, 8.132213], [19.04943900000012, 8.13722], [19.04749700000019, 8.14222100000012], [19.048051, 8.147774], [19.052768, 8.149442], [19.057774, 8.151106], [19.0627750000001, 8.153050000000121], [19.065823, 8.157216], [19.06749500000018, 8.162217000000112], [19.065547, 8.167497], [19.062493000000188, 8.170831000000135], [19.060270000000116, 8.175825], [19.059997, 8.181937000000175], [19.060547, 8.188880000000154], [19.06194100000016, 8.194163000000117], [19.063882, 8.199721], [19.06555, 8.205272], [19.06555, 8.21055100000018], [19.061937, 8.213331000000153], [19.058607, 8.217218], [19.058877000000166, 8.224163], [19.059434, 8.230827], [19.058051, 8.236381], [19.052772, 8.23833000000019], [19.049158000000148, 8.237491], [19.043607, 8.236663], [19.03888, 8.238606000000118], [19.034992000000102, 8.241939000000173], [19.030826, 8.244715], [19.026663000000156, 8.247771], [19.022769, 8.250554000000136], [19.019439, 8.254441], [19.017774, 8.259159000000125], [19.016381000000138, 8.264714], [19.016108, 8.27082700000011], [19.017212000000143, 8.276943], [19.017775, 8.282496000000151], [19.017212000000143, 8.288603], [19.01749100000012, 8.295549000000165], [19.019995, 8.300270000000125], [19.0241630000001, 8.303053], [19.030553000000168, 8.303331000000128], [19.035272000000134, 8.304998000000182], [19.039990000000103, 8.307495000000188], [19.042769000000135, 8.311663], [19.04388, 8.317499000000169], [19.04555, 8.32305], [19.046383, 8.32916], [19.046662, 8.336106000000143], [19.044992, 8.341104000000144], [19.042498000000137, 8.345272], [19.040826000000152, 8.349991], [19.038603, 8.354995], [19.041944000000115, 8.35916600000013], [19.047492000000148, 8.358604000000184], [19.053047, 8.35861000000017], [19.057219, 8.36083200000013], [19.059717, 8.365824], [19.060832, 8.371940000000109], [19.058607, 8.376664], [19.056388, 8.381109], [19.054434, 8.385831000000167], [19.052773000000116, 8.390829000000167], [19.052493, 8.396941], [19.054435000000126, 8.401659000000109], [19.059993000000134, 8.402775], [19.066937, 8.40221600000018], [19.07249700000017, 8.403602], [19.07583, 8.407772000000136], [19.076939000000152, 8.413329], [19.072770000000162, 8.416666], [19.068047, 8.41916], [19.066384, 8.423888], [19.066665, 8.430833], [19.063881, 8.434995000000185], [19.061662000000183, 8.43944], [19.058884, 8.444161], [19.058045, 8.449720000000127], [19.058326, 8.4566650000001], [19.059161000000188, 8.462775], [19.06165700000014, 8.467496], [19.066379, 8.469161], [19.071102, 8.471936], [19.073887, 8.475553], [19.074993, 8.481660000000147], [19.073055000000124, 8.486941000000115], [19.06916, 8.489716], [19.063603, 8.49138], [19.060270000000116, 8.494997000000183], [19.058607, 8.499716], [19.058879000000104, 8.506662], [19.060551, 8.512221000000125], [19.064158000000134, 8.51555], [19.07055400000013, 8.514436000000103], [19.074714, 8.516937], [19.076386, 8.52249600000016], [19.075276, 8.528048000000126], [19.074166, 8.53361], [19.073333, 8.538888000000156], [19.072495000000174, 8.54527700000017], [19.073055000000124, 8.55194], [19.074166, 8.558326], [19.074716, 8.569158], [19.046334941000055, 8.575067489000048], [19.044289961000175, 8.568670007000094], [19.04211, 8.56185], [19.04226000000017, 8.55428], [19.037694968999972, 8.551675027000101], [19.03313, 8.54907], [19.032429990000026, 8.54331500100011], [19.03173, 8.53756], [19.02906, 8.532460000000128], [19.0227, 8.527290000000107], [19.016, 8.52762], [19.01401, 8.523230000000126], [19.00822, 8.52403], [19.005289973, 8.520535011000163], [19.00236000000018, 8.51704], [19.000000000000114, 8.515810000000101], [18.99168, 8.51476], [18.98955, 8.51297000000011], [18.989040000000102, 8.51068], [18.990760000000137, 8.50798], [18.99404503400018, 8.503950014000054], [18.99733, 8.49992], [18.988540000000114, 8.489320000000134], [18.98111000000017, 8.48743], [18.97709, 8.48315], [18.972900000000152, 8.48164], [18.970940000000155, 8.47663000000017], [18.972580000000164, 8.46786], [18.970420000000104, 8.46423], [18.96378996300018, 8.462085056000035], [18.95716, 8.459940000000188], [18.952906571000142, 8.455596713999967], [18.94865323800019, 8.451253381000072], [18.9444, 8.446910000000116], [18.93713000000014, 8.44225], [18.93239000000017, 8.436620000000175], [18.93137000000013, 8.432500000000118], [18.93173, 8.4279], [18.930290000000127, 8.42586000000017], [18.92431, 8.426690000000121], [18.921720000000164, 8.42422], [18.92095, 8.42079], [18.92308, 8.41293], [18.92068, 8.40931], [18.91738, 8.406400000000133], [18.919850000000167, 8.40335], [18.926960000000122, 8.40135], [18.927390000000173, 8.39973], [18.92361, 8.39615], [18.923760000000186, 8.39269000000013], [18.923940000000187, 8.39039], [18.91950000000014, 8.38774], [18.91071000000011, 8.38702000000012], [18.90810000000016, 8.384090000000185], [18.9102400000001, 8.37692], [18.90327000000019, 8.37432], [18.90041, 8.370710000000145], [18.900770000000136, 8.36634], [18.89957, 8.36407], [18.89200000000011, 8.36608], [18.887400000000184, 8.366640000000189], [18.88508, 8.366240000000118], [18.88365, 8.3642], [18.887640000000147, 8.35699], [18.88598000000013, 8.35496000000012], [18.879780000000153, 8.356250000000102], [18.87673, 8.35425], [18.87337, 8.348350000000153], [18.87375, 8.344900000000166], [18.8762, 8.34117], [18.868380000000116, 8.34203], [18.862790038000185, 8.344685040000115], [18.8572, 8.34734], [18.853290000000186, 8.348120000000108], [18.8505, 8.34726], [18.85384, 8.3419], [18.8555300000001, 8.33474], [18.856325011000024, 8.329325002000019], [18.85712000000018, 8.323910000000183], [18.85461000000015, 8.314770000000124], [18.85094, 8.30544], [18.84317, 8.298490000000129], [18.84011, 8.296260000000188], [18.83718, 8.28897], [18.83036, 8.28428], [18.823870000000113, 8.28108], [18.81988, 8.27632], [18.81484994400006, 8.27192003200014], [18.80982, 8.26752], [18.80442, 8.26071], [18.79702, 8.259680000000117], [18.791444964000107, 8.257125039000186], [18.785870000000102, 8.25457], [18.780490000000157, 8.24937], [18.77423000000016, 8.247400000000141], [18.769024984999987, 8.246215034000102], [18.76382, 8.245030000000156], [18.755949957000155, 8.242850077000128], [18.74808000000013, 8.24067], [18.74022, 8.23987], [18.73488, 8.2372], [18.726779924000084, 8.235333497000113], [18.71867992400007, 8.233466830000111], [18.710580000000107, 8.2316], [18.70361655800002, 8.22849012100005], [18.696653225000034, 8.225380121000114], [18.68969, 8.22227], [18.685364955000068, 8.218085024], [18.68104, 8.213900000000137], [18.67364, 8.212170000000185], [18.670129972000097, 8.209010016000036], [18.666620000000137, 8.20585], [18.662159939000105, 8.200400025000022], [18.657700000000148, 8.19495], [18.657745001000023, 8.190245001], [18.657790000000148, 8.18554], [18.65283, 8.17688], [18.64708490600009, 8.170305042000166], [18.64134, 8.16373], [18.63756655900005, 8.157970037000155], [18.633793225000147, 8.152210036999975], [18.630020000000172, 8.14645], [18.6281, 8.14119], [18.62864000000019, 8.13108], [18.629720014000043, 8.126010002000157], [18.6308, 8.12094], [18.632362587000102, 8.113452513000027], [18.633925116000114, 8.10596501700013], [18.635487587, 8.098477512999978], [18.63705, 8.09099], [18.63509, 8.083220000000154], [18.634049223000034, 8.082506447000185], [18.62787, 8.07827], [18.624350000000163, 8.0735], [18.623819993999973, 8.068800001000113], [18.62329, 8.064100000000167], [18.6246, 8.05972000000014], [18.61805, 8.052470000000142], [18.61341, 8.05024], [18.6046300000001, 8.04876000000013], [18.6016, 8.04674000000017], [18.59358998300013, 8.046455234000064], [18.585579978000055, 8.046170312000072], [18.57756998300016, 8.045885234000139], [18.56956, 8.04560000000015], [18.563099986000054, 8.045160102000182], [18.53411324900003, 8.043210628000168], [18.526079905000074, 8.042675707000058], [18.51804658200018, 8.042140628000084], [18.510013281000113, 8.041605393000111], [18.50198, 8.041070000000161], [18.495164982, 8.04002005700005], [18.48835000000014, 8.03897000000012], [18.481890000000135, 8.03837], [18.47351665900004, 8.038183504000074], [18.46514332600009, 8.03799683700015], [18.45677, 8.03781], [18.453980000000115, 8.03624], [18.45007, 8.03653], [18.441463319000036, 8.036193513000171], [18.432856652000112, 8.035856847000048], [18.424250000000143, 8.035520000000133], [18.42123, 8.03372], [18.41315, 8.032690000000116], [18.407395006000172, 8.033115040000098], [18.4016400000001, 8.03354], [18.393137051000053, 8.032804813000098], [18.384634133000134, 8.032069450000108], [18.376131245000067, 8.03133391200015], [18.36762838800007, 8.030598197000131], [18.35912556100004, 8.029862306999973], [18.35062276500014, 8.029126241000029], [18.342120000000136, 8.028390000000115], [18.336245001000123, 8.028475042000025], [18.33037000000013, 8.028560000000141], [18.32310498700008, 8.027855064000107], [18.31584000000015, 8.02715], [18.30499, 8.02615], [18.297322470000097, 8.025620214000071], [18.289654960000064, 8.025090286000136], [18.28198747000016, 8.024560214000132], [18.274320000000102, 8.024030000000153], [18.270370000000128, 8.021110000000135], [18.261965012000132, 8.02168008600006], [18.253560000000107, 8.022250000000156], [18.244729918000132, 8.021614854000177], [18.235899863000043, 8.02097951800016], [18.227069835000066, 8.020343993000097], [18.218239835000077, 8.019708278000167], [18.21398866700008, 8.019402124000067], [18.209409863000133, 8.019072375], [18.200579918000074, 8.018436282000039], [18.19175, 8.0178], [18.184829961000105, 8.01703017400007], [18.17790994800015, 8.01626023200015], [18.170989961000032, 8.015490174000035], [18.16407, 8.01472], [18.15577, 8.014590000000169], [18.14741247500018, 8.01418525400004], [18.13905496700005, 8.01378033900005], [18.13069747500009, 8.013375253999982], [18.113941079000085, 8.012771795000049], [18.105542165000088, 8.01257342000008], [18.097143260000166, 8.012374873000113], [18.088744363000046, 8.01217615500019], [18.080345474000126, 8.011977266000144], [18.071946593000177, 8.01177820600003], [18.06354772100019, 8.011578975000134], [18.055148856000073, 8.01137957300017], [18.04675, 8.01118], [18.039364982999984, 8.010240066000108], [18.03198, 8.009300000000167], [18.018100000000118, 8.00000000000017], [18.01206652900015, 7.995303422000063], [18.0060331950001, 7.990606756000147], [18.000000000000114, 7.98591], [17.995650000000126, 7.99278], [17.988400976000037, 7.98849752600006], [17.981152103000056, 7.984214925000174], [17.97390338000008, 7.979932195], [17.96665480900009, 7.975649338000153], [17.959406389000037, 7.971366353000064], [17.952158119000046, 7.967083240000136], [17.944910000000107, 7.962800000000129], [17.93062, 7.95942], [17.921641998000098, 7.958610180000051], [17.92164000000014, 7.95861], [17.913401228000055, 7.959342877000154], [17.90516242700005, 7.960075590000145], [17.896923597000125, 7.960808139000051], [17.888684737, 7.961540525000089], [17.880445848000022, 7.9622727470001], [17.87220693000006, 7.963004806000185], [17.863967983000066, 7.963736701000073], [17.855729006000047, 7.96446843200016], [17.847490000000107, 7.9652], [17.839163452000037, 7.966373752000038], [17.830836856000133, 7.967547336000166], [17.822510213000157, 7.968720753000184], [17.814183523000054, 7.969894003000093], [17.805856785000174, 7.971067085000186], [17.797530000000165, 7.972240000000113], [17.7958, 7.972330000000113], [17.788010014000122, 7.972710146000111], [17.780220014, 7.973090146000118], [17.77243, 7.973470000000134], [17.764602557000046, 7.974470222000093], [17.756775076000167, 7.975470296000083], [17.748947557000065, 7.976470222000046], [17.74112, 7.977470000000153], [17.733170000000143, 7.978380000000129], [17.72475500200005, 7.978485086000092], [17.722535347000132, 7.978512759000182], [17.727278, 7.973162], [17.728523, 7.971582], [17.730366000000117, 7.96989], [17.732140000000186, 7.967772], [17.734204, 7.966822], [17.735562000000186, 7.965893], [17.736962, 7.965245], [17.739062, 7.963139000000126], [17.738085, 7.961813000000177], [17.737952, 7.961487], [17.737941, 7.960520000000145], [17.737265, 7.960126], [17.735856000000183, 7.960739000000103], [17.73596700000013, 7.961652000000186], [17.734748, 7.962220000000116], [17.73436800000013, 7.961052000000109], [17.734923, 7.959638000000155], [17.733278, 7.959129000000132], [17.73236300000019, 7.960296], [17.730861, 7.961133], [17.730466, 7.960705000000132], [17.729465, 7.960164], [17.729315, 7.960804000000167], [17.729225, 7.961860000000172], [17.727959000000112, 7.9626990000001], [17.72627400000016, 7.960392000000184], [17.724699, 7.959133000000122], [17.72354300000012, 7.960903], [17.723237, 7.961822], [17.720839, 7.961514000000136], [17.718798000000106, 7.960667], [17.71826, 7.960049], [17.717576, 7.958327], [17.716078, 7.957629], [17.715058000000113, 7.955986000000166], [17.71616200000011, 7.955001], [17.715648, 7.953507], [17.713229000000126, 7.952413], [17.71341000000018, 7.951358], [17.713704000000178, 7.95077300000014], [17.714815, 7.949003], [17.716078, 7.948444000000165], [17.71881800000017, 7.947878], [17.719869, 7.946803000000102], [17.718952, 7.9448000000001], [17.71623700000015, 7.943279000000189], [17.714323, 7.942478000000165], [17.712676, 7.943404], [17.709708, 7.944139000000121], [17.707602000000122, 7.943518], [17.706445000000144, 7.942099], [17.704269, 7.942353000000139], [17.702756, 7.942314000000124], [17.701623, 7.941348000000119], [17.701265, 7.939629], [17.70082200000013, 7.937259], [17.699054, 7.936378000000104], [17.696799000000112, 7.936306], [17.695695000000114, 7.936125000000175], [17.694595, 7.934347000000116], [17.691819, 7.934866], [17.691535000000158, 7.936372000000176], [17.689402, 7.93691500000017], [17.68829, 7.935534], [17.686569000000134, 7.934373000000164], [17.684337, 7.933696], [17.682163, 7.933778000000132], [17.68037500000014, 7.931966000000102], [17.678055, 7.930918], [17.677412000000118, 7.930859000000169], [17.674811, 7.929944000000148], [17.673788000000116, 7.928717], [17.672700000000134, 7.92776], [17.670928, 7.92733], [17.670022, 7.92513700000012], [17.669835, 7.923609], [17.668676, 7.922417000000166], [17.667033, 7.921672000000171], [17.665934, 7.919884], [17.666746000000103, 7.919087000000161], [17.668293000000176, 7.918296], [17.66734, 7.916184000000101], [17.66619500000013, 7.914450000000159], [17.666977, 7.912993], [17.665856000000133, 7.910464], [17.667323, 7.909311], [17.668531000000144, 7.908887000000107], [17.668985, 7.907608], [17.668077, 7.905605], [17.667405, 7.90368500000011], [17.667545000000132, 7.902024], [17.668731, 7.900905000000137], [17.668464000000142, 7.899151000000131], [17.665614, 7.89883], [17.664095, 7.898502000000121], [17.663296, 7.897601000000179], [17.663866, 7.895456000000138], [17.665106, 7.894382], [17.6659, 7.89251], [17.665056, 7.888241], [17.665239, 7.886905000000127], [17.666471, 7.885750000000144], [17.66667800000016, 7.883575000000121], [17.666208000000154, 7.882316], [17.667248, 7.881476], [17.66737600000016, 7.880185000000154], [17.668087000000185, 7.879613], [17.667357, 7.87792700000017], [17.666045000000167, 7.875578000000132], [17.66473500000012, 7.872903000000179], [17.664365, 7.871554000000117], [17.66534, 7.869747000000132], [17.664373, 7.868321], [17.66215000000011, 7.868854000000169], [17.661457000000155, 7.867223], [17.660038000000156, 7.866805000000113], [17.66032300000012, 7.865146000000152], [17.660776000000112, 7.864012000000116], [17.660386000000187, 7.862889000000109], [17.661133000000177, 7.861260000000129], [17.660224, 7.859428], [17.660248000000138, 7.858688000000143], [17.659496000000104, 7.857598000000166], [17.65889, 7.856338], [17.657791, 7.85446], [17.65773800000011, 7.853258], [17.656377000000134, 7.85238], [17.655071, 7.851512], [17.654737000000125, 7.850299], [17.653918, 7.848423], [17.65275, 7.847285], [17.653169000000105, 7.845907], [17.652171000000124, 7.843849000000148], [17.650077, 7.842956000000186], [17.64916600000015, 7.842461], [17.648564, 7.839675000000113], [17.648418000000106, 7.839755], [17.648646, 7.838519], [17.647335, 7.835989000000154], [17.644861000000105, 7.833973000000128], [17.642153, 7.83509], [17.640783, 7.833155000000147], [17.63971, 7.83368], [17.63966, 7.832017000000121], [17.637271, 7.831791], [17.634802, 7.831392000000108], [17.632905000000108, 7.829769000000113], [17.631236, 7.83009], [17.629366, 7.829524000000106], [17.62857, 7.828343], [17.626465, 7.827722], [17.625036, 7.826337], [17.62347, 7.826244000000145], [17.623032, 7.82553600000017], [17.621671, 7.82474800000017], [17.61990400000019, 7.823822000000121], [17.617955, 7.824086], [17.616347, 7.82242100000019], [17.61405900000011, 7.822158000000115], [17.612652, 7.822571000000153], [17.60998300000017, 7.821069], [17.607904000000133, 7.81952600000011], [17.606441, 7.819108000000142], [17.604526, 7.818496000000152], [17.6030990000001, 7.816877000000147], [17.600939, 7.815289000000178], [17.60014500000011, 7.813874000000169], [17.600015, 7.810829000000126], [17.599999, 7.808382000000165], [17.599378, 7.805731], [17.597712, 7.80337800000018], [17.596175, 7.802029000000118], [17.594824000000187, 7.801115], [17.592718, 7.800674], [17.592145, 7.7998300000001], [17.590517, 7.797459000000174], [17.589482000000146, 7.797803], [17.58805600000011, 7.796094], [17.587349, 7.793948000000114], [17.587276, 7.791825000000131], [17.586481, 7.790464000000156], [17.587215000000185, 7.789287000000115], [17.58568, 7.786511000000132], [17.585582, 7.785219000000154], [17.583853, 7.78622600000017], [17.58213, 7.786636000000158], [17.580043, 7.517119], [17.580776000000128, 7.515887], [17.581825, 7.514776], [17.582042, 7.513666000000171], [17.581685, 7.511858000000132], [17.58158800000018, 7.51043], [17.581782, 7.508815], [17.581044, 7.507075], [17.580765, 7.505737000000124], [17.581006000000173, 7.503896], [17.581696, 7.502439], [17.581747000000178, 7.499396], [17.580557000000113, 7.497598000000153], [17.579781, 7.496193], [17.579696000000126, 7.494295], [17.57624600000014, 7.48075], [17.57820000000015, 7.470311000000152], [17.576040798, 7.466456878000088], [17.575977, 7.466343000000109], [17.573385, 7.46602600000017], [17.57076300000017, 7.465807000000154], [17.56820400000015, 7.466744], [17.565852, 7.466762000000131], [17.564063, 7.466423000000134], [17.562525000000107, 7.464162000000101], [17.561400000000106, 7.464542000000108], [17.559941, 7.467176000000109], [17.559027, 7.468343], [17.556055000000185, 7.467697], [17.554945, 7.466279000000156], [17.555342000000167, 7.464025000000163], [17.55687900000015, 7.461861000000169], [17.558581000000117, 7.460528000000181], [17.561468, 7.458176], [17.561159, 7.455997], [17.559671, 7.456500000000119], [17.557679, 7.456756], [17.557161, 7.455957000000183], [17.556174, 7.454911], [17.554799000000173, 7.454819000000157], [17.553111000000115, 7.455555000000118], [17.552286, 7.456912000000102], [17.551301000000137, 7.459054], [17.550541000000123, 7.461423], [17.550247000000127, 7.4631720000001], [17.548949, 7.463596], [17.547928000000127, 7.46236], [17.547468, 7.460965000000101], [17.547102000000166, 7.459283], [17.547149000000104, 7.457856], [17.547391, 7.455881], [17.547991, 7.454332], [17.548940000000187, 7.452145], [17.548143000000152, 7.45110000000011], [17.54626300000018, 7.452016], [17.544897000000162, 7.453170000000114], [17.54355800000019, 7.453223], [17.54288300000013, 7.452694000000179], [17.54129900000015, 7.451715], [17.539137000000153, 7.451608], [17.537078000000122, 7.451167000000112], [17.536821, 7.45056], [17.538444, 7.44891100000018], [17.540306, 7.44790600000016], [17.5415, 7.446876], [17.540357, 7.444944], [17.537275, 7.443376000000171], [17.534891000000187, 7.442833000000178], [17.531931, 7.441961000000106], [17.529685, 7.439903], [17.52976800000016, 7.437402], [17.531144000000154, 7.436203000000148], [17.532652, 7.436576], [17.534654000000103, 7.437332], [17.537328, 7.438942000000111], [17.539627, 7.438834], [17.539753000000132, 7.437733], [17.539800000000128, 7.436298], [17.539251, 7.434849], [17.538049, 7.434631], [17.537293, 7.435339], [17.536426, 7.435124], [17.536338, 7.433643], [17.536558000000127, 7.432227000000125], [17.536706, 7.43065700000011], [17.53696900000017, 7.429422], [17.536295, 7.428802], [17.53482, 7.428845], [17.53251, 7.429278], [17.530125, 7.428835000000163], [17.529577000000188, 7.427206000000183], [17.530312, 7.425748000000169], [17.531259, 7.424943], [17.532946, 7.42560600000013], [17.534543, 7.426061000000118], [17.53656, 7.424930000000188], [17.53653, 7.423034000000143], [17.536727, 7.421003000000155], [17.537773, 7.420217], [17.53950600000013, 7.420772], [17.540062000000148, 7.419079000000124], [17.539423, 7.417539], [17.538797000000102, 7.41655], [17.537956000000122, 7.415414000000112], [17.536573, 7.414076], [17.53564800000015, 7.414421000000175], [17.535229, 7.415926000000184], [17.534833, 7.416844], [17.533237, 7.4161], [17.53231600000015, 7.414819], [17.531653000000176, 7.414011000000187], [17.531038, 7.412841000000185], [17.52962, 7.412568], [17.527706, 7.413239], [17.526039, 7.413515000000189], [17.525567, 7.412572000000125], [17.526179, 7.410654], [17.527028, 7.408565], [17.52675, 7.407118], [17.525973, 7.406959], [17.52523, 7.407161], [17.523888, 7.408694], [17.523196000000155, 7.410378000000151], [17.522393000000136, 7.41243], [17.521647, 7.4142030000001], [17.52008100000012, 7.415500000000122], [17.518559000000153, 7.415723], [17.516839000000118, 7.415944], [17.51543, 7.416827000000126], [17.514155, 7.417937000000109], [17.51314200000013, 7.417911000000117], [17.513528, 7.415891000000101], [17.513824, 7.413907000000108], [17.513729, 7.412245], [17.511649, 7.409917000000178], [17.510121, 7.409824000000128], [17.508342, 7.410595000000171], [17.507527, 7.411817], [17.50619900000015, 7.41168], [17.504702, 7.412237000000118], [17.504475000000127, 7.413472000000183], [17.504931, 7.415291], [17.503780000000177, 7.416727], [17.502733, 7.416466], [17.50118, 7.416092], [17.500539, 7.415843], [17.500395, 7.414632], [17.501863000000185, 7.413208000000168], [17.502159000000177, 7.411179000000175], [17.500663, 7.410535000000152], [17.498809000000108, 7.409274], [17.500333, 7.40762500000011], [17.499695, 7.405976], [17.501103, 7.405193000000111], [17.502147, 7.405833000000143], [17.504015, 7.406444], [17.505624000000182, 7.406492000000128], [17.507316000000174, 7.405305000000169], [17.50788200000011, 7.403566000000126], [17.50670600000018, 7.401272], [17.505480000000148, 7.400667000000112], [17.504367, 7.399574], [17.505261000000132, 7.397523], [17.507110000000182, 7.397068], [17.508605000000102, 7.396754000000158], [17.508667, 7.394633000000169], [17.50891700000011, 7.393849000000159], [17.510697000000164, 7.392897], [17.512329, 7.392395], [17.513289, 7.391093000000183], [17.512627000000123, 7.390149], [17.510909, 7.389025000000174], [17.508897000000104, 7.387167], [17.50840600000015, 7.385248000000104], [17.508871, 7.383554000000117], [17.510003, 7.381062000000156], [17.510411, 7.378672000000108], [17.507916, 7.378544], [17.506449, 7.379932], [17.504935, 7.381492], [17.503924, 7.381186], [17.502916, 7.379399], [17.50116300000019, 7.378049], [17.49969900000019, 7.377956], [17.499253, 7.376002], [17.50058700000011, 7.374297000000126], [17.500081, 7.373038], [17.499669, 7.3714], [17.501268, 7.370392000000152], [17.502207, 7.3683860000001], [17.501175000000103, 7.36734], [17.49953100000016, 7.367056000000161], [17.497684000000106, 7.367276], [17.49590400000011, 7.368228000000158], [17.493777000000136, 7.368446], [17.493217000000186, 7.367133000000138], [17.492457000000172, 7.364887000000124], [17.491178, 7.363144000000148], [17.489366, 7.362299], [17.488077000000146, 7.360645000000147], [17.489170000000172, 7.35970500000019], [17.491097, 7.358393000000149], [17.491092, 7.356813000000159], [17.489996000000133, 7.35574], [17.48929908100007, 7.355730232000099], [17.488141, 7.355714], [17.485774, 7.355474], [17.484080000000176, 7.354567000000145], [17.483031, 7.35368700000015], [17.482416813000157, 7.349894530000086], [17.483601, 7.349007], [17.484961398999985, 7.349450546000128], [17.485899047000146, 7.349649728000088], [17.486821601000088, 7.349838969000189], [17.486851000000115, 7.349845], [17.48649500000016, 7.347937000000115], [17.48656600700008, 7.346932389000017], [17.486576000000127, 7.346791000000167], [17.487043578000055, 7.346690341000055], [17.487872, 7.346485], [17.48909700000013, 7.347099], [17.492627, 7.343289], [17.492689, 7.341168], [17.492198, 7.339168], [17.49185, 7.33740500000016], [17.492046, 7.335429], [17.49303900000018, 7.33578000000017], [17.494181, 7.336556], [17.495633, 7.337064], [17.495591000000104, 7.335492000000158], [17.495121000000154, 7.334324000000151], [17.493809000000113, 7.332156000000168], [17.49292300000019, 7.33093], [17.491656000000148, 7.328771], [17.490645, 7.327255], [17.489467, 7.325322000000142], [17.488219000000186, 7.325321], [17.486781, 7.325337000000161], [17.484742, 7.32581800000014], [17.48410300000012, 7.324314], [17.484762000000103, 7.322170000000142], [17.486217, 7.319915], [17.485939, 7.318468], [17.484724, 7.317736], [17.483373000000142, 7.318249], [17.482616, 7.319011], [17.481752000000142, 7.318471000000102], [17.48114900000013, 7.317022000000122], [17.481285, 7.315741], [17.482141000000126, 7.315025000000105], [17.483661000000154, 7.314983], [17.483830000000125, 7.314153], [17.4848, 7.313863], [17.485778000000153, 7.314864000000114], [17.486798, 7.31619], [17.48779800000017, 7.316677], [17.488307000000134, 7.315218], [17.488028000000156, 7.313924000000156], [17.487592000000177, 7.312937], [17.486154, 7.311779000000115], [17.484333000000163, 7.31116800000018], [17.483175, 7.311132], [17.481700000000103, 7.311229], [17.480531000000155, 7.311644000000115], [17.478984, 7.31279700000016], [17.477891, 7.313773], [17.475943, 7.314263], [17.474652000000106, 7.314], [17.474776, 7.313216000000182], [17.474643, 7.311689000000115], [17.4737310000001, 7.311519], [17.473837000000174, 7.310698], [17.473748000000114, 7.309442], [17.472837, 7.309047], [17.47214, 7.309159], [17.470295, 7.309198], [17.470017, 7.307797000000164], [17.470918, 7.30704500000013], [17.47203100000013, 7.306891000000178], [17.473360000000127, 7.306983000000116], [17.474597000000188, 7.307209000000171], [17.476284000000135, 7.307773000000111], [17.47752, 7.308081], [17.478546, 7.306373000000121], [17.477934, 7.304924000000142], [17.476584, 7.304083000000162], [17.475155000000143, 7.304044000000147], [17.473545000000172, 7.304086], [17.472600000000114, 7.303501000000153], [17.47254700000019, 7.302245000000141], [17.473618000000158, 7.301784], [17.475093000000186, 7.301633000000152], [17.47662600000018, 7.300995000000114], [17.476852, 7.299904], [17.476098, 7.299094], [17.474504000000138, 7.298251000000107], [17.471847, 7.298077], [17.470318000000134, 7.298255], [17.469375000000127, 7.297435], [17.470569000000125, 7.296180000000163], [17.471595, 7.295619000000102], [17.472722, 7.294914], [17.473512, 7.293376000000137], [17.474113000000102, 7.291729], [17.474497, 7.289944], [17.475119, 7.289082000000121], [17.47565900000012, 7.28826400000014], [17.475765, 7.287443], [17.474841, 7.286398], [17.473517000000186, 7.285846], [17.472583000000157, 7.285026], [17.471405, 7.284114000000102], [17.470633, 7.282293], [17.470861000000127, 7.280814], [17.470839, 7.280127000000107], [17.47047, 7.2787790000001], [17.46978700000011, 7.277094000000147], [17.470196, 7.275679000000139], [17.471987, 7.274438000000146], [17.472922000000153, 7.274057], [17.47361100000012, 7.272600000000125], [17.473512, 7.271398000000147], [17.473041, 7.27032], [17.471999000000153, 7.269409], [17.471683, 7.268196], [17.471721, 7.266905000000179], [17.471080000000143, 7.266702], [17.47037, 7.267283], [17.469467, 7.26826], [17.468567, 7.268931000000123], [17.46748600000012, 7.268435000000125], [17.467603, 7.26728], [17.468574000000103, 7.2657880000001], [17.469342, 7.26465700000017], [17.47022, 7.263309000000163], [17.46897200000018, 7.262198], [17.467939000000115, 7.26249700000011], [17.46633, 7.262484000000143], [17.46464400000019, 7.261884], [17.463802000000157, 7.260839], [17.46487100000013, 7.260594], [17.46657, 7.260698000000161], [17.46688500000016, 7.259689000000151], [17.46653, 7.258883], [17.464763, 7.258192000000122], [17.462693, 7.258121], [17.46224500000011, 7.257603], [17.462144, 7.256582], [17.461517, 7.255864], [17.460202, 7.25517600000012], [17.458943, 7.254309000000148], [17.459532, 7.253031000000135], [17.459061, 7.252007000000106], [17.458388000000184, 7.251343], [17.459256, 7.250112000000172], [17.460663000000125, 7.249464], [17.461541000000125, 7.249363000000187], [17.462429, 7.250173], [17.463258, 7.251769000000138], [17.464091, 7.251559], [17.464084, 7.250177], [17.464143, 7.248471000000109], [17.464055, 7.246944], [17.463495000000137, 7.245685], [17.462563000000102, 7.24459400000012], [17.461394, 7.243808000000115], [17.459485, 7.242873], [17.458483, 7.242558], [17.457056, 7.242384], [17.455603000000167, 7.242057], [17.453928000000133, 7.242414], [17.452903, 7.242758], [17.451587, 7.243452000000161], [17.450065, 7.243819000000144], [17.448278000000187, 7.243444], [17.44691900000015, 7.242603], [17.44625800000017, 7.241613], [17.445945, 7.239995000000135], [17.446029, 7.238469000000123], [17.446773000000178, 7.236976], [17.447238, 7.235373000000152], [17.447197, 7.233711], [17.447141, 7.232735], [17.446391000000176, 7.231556000000126], [17.44555, 7.230375000000151], [17.44441300000011, 7.230068000000131], [17.443164, 7.230293], [17.442276, 7.230548], [17.440914000000134, 7.230086], [17.439343, 7.228656], [17.43806300000017, 7.228249], [17.436418000000117, 7.228092], [17.43574200000012, 7.228998], [17.434455, 7.230568000000119], [17.433915000000127, 7.2314760000001], [17.432787, 7.232325000000174], [17.432358, 7.232773000000122], [17.431919, 7.233402000000126], [17.431423, 7.234491000000162], [17.431499, 7.235096000000112], [17.4309, 7.236554000000126], [17.430147000000147, 7.2369], [17.429224000000147, 7.237056000000109], [17.428255, 7.237256000000173], [17.42718600000012, 7.237410000000125], [17.425983, 7.23759], [17.42520500000012, 7.23762], [17.42409300000014, 7.237629], [17.423124, 7.237829000000147], [17.42225900000011, 7.237434000000121], [17.421857, 7.236862], [17.421902, 7.235662], [17.422031, 7.234281], [17.422111000000143, 7.233226000000116], [17.421788, 7.231778], [17.421633, 7.230856000000131], [17.420881000000122, 7.229902], [17.420275, 7.228778000000148], [17.419926, 7.228351], [17.419411, 7.227091], [17.419246, 7.226205], [17.41994700000015, 7.224477], [17.41987200000011, 7.22249], [17.418186000000105, 7.221926], [17.416354, 7.221542], [17.416391, 7.220296000000189], [17.416966, 7.218467], [17.417150000000163, 7.216862000000106], [17.416942000000176, 7.21454000000017], [17.417360000000144, 7.213170000000162], [17.416474, 7.211981], [17.415809, 7.212653], [17.4153, 7.21412], [17.415186, 7.214815], [17.414341, 7.215386], [17.413307000000145, 7.214701], [17.41235300000011, 7.214169], [17.410723, 7.213326000000109], [17.410433, 7.212294000000156], [17.410627, 7.210553000000175], [17.409858, 7.208407], [17.410524000000123, 7.206525000000113], [17.411448000000178, 7.205043000000103], [17.41255500000011, 7.203408], [17.413469, 7.202151], [17.414553, 7.199966000000131], [17.414321, 7.197237], [17.414313000000107, 7.196036], [17.414631, 7.19465700000012], [17.41495, 7.193188], [17.415312000000142, 7.191963000000158], [17.416044000000113, 7.190786000000116], [17.415, 7.190191], [17.414077, 7.190391000000147], [17.41261400000019, 7.191274], [17.411074000000156, 7.19053], [17.411066000000176, 7.189329], [17.411192000000142, 7.188174], [17.41182600000019, 7.186951], [17.412623, 7.186651], [17.414007, 7.186607], [17.415638000000115, 7.187261000000149], [17.417501, 7.188287000000116], [17.419132, 7.189031], [17.420783, 7.189459000000113], [17.421507, 7.188228], [17.422519000000136, 7.18817300000012], [17.423778, 7.187894000000142], [17.423635000000104, 7.186502], [17.423278, 7.186021], [17.421940000000177, 7.184873], [17.42101900000017, 7.184712000000104], [17.419588, 7.185035], [17.41825100000011, 7.184943], [17.416815000000156, 7.183604], [17.416039, 7.182199], [17.415324, 7.181209], [17.41476200000011, 7.180212], [17.414271000000156, 7.178312], [17.413892, 7.17709], [17.413611, 7.175968000000125], [17.41187500000018, 7.173796], [17.410886, 7.17312], [17.40949200000017, 7.172198], [17.410021, 7.171515000000113], [17.409497, 7.170347000000106], [17.40734700000013, 7.17014], [17.406852, 7.171093], [17.40559100000013, 7.171661], [17.404885, 7.170608000000186], [17.403692, 7.170572], [17.402567, 7.171096], [17.401331, 7.169614], [17.514291000000185, 7.06193], [17.51441100600016, 7.061818982000091], [17.57892800000019, 7.002134000000183], [17.581257000000164, 6.992623], [17.584315, 6.985917], [17.59614, 6.962920000000111], [17.602407, 6.95229], [17.605052, 6.945121], [17.610979000000157, 6.945289], [17.618496, 6.943058], [17.632249, 6.938207000000148], [17.649642, 6.933607], [17.676798, 6.928713], [17.689065, 6.912785], [17.701085, 6.89448], [17.71403700000019, 6.880985], [17.719882, 6.875976], [17.721137, 6.877439000000152], [17.721047, 6.877493000000186], [17.722420000000113, 6.877565], [17.722603000000163, 6.87715100000014], [17.725094, 6.877728], [17.724944, 6.877086], [17.72595600000011, 6.877174], [17.725718000000143, 6.876342000000136], [17.726867, 6.876060000000109], [17.726953, 6.875402000000179], [17.728331, 6.874707], [17.727907, 6.873376], [17.728725, 6.872677000000124], [17.728669, 6.87162], [17.728984, 6.870502000000101], [17.729759, 6.869442000000163], [17.729245000000105, 6.868020000000115], [17.730464, 6.866854000000103], [17.731232, 6.865514], [17.73192200000011, 6.864958], [17.733281, 6.863197000000184], [17.733872000000133, 6.862632000000133], [17.736686, 6.863437000000147], [17.73723400000017, 6.863947], [17.738711000000137, 6.863388], [17.739835, 6.86157100000014], [17.741906, 6.861323], [17.743604000000175, 6.861407], [17.74496900000014, 6.860061], [17.746846000000176, 6.859026], [17.746684, 6.856306], [17.746222, 6.85521000000017], [17.74593, 6.85428700000017], [17.746986, 6.853084], [17.747855000000186, 6.852936000000113], [17.749038, 6.851644000000135], [17.749813000000188, 6.850619], [17.752392, 6.851513000000125], [17.752815, 6.853087000000187], [17.754475, 6.853478], [17.754803, 6.854447], [17.75536000000011, 6.854857], [17.756648, 6.855435000000114], [17.757525, 6.856813000000102], [17.759282, 6.857539], [17.76148, 6.857201], [17.76259, 6.857462000000112], [17.76329100000015, 6.859300000000133], [17.76537, 6.86066], [17.766023, 6.861631000000102], [17.765517000000102, 6.862919], [17.766403, 6.864199000000156], [17.7687, 6.864043], [17.770184, 6.865091], [17.770735, 6.866468000000111], [17.771756000000153, 6.867748000000176], [17.77503000000013, 6.868782], [17.774587, 6.870125], [17.774081000000137, 6.871377], [17.774565, 6.873395], [17.776802, 6.872687], [17.779424, 6.872524], [17.780295, 6.872006], [17.78166000000016, 6.870615], [17.783348, 6.869543], [17.78453700000017, 6.868837], [17.786049, 6.868323000000146], [17.787713, 6.869509], [17.787853, 6.868859], [17.787847000000113, 6.868353000000127], [17.789260000000127, 6.867884], [17.789354000000117, 6.867379], [17.790316000000132, 6.866807000000108], [17.790764, 6.86607], [17.790535000000148, 6.865201], [17.7912, 6.864275], [17.790974, 6.863027000000159], [17.790404000000137, 6.861786000000166], [17.790440000000103, 6.860413], [17.790749, 6.858789000000172], [17.79313500000012, 6.858724000000109], [17.79524, 6.8576], [17.7956420000001, 6.856853], [17.79636600000015, 6.855331], [17.797415, 6.853902000000119], [17.799068, 6.854021], [17.800947, 6.852851], [17.800992, 6.852806], [17.801674, 6.852205], [17.80254100000019, 6.852337], [17.8037920000001, 6.853059], [17.805625, 6.851933], [17.806942000000163, 6.850876], [17.808834, 6.851864], [17.810021000000177, 6.851348], [17.81079100000011, 6.849637], [17.811463000000117, 6.84788], [17.813437, 6.848553], [17.816352000000165, 6.850604], [17.817422, 6.851424], [17.81813, 6.853624], [17.819105, 6.855229000000122], [17.819921, 6.8548100000001], [17.819855000000132, 6.852506], [17.820785000000114, 6.853922000000182], [17.821948, 6.854426000000103], [17.821760000000154, 6.855527000000109], [17.821823, 6.856910000000141], [17.823944, 6.85735700000015], [17.825745, 6.859600000000114], [17.82702600000016, 6.858570000000157], [17.82776200000012, 6.858015], [17.828534, 6.85740600000014], [17.830741, 6.857203], [17.831573000000105, 6.858446000000185], [17.833053000000177, 6.860182000000123], [17.83433200000013, 6.859386], [17.835207, 6.85836200000017], [17.836221000000137, 6.859408], [17.837237000000187, 6.860191000000157], [17.83908300000013, 6.861179], [17.839643, 6.862565000000131], [17.840472000000148, 6.862931], [17.84149, 6.863516000000118], [17.843329, 6.864152000000161], [17.844443, 6.865189000000157], [17.845123, 6.864868], [17.846823, 6.864807], [17.848947, 6.866077], [17.850048000000186, 6.866382000000101], [17.850555, 6.866205], [17.852534, 6.866272], [17.854194, 6.866725], [17.85500700000017, 6.865376], [17.854988, 6.864084], [17.856431, 6.866017000000113], [17.856271000000106, 6.868275], [17.857418000000166, 6.868400000000122], [17.858086000000185, 6.865857000000176], [17.859343, 6.867093000000125], [17.860169, 6.867957], [17.86169200000012, 6.868545], [17.86325100000016, 6.86788700000011], [17.863235, 6.8662700000001], [17.86507600000016, 6.86658000000017], [17.86512500000015, 6.867402000000141], [17.867002000000184, 6.86647500000015], [17.868919000000176, 6.870417], [17.871256, 6.871083], [17.871310000000108, 6.871137], [17.872382000000187, 6.873014000000126], [17.87229800000017, 6.873384], [17.873954, 6.874425], [17.874004, 6.875157000000172], [17.874248, 6.876495], [17.876599, 6.877721], [17.877390000000105, 6.878449], [17.877769, 6.879824], [17.879143, 6.879906000000176], [17.880662000000143, 6.879798000000108], [17.882358000000124, 6.880207], [17.88384000000019, 6.88028], [17.884708, 6.880276], [17.885720000000106, 6.880265], [17.886905000000127, 6.880209], [17.887968000000114, 6.880704], [17.889542000000176, 6.881889000000115], [17.889785000000188, 6.883363], [17.889787000000183, 6.884429000000125], [17.891368, 6.885975000000144], [17.89165000000014, 6.887169], [17.891677, 6.889888], [17.891689000000156, 6.892147], [17.8922510000001, 6.893379], [17.89354400000019, 6.893333], [17.89551900000015, 6.893906000000186], [17.8964, 6.894779], [17.898008, 6.894853000000182], [17.899167, 6.895899], [17.899904, 6.8965], [17.901375, 6.896988], [17.90293800000012, 6.897026], [17.905107000000157, 6.898521], [17.906633000000113, 6.898730000000171], [17.908561000000134, 6.899601], [17.910606, 6.902062000000171], [17.911175, 6.903574], [17.911637, 6.904779], [17.912607, 6.904397], [17.912693, 6.903611], [17.91411100000016, 6.903873], [17.914239, 6.902221000000168], [17.913953, 6.901758], [17.915466, 6.90119], [17.9156, 6.90008900000015], [17.916177, 6.898882000000128], [17.917469000000153, 6.898963], [17.918933000000152, 6.898999], [17.919668, 6.898525], [17.920901, 6.898018], [17.921727, 6.8974], [17.921955, 6.897221000000172], [17.922170000000108, 6.895976000000189], [17.92184200000014, 6.895052000000135], [17.922936, 6.893533], [17.923391, 6.893066], [17.923476000000164, 6.892506000000139], [17.92479600000013, 6.891069], [17.924785, 6.889967], [17.923666, 6.888316], [17.92448700000017, 6.887201000000118], [17.926227, 6.886453], [17.927177000000142, 6.884924], [17.92701600000015, 6.88317], [17.928538000000117, 6.882701000000111], [17.929594000000122, 6.882915], [17.930371, 6.883002], [17.931927, 6.881331000000102], [17.93327200000016, 6.878883], [17.93110200000018, 6.876132], [17.927528, 6.872432000000117], [17.926254000000142, 6.868169], [17.9254, 6.864622000000168], [17.922335, 6.860691000000145], [17.921848000000125, 6.857607], [17.92610000000019, 6.855638], [17.930821, 6.855081000000155], [17.935425000000123, 6.856059], [17.938097, 6.856546], [17.94184500000017, 6.855495], [17.94744, 6.8540220000001], [17.951371, 6.851363000000163], [17.95397300000019, 6.850133], [17.956349000000102, 6.848829000000137], [17.95803400000011, 6.846871000000135], [17.959446, 6.84510900000015], [17.96085, 6.843121000000167], [17.962067, 6.840762], [17.963417000000163, 6.837437], [17.963611, 6.833888], [17.963139, 6.83131], [17.962516, 6.82837], [17.963409, 6.825738], [17.96536600000013, 6.8236], [17.963956000000167, 6.820709000000136], [17.960453, 6.818663000000129], [17.95915300000013, 6.817065], [17.95629600000018, 6.815755], [17.951518, 6.815382], [17.947472000000175, 6.814868], [17.944024000000184, 6.814205], [17.941122, 6.812895], [17.939041000000145, 6.81047], [17.933839000000148, 6.809822000000111], [17.929529, 6.809723], [17.92742, 6.810296000000108], [17.925448, 6.810501000000158], [17.921739000000173, 6.811082000000113], [17.918015, 6.811302000000182], [17.916491, 6.81076000000013], [17.914367, 6.809355], [17.910586, 6.806991], [17.908682, 6.805163000000107], [17.907945000000154, 6.80452600000018], [17.906044, 6.802282000000105], [17.902081, 6.800107], [17.899594, 6.799115], [17.896919, 6.797617000000116], [17.892998, 6.796128], [17.889487, 6.793956], [17.88646, 6.792644], [17.883654, 6.791976], [17.881934, 6.79098], [17.879169, 6.789526], [17.87722700000012, 6.78797800000018], [17.875525, 6.787073], [17.874272, 6.785195000000158], [17.87361200000015, 6.783871], [17.871484000000123, 6.781762000000128], [17.87091100000015, 6.779509], [17.869762, 6.778327000000104], [17.868497, 6.775474000000145], [17.868068000000108, 6.773366000000181], [17.869014, 6.771105000000148], [17.870259, 6.767174000000125], [17.873769, 6.763692000000162], [17.875535000000127, 6.760352], [17.877593, 6.759281], [17.879904000000124, 6.756676], [17.88067500000011, 6.754829000000143], [17.881618000000174, 6.752929000000108], [17.882433000000105, 6.751272000000142], [17.883022, 6.74965], [17.88345800000019, 6.747846], [17.883126, 6.746055000000126], [17.881874, 6.744087], [17.880244000000175, 6.741701000000148], [17.877212000000156, 6.741184], [17.873170000000187, 6.740246000000184], [17.871301, 6.737226], [17.86874500000016, 6.734202000000153], [17.867842, 6.729968000000156], [17.86700100000013, 6.727126000000169], [17.866683, 6.723249], [17.867805, 6.720112], [17.869628, 6.717613], [17.871208, 6.715021], [17.873307000000125, 6.713156], [17.874027, 6.710757000000115], [17.875099, 6.708497000000136], [17.876468, 6.706319], [17.8764240000001, 6.7017570000001], [17.87673, 6.699167], [17.875422000000185, 6.696051000000125], [17.874007000000177, 6.692564], [17.872789000000125, 6.689575], [17.871536000000162, 6.687607], [17.868857, 6.685557000000131], [17.865723, 6.683975000000146], [17.86282100000011, 6.6828450000001], [17.858736, 6.683063000000175], [17.855521, 6.682952], [17.852307, 6.68257], [17.848901000000126, 6.681256], [17.845715000000155, 6.679357000000152], [17.843679, 6.677014], [17.839650000000177, 6.672724], [17.835786, 6.666728], [17.831591, 6.664362], [17.828638000000126, 6.662771], [17.824959, 6.661745], [17.821552, 6.66053], [17.818968, 6.659213], [17.815483, 6.658929000000114], [17.81309700000014, 6.659085], [17.81006800000017, 6.659616000000142], [17.807653000000187, 6.661425], [17.805453, 6.662188000000128], [17.802003, 6.662075000000186], [17.79931, 6.662193000000173], [17.79558, 6.662088], [17.792554, 6.662023000000147], [17.789323, 6.660159000000135], [17.785775000000115, 6.658438], [17.783147, 6.65703], [17.780798, 6.655714], [17.778808, 6.653334], [17.779066000000114, 6.651168000000155], [17.779962000000182, 6.648121], [17.781451000000118, 6.645529], [17.782442, 6.643160000000137], [17.783568000000116, 6.6409], [17.784008, 6.638545], [17.784676000000104, 6.635822000000132], [17.785440000000108, 6.63356], [17.784271, 6.631312], [17.783255000000167, 6.629255000000171], [17.781359000000123, 6.627698000000123], [17.777354, 6.626814], [17.77358100000015, 6.626428], [17.770602, 6.626228], [17.768393, 6.625590000000159], [17.765076, 6.624521000000186], [17.76287500000018, 6.624118], [17.760199000000114, 6.623035000000129], [17.758302000000185, 6.621767], [17.756311, 6.619514000000152], [17.75492400000013, 6.617509000000155], [17.752025, 6.61614400000019], [17.749775, 6.616256], [17.746546, 6.614166000000125], [17.745988, 6.613937], [17.745439, 6.613536], [17.74515200000019, 6.613299000000154], [17.745981, 6.612239], [17.747485, 6.611399000000176], [17.747882000000118, 6.610192], [17.745866, 6.609104000000173], [17.745028, 6.607364], [17.745516, 6.605877000000135], [17.747027, 6.605498], [17.749174, 6.604564], [17.748933, 6.602765], [17.747305000000154, 6.600379000000146], [17.74605300000013, 6.598365000000115], [17.74668000000014, 6.596427], [17.746662, 6.595045], [17.745504000000153, 6.592518], [17.745762000000184, 6.590352], [17.74508900000012, 6.586996], [17.744852, 6.585848000000112], [17.744056, 6.584795], [17.742867000000103, 6.584164], [17.738817, 6.583505], [17.736705, 6.583202], [17.736691000000178, 6.5812600000001], [17.736084, 6.580154], [17.736164, 6.579008000000101], [17.735425, 6.57735], [17.73431200000016, 6.576250000000186], [17.733846000000142, 6.575759], [17.73180900000017, 6.573704], [17.731026, 6.571911000000171], [17.729756000000123, 6.568696], [17.727686, 6.567517], [17.72706600000015, 6.5657250000001], [17.726273, 6.564076], [17.72439, 6.563305], [17.723414000000105, 6.562061000000142], [17.723077000000103, 6.559674], [17.722746, 6.557929], [17.721121, 6.556419000000176], [17.71937200000019, 6.55592], [17.719911, 6.55361100000016], [17.720581, 6.551954], [17.721808000000124, 6.550706000000162], [17.722952, 6.54981], [17.723856, 6.548335], [17.724291, 6.545330000000149], [17.724503, 6.543308], [17.725274000000184, 6.54132600000014], [17.724753, 6.53948], [17.725339, 6.538364], [17.72565800000018, 6.53786], [17.726471000000117, 6.536475], [17.726646000000187, 6.534534], [17.726574, 6.531770000000108], [17.726662, 6.530614], [17.727567, 6.528949000000125], [17.727093, 6.526923000000181], [17.727402, 6.525127000000111], [17.72601200000014, 6.523673], [17.72439400000019, 6.522488], [17.724613, 6.520864000000131], [17.725753, 6.520537000000104], [17.72644200000019, 6.520027], [17.72701400000011, 6.518269], [17.727605000000153, 6.516187], [17.72786500000018, 6.51375], [17.728397000000143, 6.51240700000011], [17.728207, 6.511024], [17.728872, 6.508716000000106], [17.729008, 6.508672000000161], [17.729414, 6.507419], [17.729589000000146, 6.505442], [17.729702, 6.503365], [17.730847000000153, 6.502208], [17.731428000000108, 6.500351], [17.732561, 6.499617], [17.733467, 6.4978440000001], [17.733366, 6.49661500000019], [17.734603, 6.495313], [17.73473100000018, 6.493652000000168], [17.735503000000108, 6.492907000000173], [17.737239, 6.492657], [17.738189, 6.490901], [17.737526000000173, 6.488748000000101], [17.73783, 6.486437], [17.73875, 6.485142000000167], [17.73840200000018, 6.483018000000129], [17.738618, 6.48182700000018], [17.7374200000001, 6.47985], [17.737544, 6.478839], [17.738358, 6.477309000000105], [17.73820400000011, 6.475881], [17.737608, 6.474558], [17.736851, 6.472855000000152], [17.736622000000125, 6.472032], [17.73725, 6.471241], [17.736385, 6.47101], [17.73829700000016, 6.468466], [17.740028, 6.467438000000129], [17.741591, 6.467421000000115], [17.734280000000183, 6.460355000000106], [17.729267000000164, 6.442452000000117], [17.730643000000157, 6.434269], [17.732018, 6.428813000000105], [17.73339300000015, 6.426085000000171], [17.73339300000015, 6.421993], [17.720824, 6.412311], [17.72153, 6.399409000000105], [17.72460000000018, 6.397879], [17.725535, 6.397201], [17.725159, 6.395274000000143], [17.72487200000012, 6.39362], [17.72549, 6.391492], [17.723739, 6.389981], [17.723604, 6.389981], [17.722125, 6.388336], [17.72064200000011, 6.387288000000183], [17.720536, 6.385445], [17.72236000000015, 6.3840110000001], [17.722207, 6.382493], [17.721047, 6.380282], [17.721770000000163, 6.378805000000114], [17.72139600000014, 6.378026000000148], [17.721025000000168, 6.376651], [17.721088, 6.373842], [17.72163000000012, 6.372445], [17.722078, 6.371473], [17.721337, 6.37024], [17.722021000000154, 6.369079], [17.721454000000108, 6.367386000000124], [17.720898000000147, 6.366796], [17.720288, 6.364760000000103], [17.72045400000019, 6.36278300000015], [17.720666000000108, 6.360806], [17.719185000000152, 6.358042], [17.72054400000013, 6.355783], [17.720717, 6.354122000000132], [17.721070000000168, 6.353935], [17.722304000000122, 6.352913], [17.722297, 6.351251], [17.723294000000124, 6.350643], [17.723150000000146, 6.349080000000185], [17.721764, 6.348493000000133], [17.720526, 6.347302000000184], [17.720606000000146, 6.346056], [17.720827, 6.345235], [17.718843000000106, 6.343543000000182], [17.717916000000116, 6.341703000000166], [17.71835900000019, 6.340225], [17.715515, 6.340252], [17.713993, 6.339619], [17.71202000000011, 6.33908300000013], [17.710459, 6.33891], [17.709304, 6.337539000000106], [17.707648000000177, 6.336716], [17.70641, 6.336916], [17.704382000000123, 6.336469], [17.704003, 6.33500400000014], [17.703942000000154, 6.333296000000189], [17.702369, 6.330766], [17.701893, 6.32902], [17.701152, 6.327606000000117], [17.698831, 6.325044000000105], [17.698091, 6.323567], [17.69845000000015, 6.322459], [17.698846, 6.321215000000166], [17.69884, 6.319327000000101], [17.69749300000018, 6.318144], [17.698126000000173, 6.316658], [17.697891, 6.315275], [17.696226000000138, 6.31441500000011], [17.695408000000157, 6.313913000000127], [17.693136, 6.312138000000175], [17.692532, 6.310625], [17.692338000000177, 6.309793000000127], [17.688709, 6.308479000000148], [17.687549, 6.307758000000149], [17.685712, 6.307168], [17.683417, 6.306042000000105], [17.682486000000154, 6.304799000000116], [17.679726, 6.303129000000126], [17.679285000000164, 6.300127], [17.680475, 6.298916], [17.680649, 6.298555], [17.680819, 6.295928000000117], [17.681499, 6.295463], [17.682452000000183, 6.29453], [17.682359000000133, 6.293617], [17.681012, 6.291134000000113], [17.679485, 6.289995], [17.678334000000177, 6.289265], [17.67704600000019, 6.288769000000173], [17.67474200000015, 6.287860000000137], [17.672627000000148, 6.28687100000019], [17.671336, 6.285445000000152], [17.66972, 6.284080000000188], [17.669256, 6.283345000000111], [17.667918, 6.282199000000162], [17.666664, 6.280692000000158], [17.665111, 6.280844000000116], [17.66475700000018, 6.278313000000139], [17.663247000000126, 6.277355000000114], [17.661691000000133, 6.277923], [17.660807, 6.276409000000172], [17.659964, 6.274065], [17.6581240000001, 6.273891], [17.657337000000155, 6.272747], [17.657180000000153, 6.270489], [17.6565700000001, 6.268516], [17.65574, 6.267002], [17.654079, 6.265727], [17.65306, 6.2642120000001], [17.651429000000178, 6.262296], [17.649995, 6.260743000000161], [17.649488000000133, 6.259583], [17.64663700000017, 6.258048], [17.645992, 6.257258], [17.644470000000126, 6.25677], [17.642528, 6.255592], [17.641382, 6.255684], [17.640600000000177, 6.255137000000104], [17.638808, 6.254557], [17.637514000000124, 6.253691], [17.635754000000134, 6.250807000000123], [17.634267, 6.249154000000146], [17.63381, 6.248555000000181], [17.631733000000168, 6.247377], [17.629079000000104, 6.247441], [17.628524, 6.246805000000109], [17.626897, 6.244329000000107], [17.624556000000155, 6.243610000000103], [17.62380000000013, 6.241771], [17.62210000000016, 6.240903000000117], [17.621573, 6.238705000000152], [17.620824, 6.2359], [17.618829, 6.233106], [17.619417, 6.231484], [17.620003, 6.230232], [17.61880200000013, 6.228915000000143], [17.618154000000175, 6.227204000000143], [17.61808, 6.224765000000161], [17.617423, 6.223072], [17.618101, 6.221360000000118], [17.61905300000012, 6.219325], [17.619445, 6.217296000000147], [17.61970600000012, 6.21457], [17.62024700000012, 6.213191000000165], [17.620046, 6.210797000000127], [17.621091, 6.209720000000175], [17.62052800000015, 6.207422000000122], [17.621976, 6.205345], [17.622887000000105, 6.203996000000132], [17.62245800000011, 6.201925], [17.62065100000018, 6.199358], [17.619501, 6.198682000000133], [17.618331, 6.196751], [17.616498, 6.195430000000158], [17.615604, 6.192769000000112], [17.61462200000011, 6.191020000000151], [17.613422000000128, 6.189639000000113], [17.61285, 6.187306000000149], [17.611373, 6.185472000000118], [17.612094, 6.184176], [17.61061000000018, 6.182107], [17.610784, 6.180266000000131], [17.609676, 6.17852500000015], [17.608382, 6.177758], [17.607495, 6.175323], [17.607990000000143, 6.174071], [17.609223, 6.173085000000185], [17.608748000000105, 6.171258], [17.608694000000128, 6.169831], [17.609974000000136, 6.16862], [17.60931500000015, 6.167198000000155], [17.609851000000106, 6.165160000000128], [17.61030000000011, 6.164097], [17.610013, 6.162443], [17.612201, 6.160397], [17.613573, 6.158871], [17.614699, 6.157613], [17.615385, 6.156272000000115], [17.617333, 6.153449000000137], [17.617869, 6.15151], [17.618185, 6.150122000000181], [17.618911, 6.149340000000166], [17.62092300000012, 6.147989000000109], [17.621601000000112, 6.146413000000109], [17.624097, 6.144000000000119], [17.6276170000001, 6.14245000000011], [17.627988, 6.142173], [17.630039000000124, 6.140406], [17.631873, 6.139975000000106], [17.633323, 6.139000000000124], [17.635698000000104, 6.13727200000011], [17.63817300000011, 6.136755000000164], [17.63895, 6.136561], [17.641145000000165, 6.134795000000167], [17.64402600000011, 6.134308], [17.645771, 6.133741], [17.646541, 6.133231], [17.650387000000137, 6.132875000000126], [17.6522930000001, 6.129636000000175], [17.653886, 6.127415], [17.656635000000165, 6.126466], [17.660381000000143, 6.124827], [17.662104, 6.123294000000158], [17.66311000000013, 6.122596000000158], [17.66527000000019, 6.122076000000106], [17.668514000000187, 6.121356], [17.673734, 6.120485], [17.674280000000124, 6.119703], [17.675011, 6.118271], [17.67678100000012, 6.116638000000137], [17.679794000000186, 6.115194], [17.681705, 6.11264], [17.682804, 6.111482], [17.68443500000012, 6.110273000000177], [17.68604, 6.108964], [17.686901, 6.108446000000185], [17.68791300000015, 6.108172], [17.68855, 6.107282000000112], [17.689872, 6.106495], [17.691517, 6.105981000000156], [17.693154000000163, 6.104022], [17.695126, 6.104612], [17.69563, 6.104832000000101], [17.697016000000133, 6.105428], [17.698213, 6.105833000000132], [17.69954, 6.105823], [17.700965, 6.105813], [17.701372000000163, 6.105708000000106], [17.70215100000013, 6.105243], [17.704341000000113, 6.104082], [17.705709000000184, 6.103241], [17.70689, 6.101894000000186], [17.708476000000132, 6.099347000000137], [17.70942700000012, 6.097221000000104], [17.71208300000012, 6.096651000000179], [17.714098, 6.09622], [17.714083, 6.094188000000145], [17.714755, 6.092115], [17.716403000000184, 6.091041000000189], [17.71804900000012, 6.090428], [17.721709, 6.089474], [17.72412900000012, 6.087755], [17.725079, 6.087192000000186], [17.725666000000103, 6.085624000000109], [17.727078, 6.083401], [17.727649, 6.081508], [17.730159, 6.079690000000141], [17.731793, 6.076637000000119], [17.733757, 6.075611000000151], [17.736681, 6.074066], [17.73888000000011, 6.072986], [17.741578, 6.072966000000122], [17.754074000000116, 6.050333000000137], [17.753304000000185, 6.058467], [17.753630000000157, 6.061179], [17.753679000000147, 6.06654500000019], [17.753831000000105, 6.071369000000175], [17.753793000000144, 6.076183], [17.753579, 6.080237000000125], [17.754691, 6.08588], [17.753369, 6.089784], [17.74839400000019, 6.096275000000162], [17.75055300000014, 6.101906], [17.754591, 6.104017000000169], [17.760682, 6.102582], [17.762639, 6.098213000000101], [17.76528900000011, 6.094164], [17.76954000000012, 6.089465000000132], [17.775486, 6.084957], [17.779555, 6.083437], [17.784006, 6.08300300000019], [17.789324000000136, 6.084055], [17.793988000000184, 6.079684], [17.796078, 6.075586], [17.798732000000143, 6.070851000000118], [17.800015, 6.067588000000171], [17.799454, 6.064794], [17.799407, 6.061993000000143], [17.801782, 6.058575000000133], [17.803978, 6.058028000000149], [17.806725000000142, 6.060311], [17.809571, 6.062785000000133], [17.812785, 6.065577000000189], [17.81801300000012, 6.068101000000127], [17.82315300000016, 6.070155000000113], [17.827221000000122, 6.067252], [17.828177000000153, 6.064304], [17.828401, 6.06155], [17.83100800000011, 6.058476], [17.834482, 6.056987], [17.836643, 6.05767800000018], [17.839024, 6.061025000000143], [17.842921000000104, 6.062755], [17.846045000000117, 6.062421], [17.848105, 6.061963000000162], [17.85309800000016, 6.064576000000159], [17.85443600000019, 6.068883], [17.856237, 6.077141], [17.860189000000105, 6.07887200000016], [17.8692640000001, 6.079358], [17.875164000000154, 6.078064], [17.877414000000158, 6.075945], [17.875759000000187, 6.0735600000001], [17.869233, 6.067515000000128], [17.86872, 6.062688], [17.867056, 6.05705], [17.866226, 6.053793], [17.865353, 6.050256000000161], [17.86470400000013, 6.048608], [17.862768000000187, 6.044839000000138], [17.861525, 6.041273000000103], [17.859453000000144, 6.03604], [17.857514, 6.03116800000015], [17.856601, 6.029844], [17.855538, 6.024987000000124], [17.855168000000162, 6.023278000000118], [17.8554400000001, 6.020072], [17.854836, 6.016808], [17.855103, 6.014190000000156], [17.854675, 6.008722000000148], [17.85700500000013, 6.005095], [17.86111700000015, 6.002417], [17.862944, 5.999980000000164], [17.86418700000013, 5.997304], [17.864399000000105, 5.990169], [17.86363100000017, 5.985584], [17.863985000000127, 5.982145000000116], [17.862491000000148, 5.978333], [17.862274000000127, 5.976841], [17.861972, 5.974328], [17.861627, 5.971634000000108], [17.861231, 5.969771], [17.860508, 5.966885000000104], [17.859608, 5.964929], [17.85874200000012, 5.963298000000179], [17.858702, 5.962367], [17.857421, 5.960824000000116], [17.85638, 5.958216000000164], [17.857388000000185, 5.95385], [17.857518, 5.950002000000154], [17.85813300000018, 5.948145000000125], [17.8594030000001, 5.945379], [17.860303000000158, 5.942638000000159], [17.859458, 5.940447], [17.858365, 5.937568], [17.858613000000105, 5.935149], [17.859506, 5.933528], [17.860782000000142, 5.931358000000102], [17.86067000000014, 5.92871], [17.861619000000132, 5.925229000000172], [17.861403, 5.923611], [17.861843, 5.92068600000016], [17.861865, 5.918500000000108], [17.873076631000174, 5.901493362], [17.873332, 5.901106000000141], [17.88110900000015, 5.904436000000146], [17.893604000000153, 5.907497], [17.906665, 5.904998], [17.917219000000102, 5.897498], [17.92610800000017, 5.891108000000145], [17.936102000000176, 5.881939000000159], [17.942769, 5.876664000000176], [17.96138400000018, 5.866943], [17.969439, 5.864994], [17.9775, 5.86249400000014], [17.981939, 5.85749200000015], [17.9847180000001, 5.854161], [17.9875, 5.851382000000172], [17.993053, 5.850548], [17.998888000000136, 5.851935], [18.003606, 5.853608000000122], [18.005547, 5.850553000000161], [18.00860900000015, 5.834437], [18.00638700000013, 5.821936], [18.006108000000154, 5.818604], [18.00694300000015, 5.812772000000166], [18.009995, 5.808329], [18.019721000000118, 5.80027200000012], [18.027769, 5.797221], [18.038884, 5.797775], [18.050275, 5.800831000000187], [18.05943900000011, 5.805832], [18.068602000000112, 5.810552000000143], [18.078608, 5.814436000000171], [18.086386, 5.814999], [18.095272, 5.811942], [18.103609, 5.805826], [18.109438000000125, 5.799714000000108], [18.118607, 5.790828], [18.123885000000143, 5.787773000000129], [18.128327000000127, 5.788607], [18.131385, 5.790270000000135], [18.134714000000145, 5.792221], [18.141108, 5.795275000000174], [18.147775, 5.797216], [18.180823000000146, 5.799443], [18.20944400000019, 5.803328], [18.22722000000016, 5.804997], [18.239159, 5.804721000000143], [18.249439, 5.801384], [18.257497000000114, 5.797498], [18.263332, 5.791386000000102], [18.264437, 5.787496], [18.266109000000142, 5.778607], [18.265552, 5.768051], [18.26583200000016, 5.758602], [18.267497, 5.753326000000129], [18.271936, 5.747493000000134], [18.275552, 5.745828], [18.279163, 5.746666000000118], [18.282218, 5.749439], [18.285267, 5.752772000000107], [18.292218, 5.757221000000186], [18.300274, 5.759442], [18.318609, 5.759995000000174], [18.34555500000016, 5.759159000000125], [18.36582600000014, 5.753332000000114], [18.38027000000011, 5.748604], [18.390824, 5.743331], [18.398881, 5.738325], [18.403332, 5.73166], [18.403882000000124, 5.728604], [18.40388000000013, 5.722219000000109], [18.402496, 5.716944], [18.398888000000113, 5.710553000000118], [18.397216000000128, 5.708333], [18.393327, 5.706107000000145], [18.388884000000132, 5.703324], [18.38332600000018, 5.701108], [18.378054, 5.69833], [18.373885, 5.696106], [18.370269, 5.686662], [18.371943000000158, 5.679996], [18.377496, 5.666109], [18.385833000000105, 5.653326], [18.393327, 5.64305000000013], [18.397496, 5.634437000000162], [18.401379000000134, 5.618609], [18.399158, 5.605554], [18.397222000000113, 5.594999], [18.396657, 5.58305300000012], [18.396105, 5.574721000000125], [18.398049000000128, 5.566383], [18.400831, 5.562772], [18.406935000000146, 5.559991000000139], [18.411665, 5.55972], [18.419719, 5.56222], [18.429994, 5.569999], [18.45916300000016, 5.584440000000143], [18.482491000000152, 5.589441], [18.502494000000183, 5.596104000000139], [18.51638700000018, 5.604436000000135], [18.530271, 5.61555], [18.545276, 5.622773000000166], [18.576941, 5.635275], [18.596387, 5.644998000000157], [18.60333, 5.65138300000018], [18.60888400000016, 5.66194], [18.61222000000015, 5.670831000000135], [18.615829000000133, 5.687215], [18.617776000000106, 5.701658], [18.616379, 5.714714000000129], [18.61388600000015, 5.725276], [18.6125, 5.734161], [18.6177780000001, 5.736385000000155], [18.623326000000134, 5.738607000000115], [18.633878000000152, 5.730964000000142], [18.63221600000014, 5.758884], [18.627220000000136, 5.775547000000188], [18.622221, 5.788888], [18.621665, 5.799158], [18.624439, 5.809993], [18.62804700000015, 5.823053000000129], [18.628607000000102, 5.828882000000135], [18.626382, 5.83888300000018], [18.613602, 5.861935], [18.60888100000011, 5.872214], [18.607773, 5.880826], [18.608606, 5.889714], [18.612773, 5.898328000000106], [18.633884000000137, 5.936103000000173], [18.63582700000012, 5.943603], [18.635829000000115, 5.949435000000108], [18.63305200000019, 5.956379], [18.628052, 5.963888000000111], [18.622496, 5.974714], [18.61999600000013, 5.988049000000103], [18.621384, 5.996103000000176], [18.627216000000146, 6.002493], [18.642499, 6.008883000000139], [18.688606, 6.020825], [18.693606, 6.024158000000114], [18.697496, 6.029991000000109], [18.700554000000125, 6.038051000000166], [18.70221400000014, 6.040829000000144], [18.715829, 6.045828], [18.728883000000167, 6.050551], [18.746102, 6.060272], [18.769714, 6.08027600000014], [18.791104000000132, 6.107217000000105], [18.800827, 6.118884000000151], [18.816942, 6.128880000000152], [18.81837000000013, 6.129439], [18.841106, 6.13833000000011], [18.844721000000106, 6.146942], [18.85027300000013, 6.15527], [18.856944, 6.163608000000124], [18.863334, 6.168048000000113], [18.87082500000014, 6.171387], [18.882495, 6.173884], [18.89361, 6.17444300000011], [18.904992, 6.178331], [18.910547000000122, 6.181937], [18.912491, 6.186381], [18.914163, 6.194159000000184], [18.91388200000017, 6.202492], [18.911379, 6.208052], [18.90332500000011, 6.211659], [18.889436, 6.215273], [18.877772000000107, 6.218608000000188], [18.868332, 6.225276000000122], [18.864436000000126, 6.236380000000167], [18.862216000000103, 6.25222], [18.85944000000012, 6.289159], [18.859996000000137, 6.299716], [18.862775, 6.314436], [18.864719, 6.328332000000159], [18.866381000000104, 6.34194], [18.863883, 6.356663], [18.854717000000107, 6.371102000000121], [18.834718, 6.38611], [18.8119420000001, 6.403882], [18.779443000000185, 6.436107], [18.750825, 6.466380000000186], [18.74249900000018, 6.476661], [18.739714000000163, 6.486937000000182], [18.741662, 6.495274], [18.745555, 6.503054], [18.75249200000013, 6.514720000000182], [18.756939, 6.538610000000119], [18.759444000000144, 6.553604000000121], [18.766657000000123, 6.57416], [18.77444400000013, 6.586938], [18.787774000000127, 6.599719000000107], [18.80666300000013, 6.612213000000168], [18.825553, 6.621104], [18.849163000000146, 6.631104], [18.861663000000192, 6.636666000000162], [18.86916, 6.644163000000162], [18.873326, 6.649437], [18.875276000000156, 6.657492], [18.876109000000156, 6.666936], [18.874997000000178, 6.672496], [18.862497, 6.687777000000153], [18.856660000000147, 6.690548], [18.848326000000156, 6.693882], [18.83582600000011, 6.697771000000159], [18.806937, 6.706102], [18.788053000000104, 6.719437], [18.7686020000001, 6.734438000000125], [18.745833000000175, 6.752497], [18.740277, 6.762777000000142], [18.738887, 6.776943000000188], [18.741936000000123, 6.790552000000162], [18.749161, 6.802214000000163], [18.754443, 6.806659], [18.758605, 6.811105], [18.757222000000127, 6.814438000000109], [18.753609, 6.815549], [18.747774, 6.816660000000127], [18.739443000000108, 6.81611], [18.734998, 6.815829000000122], [18.730825, 6.815825000000132], [18.727221000000156, 6.816936], [18.723885000000166, 6.824717], [18.721936, 6.831936], [18.716103, 6.8588850000001], [18.708051000000125, 6.888604], [18.701112, 6.89777700000019], [18.684713, 6.912493], [18.669438, 6.920827], [18.656385, 6.929162000000133], [18.656310636000114, 6.92930640700007]]]}}]}