{"type": "FeatureCollection", "features": [{"type": "Feature", "properties": {"entity_id": "cf-p-kemo-v1", "name_fr": "Kémo"}, "geometry": {"type": "Polygon", "coordinates": [[[19.109444, 4.99222], [19.125242000000128, 4.974679], [19.141214, 4.959949], [19.141815706000102, 4.947819013000128], [19.148697108000135, 4.948378433000016], [19.1565899630001, 4.949019982000095], [19.163453436, 4.948676844000147], [19.170316901000092, 4.94833363500004], [19.178553098000066, 4.945588298000189], [19.18678922700019, 4.942842859000166], [19.201888859000064, 4.947647288000041], [19.21218406300011, 4.957942490999983], [19.213785508, 4.964348401000166], [19.21538698400019, 4.970754305000128], [19.219047506000038, 4.985396372000025], [19.2211065730001, 4.993632531000173], [19.225682162000055, 4.997750645], [19.230257808000147, 5.001868726000112], [19.23483351100009, 5.005986775000054], [19.24009544900008, 5.009418552000056], [19.24535744200017, 5.012850287000049], [19.25061949000019, 5.016281979000155], [19.256796565000116, 5.018798643000025], [19.26297368700017, 5.021315248000121], [19.269150856000124, 5.023831795000092], [19.274984787000108, 5.025890861999983], [19.28081875400005, 5.02794987599998], [19.287310860000048, 5.032464687000072], [19.29380305600006, 5.036979433000056], [19.30029534100015, 5.041494114000159], [19.306787716000088, 5.046008729], [19.313280180999982, 5.050523279000174], [19.320091192000177, 5.053298326000174], [19.326902261000157, 5.056073302000073], [19.33371338799998, 5.058848205000118], [19.340524572999982, 5.061623037000174], [19.347335816, 5.064397797000083], [19.36112134300015, 5.081484935999981], [19.364514471000064, 5.086720680000099], [19.367907655000124, 5.091956406000065], [19.37130089300007, 5.097192113000119], [19.377607335000107, 5.102552817000117], [19.383913882000115, 5.107913457000109], [19.390220534000036, 5.113274035000074], [19.396527290000165, 5.118634550000138], [19.405005948, 5.121529973000179], [19.41348468300015, 5.124425283000107], [19.421963494000124, 5.127320481000027], [19.43044238100009, 5.130215566000174], [19.438907332000156, 5.129986896000105], [19.44737227800016, 5.129758113999969], [19.45583721700001, 5.129529220000052], [19.461328010000045, 5.127470203000144], [19.466818767000063, 5.125411138000061], [19.47851308000014, 5.121157190000133], [19.492213603000152, 5.126097485000059], [19.513830036000172, 5.136293028000125], [19.520122633000085, 5.140444392000063], [19.526415311000108, 5.144595694000031], [19.532708071000116, 5.148746933000041], [19.538656390000142, 5.149890900000116], [19.54460473000006, 5.151034812000091], [19.550553091000097, 5.152178668000033], [19.557416580000165, 5.151263613000083], [19.564280049000047, 5.150348483000016], [19.57114349800014, 5.149433280000096], [19.577265443000158, 5.147575895000159], [19.58338735200016, 5.14571845], [19.589509226000075, 5.143860947000064], [19.59688555600019, 5.140227702000118], [19.604261803000043, 5.136594371000115], [19.611637966000103, 5.132960954000168], [19.61953092599998, 5.13536321700002], [19.627423944999975, 5.137765382000111], [19.636215598000092, 5.139551905000076], [19.645007299000042, 5.141338307000069], [19.65287310300016, 5.141977688000111], [19.66073892300011, 5.142616971000166], [19.66860475900006, 5.143256158000042], [19.67503390200011, 5.143037379000134], [19.68146304000004, 5.14281853600005], [19.687892174000126, 5.142599627000152], [19.695460279000088, 5.139446553000028], [19.703028309000103, 5.136293388000183], [19.710596265000106, 5.133140133000154], [19.718164147000095, 5.129986788999986], [19.72573195500013, 5.126833354000098], [19.73329968799999, 5.123679830000128], [19.741498401000058, 5.121577893000051], [19.74969706000013, 5.119475851], [19.75789566600008, 5.117373703000169], [19.766094218000035, 5.115271451000126], [19.774292717000094, 5.113169093000067], [19.782491162000156, 5.111066631000028], [19.78902331200004, 5.109162082000125], [19.795555423000053, 5.107257467000181], [19.80208749600007, 5.10535278500015], [19.808619529999987, 5.103448037000078], [19.815886867000074, 5.100101491000146], [19.823154129000102, 5.096754863000172], [19.830421316000184, 5.093408153000041], [19.836097396000127, 5.088047620000111], [19.8417733820001, 5.082687036000152], [19.8474492740001, 5.077326401000107], [19.853125073000115, 5.071965716000022], [19.85523763900011, 5.065057433000106], [19.856918483000072, 5.059560797000074], [19.879123000000106, 5.077212000000145], [19.890322, 5.079944], [19.90221600000018, 5.083332], [19.911382, 5.088887000000113], [19.937770000000114, 5.125831000000119], [19.950272000000155, 5.185829000000183], [19.952498000000105, 5.200269], [19.95027400000015, 5.210274], [19.947497, 5.218327], [19.947497, 5.225277], [19.947774, 5.233053], [19.95, 5.241662], [19.952498000000105, 5.250548], [19.955826000000172, 5.256380000000149], [19.958884, 5.261106], [19.959715, 5.266102], [19.958332, 5.270827000000168], [19.956382000000133, 5.278883], [19.956381, 5.286661], [19.957499, 5.299443000000167], [19.955826000000172, 5.310552], [19.953604000000155, 5.314996], [19.953887000000122, 5.322213], [19.956939, 5.336106], [19.961104, 5.350827], [19.966382000000124, 5.358608], [19.972491, 5.365553], [19.97638000000012, 5.37055], [19.980551000000105, 5.379160000000184], [19.982777, 5.390832000000159], [19.987495, 5.404719], [19.994162, 5.411658], [19.994615, 5.412078000000179], [20.001665, 5.418608], [20.007770000000107, 5.426110000000165], [20.01138, 5.434165000000121], [20.01415900000012, 5.448328000000117], [20.018053, 5.466663000000153], [20.017497, 5.481936000000132], [20.015272, 5.491102], [19.837214000000188, 5.489437000000123], [19.676942, 5.487217000000101], [19.5111050000001, 5.483326], [19.505825, 5.488607], [19.501940000000104, 5.496104], [19.498882, 5.503604000000109], [19.493605, 5.51638], [19.48777500000017, 5.523883], [19.481108, 5.53027400000019], [19.473054, 5.535269], [19.467774000000134, 5.53944], [19.464999, 5.544999000000132], [19.468051000000116, 5.559435000000121], [19.471103, 5.563047], [19.473056000000156, 5.564160000000129], [19.47833, 5.565274000000102], [19.490551000000153, 5.567219], [19.506383, 5.570553], [19.518328, 5.571660000000179], [19.530828, 5.572493000000179], [19.546937000000128, 5.572215], [19.55665800000014, 5.578047], [19.571941, 5.594162], [19.589439, 5.609158], [19.61055400000015, 5.624999000000116], [19.639439, 5.646664000000158], [19.654436, 5.656941000000131], [19.665274000000124, 5.671661], [19.671381, 5.687770000000114], [19.673883000000103, 5.701105000000155], [19.676386, 5.714439000000141], [19.675828, 5.727771], [19.672496, 5.73861], [19.668884, 5.743888], [19.663053, 5.748606], [19.657222, 5.751107], [19.646102, 5.754164000000173], [19.633325, 5.757217], [19.620831000000123, 5.76082700000012], [19.612217, 5.763332], [19.60888400000016, 5.765271], [19.606383000000164, 5.767771], [19.604438000000187, 5.772215000000188], [19.603880000000174, 5.777774], [19.60444000000018, 5.780277], [19.60638500000016, 5.783607], [19.617777, 5.789439000000129], [19.619161000000133, 5.790275000000179], [19.621941000000106, 5.793328], [19.62333200000012, 5.79610300000013], [19.623326000000134, 5.797492], [19.622774000000106, 5.802772000000175], [19.620832000000178, 5.810832], [19.618331, 5.829718000000184], [19.612770000000182, 5.845554], [19.596387000000163, 5.897769], [19.593609000000185, 5.909164], [19.590826000000106, 5.913606000000186], [19.593329, 5.923325], [19.59694, 5.928607], [19.59944400000012, 5.931941], [19.602768, 5.935277], [19.608332000000132, 5.939442], [19.701152, 5.997548], [19.702498, 6.005273], [19.704444, 6.012776], [19.707772, 6.020547000000136], [19.711389, 6.027495], [19.714161000000104, 6.031384], [19.71582800000016, 6.033606], [19.719995000000154, 6.036383000000171], [19.726945, 6.039163000000144], [19.732221, 6.041109], [19.73972, 6.042775], [19.744439000000114, 6.042770000000189], [19.749717, 6.042769], [19.759721000000127, 6.040553], [19.76860900000014, 6.036382], [19.779165, 6.035550000000171], [19.784713000000124, 6.03972], [19.789157000000102, 6.045271000000128], [19.795833, 6.05583200000018], [19.797768, 6.060828000000186], [19.802492, 6.072497], [19.809996, 6.080824000000177], [19.81166500000012, 6.082215000000133], [19.816105000000107, 6.088333], [19.82082800000012, 6.097775], [19.823417, 6.103314], [19.82472100000018, 6.106106000000182], [19.829159000000175, 6.111935000000187], [19.834721000000116, 6.114437], [19.841666, 6.118602], [19.844722, 6.121937000000173], [19.84471500000012, 6.126102000000174], [19.843327, 6.128053000000136], [19.841658000000166, 6.129718], [19.83722200000011, 6.134166000000164], [19.831388, 6.141386000000182], [19.827777, 6.144439], [19.825825, 6.149722000000111], [19.826943000000142, 6.157771], [19.827218000000187, 6.160275], [19.831389000000115, 6.168324], [19.84194300000013, 6.174998000000187], [19.856385000000103, 6.183331], [19.864161, 6.192491000000189], [19.864993, 6.199713], [19.861382, 6.206661], [19.856105, 6.210829000000103], [19.850832, 6.215277], [19.845276, 6.219439], [19.841666, 6.225548000000117], [19.840826, 6.236103000000185], [19.844718, 6.250825], [19.85749800000019, 6.279717000000119], [19.868328, 6.304992], [19.875552, 6.324991000000125], [19.87554900000015, 6.335277000000133], [19.873332, 6.342771], [19.868324, 6.349714], [19.856382, 6.363610000000165], [19.835834, 6.379436000000112], [19.822217, 6.384991000000184], [19.81277, 6.387496000000112], [19.802491, 6.389720000000125], [19.794436, 6.39277], [19.783331, 6.396381], [19.77277000000015, 6.402213000000131], [19.762221, 6.411382000000117], [19.752769000000114, 6.42027], [19.745269, 6.428887], [19.740831000000185, 6.437214000000154], [19.738051, 6.443605000000105], [19.736938000000123, 6.448881], [19.736939, 6.455824000000177], [19.7380500000001, 6.464713], [19.740553, 6.470271], [19.742776000000163, 6.472774], [19.74305, 6.476108000000181], [19.714158, 6.480552], [19.678332000000125, 6.486105000000123], [19.642495, 6.489718], [19.600828, 6.495825], [19.546106000000123, 6.504438000000164], [19.507769000000167, 6.505828], [19.492165000000114, 6.503243], [19.47777500000018, 6.501387000000136], [19.44471900000019, 6.494436000000178], [19.413326, 6.484996], [19.368327, 6.468328], [19.335828000000163, 6.460271], [19.30610200000018, 6.455832000000157], [19.281104, 6.452768000000106], [19.264994, 6.453607], [19.24416, 6.456939], [19.226105, 6.450549], [19.210831, 6.44361], [19.196102, 6.436938], [19.18166100000019, 6.433609000000104], [19.16305100000011, 6.433328000000131], [19.145269, 6.437218], [19.121387, 6.444441], [19.10193800000019, 6.45444300000014], [19.084437, 6.464438], [19.071386, 6.47721300000012], [19.056383, 6.503054], [19.047216, 6.525553000000173], [19.042519116999983, 6.533667052000055], [19.042452, 6.533783], [19.038762, 6.540046], [19.026944000000128, 6.548332000000187], [19.014719000000127, 6.553051], [19.002771, 6.554166], [18.986382000000106, 6.552772], [18.969158000000164, 6.548603], [18.943326000000127, 6.542218], [18.902776000000188, 6.533608000000129], [18.868049, 6.525274], [18.824162000000115, 6.518325], [18.793609, 6.515550000000133], [18.75249200000013, 6.514720000000182], [18.745555, 6.503054], [18.741662, 6.495274], [18.739714000000163, 6.486937000000182], [18.74249900000018, 6.476661], [18.750825, 6.466380000000186], [18.779443000000185, 6.436107], [18.8119420000001, 6.403882], [18.834718, 6.38611], [18.854717000000107, 6.371102000000121], [18.863883, 6.356663], [18.866381000000104, 6.34194], [18.864719, 6.328332000000159], [18.862775, 6.314436], [18.859996000000137, 6.299716], [18.85944000000012, 6.289159], [18.862216000000103, 6.25222], [18.864436000000126, 6.236380000000167], [18.868332, 6.225276000000122], [18.877772000000107, 6.218608000000188], [18.889436, 6.215273], [18.90332500000011, 6.211659], [18.911379, 6.208052], [18.91388200000017, 6.202492], [18.914163, 6.194159000000184], [18.912491, 6.186381], [18.910547000000122, 6.181937], [18.904992, 6.178331], [18.89361, 6.17444300000011], [18.882495, 6.173884], [18.87082500000014, 6.171387], [18.863334, 6.168048000000113], [18.856944, 6.163608000000124], [18.85027300000013, 6.15527], [18.844721000000106, 6.146942], [18.841106, 6.13833000000011], [18.81837000000013, 6.129439], [18.816942, 6.128880000000152], [18.800827, 6.118884000000151], [18.791104000000132, 6.107217000000105], [18.769714, 6.08027600000014], [18.746102, 6.060272], [18.728883000000167, 6.050551], [18.715829, 6.045828], [18.70221400000014, 6.040829000000144], [18.700554000000125, 6.038051000000166], [18.697496, 6.029991000000109], [18.693606, 6.024158000000114], [18.688606, 6.020825], [18.642499, 6.008883000000139], [18.627216000000146, 6.002493], [18.621384, 5.996103000000176], [18.61999600000013, 5.988049000000103], [18.622496, 5.974714], [18.628052, 5.963888000000111], [18.63305200000019, 5.956379], [18.635829000000115, 5.949435000000108], [18.63582700000012, 5.943603], [18.633884000000137, 5.936103000000173], [18.612773, 5.898328000000106], [18.608606, 5.889714], [18.607773, 5.880826], [18.60888100000011, 5.872214], [18.613602, 5.861935], [18.626382, 5.83888300000018], [18.628607000000102, 5.828882000000135], [18.62804700000015, 5.823053000000129], [18.624439, 5.809993], [18.621665, 5.799158], [18.622221, 5.788888], [18.627220000000136, 5.775547000000188], [18.63221600000014, 5.758884], [18.633878000000152, 5.730964000000142], [18.646665000000155, 5.71055], [18.65722, 5.692218], [18.66860400000013, 5.67527], [18.68027300000017, 5.662213], [18.690827000000183, 5.656666000000143], [18.703327, 5.65388600000017], [18.72277700000012, 5.653049000000181], [18.74527000000012, 5.654438], [18.754160000000127, 5.652494000000104], [18.763054, 5.648329000000103], [18.780829, 5.645000000000152], [18.816105000000164, 5.642214], [18.848034000000155, 5.63915], [18.84841800000015, 5.6394820000001], [18.852808, 5.640710000000126], [18.857221, 5.635831], [18.865549, 5.632219000000134], [18.870828000000188, 5.628050000000144], [18.875548, 5.619714], [18.87943900000016, 5.608604000000184], [18.88082400000019, 5.591941000000133], [18.88305, 5.56611], [18.881104000000107, 5.531660000000102], [18.88166, 5.509162], [18.886942000000147, 5.501383], [18.89388300000013, 5.492491], [18.91027700000018, 5.474720000000104], [18.93638300000015, 5.456109], [18.9511040000001, 5.445831000000112], [18.959166000000153, 5.443332000000112], [18.96888300000012, 5.440551], [18.9788870000001, 5.434998000000121], [18.99416300000013, 5.409436], [18.991205, 5.367457000000172], [19.002234, 5.328725], [19.018034000000114, 5.310098000000153], [19.011381000000142, 5.282491000000164], [18.992494, 5.236106], [18.986663, 5.208047], [18.985272000000123, 5.187216], [18.988887, 5.16666], [18.99582900000013, 5.151111000000128], [19.006386, 5.138048], [19.02471500000013, 5.12416], [19.035272000000134, 5.116937000000178], [19.041102, 5.109436], [19.044718000000103, 5.10055100000011], [19.046659000000147, 5.089998], [19.048326, 5.081657], [19.049997000000133, 5.075546000000145], [19.054162000000133, 5.069437], [19.067492, 5.061105], [19.08472, 5.050275000000113], [19.090827000000104, 5.045553], [19.093609, 5.039995], [19.09443400000015, 5.03388], [19.093326000000104, 5.026388000000111], [19.092218000000116, 5.023326], [19.09193900000014, 5.017498000000103], [19.093611, 5.013048], [19.0991590000001, 5.00805], [19.104721, 5.002492000000188], [19.108050000000162, 4.998049], [19.109444, 4.99222]]]}}]}