{"type": "FeatureCollection", "features": [{"type": "Feature", "properties": {"entity_id": "cf-p-basse-kotto-v1", "name_fr": "Basse-Kotto"}, "geometry": {"type": "Polygon", "coordinates": [[[21.962214000000188, 4.52472], [21.954724, 4.526748000000111], [21.945807141000103, 4.522551305000093], [21.94276900000017, 4.532219], [21.939996, 4.536107000000186], [21.942497, 4.540269000000137], [21.945273, 4.544158], [21.948329000000115, 4.548331000000132], [21.950827, 4.552214000000106], [21.954164000000105, 4.555828000000133], [21.956382000000133, 4.560270000000173], [21.955276, 4.565274000000102], [21.951943, 4.568603], [21.948604000000103, 4.572219], [21.944717, 4.574717], [21.94054700000015, 4.577497000000164], [21.93638600000014, 4.580277], [21.93249, 4.582776], [21.92916, 4.586383000000183], [21.924998, 4.589163000000156], [21.921662, 4.592214000000183], [21.918883, 4.596381000000179], [21.915553, 4.599998000000141], [21.912769, 4.60360900000012], [21.91083, 4.608604], [21.90860300000014, 4.613332], [21.90805300000011, 4.619436000000121], [21.91194200000018, 4.627221000000134], [21.915549, 4.630833], [21.916943, 4.636109000000147], [21.914164, 4.640277], [21.90805, 4.64111], [21.903331, 4.639162000000113], [21.898324000000173, 4.636939], [21.893883, 4.634997000000112], [21.887773, 4.634438], [21.883611000000144, 4.637218], [21.881104, 4.640827], [21.881109, 4.64777], [21.880273, 4.65388600000017], [21.876940000000104, 4.657216000000176], [21.871381, 4.657216000000176], [21.866940000000113, 4.655275000000188], [21.861943, 4.65333], [21.856386000000157, 4.651659000000109], [21.849997000000144, 4.651937], [21.845271, 4.653888000000165], [21.840277, 4.655832], [21.836382, 4.65861], [21.833048, 4.66194], [21.829998000000103, 4.665832], [21.826666000000102, 4.672216000000162], [21.824716, 4.676943000000108], [21.822771, 4.681382], [21.819163000000117, 4.684993], [21.813885, 4.686383], [21.808879000000104, 4.684438000000114], [21.805268000000126, 4.681382], [21.798888, 4.680825000000141], [21.796939, 4.68583000000018], [21.794434, 4.689718], [21.790831, 4.69305], [21.785549000000174, 4.693048], [21.782493, 4.689161000000126], [21.779713, 4.684992000000136], [21.773888, 4.684438000000114], [21.769158, 4.68611], [21.764997000000164, 4.68916], [21.760275, 4.689718], [21.75416, 4.688888], [21.748603000000173, 4.687496000000181], [21.743332000000123, 4.687771], [21.738608, 4.703047], [21.73722000000015, 4.708605], [21.738330000000133, 4.714165], [21.739404, 4.717739000000165], [21.739996000000133, 4.719719], [21.743333, 4.723047], [21.74583300000012, 4.726940000000127], [21.74860500000017, 4.731109], [21.74805300000014, 4.736937000000182], [21.746102000000178, 4.741664000000128], [21.745268, 4.748052], [21.746102000000178, 4.753605000000164], [21.746107, 4.760550000000137], [21.746659, 4.766664000000105], [21.748048, 4.772221000000172], [21.749721000000136, 4.777497], [21.751382, 4.782494000000156], [21.753605000000107, 4.787216], [21.756384, 4.791106], [21.759444, 4.794436], [21.763053, 4.798047], [21.76583200000016, 4.801937], [21.768327, 4.806108000000165], [21.770547000000192, 4.810551], [21.770546000000138, 4.815825000000189], [21.770275, 4.822773], [21.769718000000182, 4.82888800000012], [21.769158, 4.834716], [21.769720000000177, 4.840829], [21.77111, 4.846385000000112], [21.772769, 4.851939], [21.773054000000172, 4.858055], [21.774719, 4.86333], [21.776107, 4.868608000000108], [21.77666100000016, 4.87472], [21.775827000000106, 4.880829000000176], [21.77527, 4.886936000000105], [21.77527, 4.892218000000184], [21.775824, 4.898331], [21.775277, 4.904437], [21.775276000000133, 4.911382], [21.77582800000016, 4.917217], [21.777496415000087, 4.922499228999982], [21.779166000000146, 4.927497], [21.78138200000018, 4.932218], [21.7843238210001, 4.934928771000102], [21.78512200000017, 4.935562000000175], [21.787492000000157, 4.939441000000159], [21.790832, 4.942776], [21.793606000000125, 4.946943], [21.79610300000013, 4.951104], [21.798328, 4.955825], [21.801937, 4.959165000000155], [21.80498900000015, 4.962494000000106], [21.808607000000165, 4.965825], [21.81193700000017, 4.969160000000102], [21.815268000000117, 4.972494], [21.818608, 4.975828], [21.82221600000014, 4.97916], [21.825272, 4.982775], [21.827497000000108, 4.987495000000138], [21.829714, 4.992216], [21.831385000000125, 4.996941000000106], [21.831663, 5.003883], [21.831106000000148, 5.009719], [21.829996000000108, 5.015830000000108], [21.828881, 5.021385], [21.8275, 5.026385], [21.825554000000125, 5.031383], [21.823606, 5.036102], [21.82138300000014, 5.041102], [21.818047, 5.044165000000135], [21.81443600000017, 5.047491], [21.811106000000166, 5.051102000000185], [21.807217, 5.053604], [21.803606000000116, 5.056939000000114], [21.80110500000012, 5.061107], [21.798324, 5.064991], [21.795832, 5.069159000000127], [21.793609, 5.07416], [21.792497, 5.079158], [21.791657000000157, 5.085276000000135], [21.79304400000018, 5.090755000000172], [21.793145894000077, 5.09103490800004], [21.794819000000132, 5.095631], [21.7991320000001, 5.098631], [21.812981, 5.104028], [21.819809000000134, 5.110529], [21.822677000000112, 5.114863000000184], [21.82271955200008, 5.11490683500017], [21.823915941000052, 5.116139284000099], [21.826105, 5.118329], [21.830271000000153, 5.12082700000019], [21.833345703000077, 5.123241597], [21.834165, 5.123885], [21.834528969000075, 5.124026418000028], [21.839158, 5.125825], [21.843326000000104, 5.12861], [21.84777300000019, 5.130548000000147], [21.851383, 5.133886000000132], [21.854716000000167, 5.137219], [21.855763659000047, 5.13806532600006], [21.858607, 5.139998000000105], [21.861381, 5.143884000000128], [21.864991000000146, 5.147214000000133], [21.868049, 5.150828], [21.870833000000175, 5.154714000000183], [21.87361, 5.158888], [21.876107000000104, 5.162777000000119], [21.87832900000012, 5.167774], [21.87926304900003, 5.169760381000174], [21.880423000000178, 5.172327000000166], [21.88257298300016, 5.17833631000002], [21.883882, 5.182499000000178], [21.88527500000015, 5.187775000000101], [21.88717774600002, 5.192402958], [21.88729195100018, 5.193050255], [21.888269, 5.198588], [21.890555, 5.209436000000153], [21.89138, 5.215275000000133], [21.891610000000128, 5.221203000000116], [21.891662000000167, 5.22138], [21.892494, 5.227775000000179], [21.893332000000157, 5.233883000000162], [21.893053000000123, 5.240272000000175], [21.893326000000172, 5.247213000000158], [21.893051000000128, 5.253881000000149], [21.893324000000177, 5.260830000000112], [21.893327, 5.267495000000167], [21.892498, 5.273603], [21.89193900000015, 5.279717000000176], [21.891385000000128, 5.285553], [21.890826, 5.291658000000155], [21.88972, 5.297770000000128], [21.890547, 5.303608000000168], [21.890553, 5.310552], [21.891105, 5.316662], [21.891944, 5.32277], [21.893884000000128, 5.327221000000122], [21.896107, 5.336107], [21.897218000000123, 5.341663], [21.902220000000113, 5.350553], [21.903886000000114, 5.355277000000115], [21.90610800000013, 5.359994000000142], [21.906936, 5.365832000000182], [21.906664, 5.371108000000106], [21.905553, 5.376663000000178], [21.902774000000136, 5.380548], [21.899998, 5.384720000000129], [21.896666, 5.388054000000125], [21.897494, 5.39388300000013], [21.898606, 5.39944], [21.89888200000013, 5.406380000000127], [21.897493000000168, 5.411938000000134], [21.8952680000001, 5.416383], [21.892492, 5.420555], [21.893332000000157, 5.426663], [21.894716, 5.431659], [21.896661, 5.436388], [21.899442000000136, 5.440551], [21.901387000000113, 5.445271000000105], [21.903332, 5.449992000000123], [21.904992000000163, 5.45555], [21.904716, 5.46194], [21.904429256000128, 5.463088215000028], [21.90332800000016, 5.467498000000148], [21.901386, 5.472497], [21.900368000000185, 5.477056107000067], [21.900020081000093, 5.477124657000047], [21.85305200000016, 5.496383], [21.821107, 5.514718], [21.81638, 5.51610200000016], [21.802494, 5.513881], [21.788048000000174, 5.522214000000133], [21.772216, 5.534165], [21.751661, 5.541661], [21.728325, 5.545270000000187], [21.693324000000132, 5.549165], [21.662769, 5.549161], [21.659164, 5.542776], [21.656108000000188, 5.535828], [21.652498, 5.525831], [21.649997, 5.514715000000137], [21.647774, 5.502769000000114], [21.643603, 5.49222], [21.640274, 5.485553], [21.636381, 5.482217000000105], [21.618888, 5.473604], [21.61270800000011, 5.466757], [21.600833, 5.467774], [21.584994000000165, 5.463607], [21.577221, 5.46304600000019], [21.570001, 5.46388], [21.5619420000001, 5.467492000000163], [21.55444, 5.481938000000127], [21.54944300000011, 5.491665], [21.54471800000016, 5.499996000000181], [21.53805100000011, 5.50388], [21.531659, 5.504993], [21.5127710000001, 5.505273000000159], [21.512498, 5.519713000000138], [21.511377, 5.524615], [21.5102720000001, 5.529437], [21.506662000000176, 5.540552], [21.498881, 5.554158000000143], [21.490556, 5.56555], [21.483883000000162, 5.576385000000187], [21.48166300000014, 5.582495000000165], [21.483049, 5.589438000000143], [21.486107000000118, 5.593333], [21.48944, 5.598609000000124], [21.489436, 5.612777000000165], [21.485833000000184, 5.623605], [21.482223, 5.632221000000129], [21.477492000000154, 5.636104], [21.471942000000126, 5.640553], [21.464441, 5.649438], [21.459997, 5.659719000000166], [21.457778, 5.669165000000135], [21.454991, 5.679994000000136], [21.450827000000118, 5.687215], [21.444714, 5.691105000000164], [21.438328000000126, 5.692219], [21.428606, 5.693605000000105], [21.42277, 5.694992], [21.417777, 5.696387], [21.410546, 5.705549000000133], [21.40860800000013, 5.712773000000141], [21.40527200000014, 5.720273], [21.40388700000011, 5.722491], [21.402213000000188, 5.726107], [21.398047, 5.730829], [21.394436, 5.73138200000011], [21.390548, 5.72721700000011], [21.388324000000125, 5.724158000000102], [21.384444, 5.717494000000102], [21.381389, 5.709166], [21.378332000000114, 5.702213], [21.37332400000014, 5.694995000000176], [21.369442000000106, 5.691387], [21.364161000000138, 5.689440000000104], [21.358603000000187, 5.69166], [21.356662, 5.694721], [21.353608, 5.70110300000016], [21.352218000000164, 5.704437000000155], [21.349993, 5.709443], [21.345551000000114, 5.713602000000151], [21.341664, 5.715272000000141], [21.33776900000015, 5.716107], [21.334163, 5.714717], [21.328884, 5.711385], [21.32083000000017, 5.704721], [21.314436000000114, 5.695547], [21.309719, 5.688602], [21.301381000000106, 5.678046], [21.295549, 5.673325], [21.284165000000144, 5.66916], [21.277495000000158, 5.666660000000149], [21.268051000000185, 5.661663], [21.258326, 5.654718], [21.252494000000127, 5.650833000000148], [21.244438, 5.64721400000019], [21.23527200000018, 5.645550000000185], [21.22860500000013, 5.646665], [21.219441, 5.650272], [21.210272, 5.656666000000143], [21.201386, 5.661943000000122], [21.19333200000017, 5.668604], [21.186936000000117, 5.670832000000189], [21.17972, 5.671935000000133], [21.17360600000012, 5.667772000000127], [21.17221700000016, 5.665547], [21.169434, 5.662213], [21.167498000000137, 5.659994000000154], [21.163886, 5.65638], [21.159158, 5.654991000000109], [21.156504481000127, 5.654233144000102], [21.15138500000012, 5.652771], [21.141386, 5.650548000000185], [21.134436000000164, 5.64971300000019], [21.129995, 5.649994], [21.123332000000175, 5.651666000000148], [21.120269, 5.654163000000153], [21.115272000000118, 5.659713000000181], [21.11054700000011, 5.668885], [21.106105000000127, 5.680276000000163], [21.1022210000001, 5.688333000000171], [21.095271, 5.697772], [21.08749300000011, 5.703604000000155], [21.081109, 5.708881000000133], [21.074163000000112, 5.712769000000151], [21.064717000000144, 5.716387000000168], [21.057774000000165, 5.717216], [21.050272, 5.718609000000185], [21.044999, 5.719439], [21.040826, 5.71888], [21.034716000000117, 5.716110000000185], [21.031935, 5.712217000000123], [21.029997, 5.70638], [21.029998, 5.69444], [21.033051, 5.686661000000186], [21.03943900000013, 5.67916200000019], [21.04583300000013, 5.672221], [21.049992, 5.668048], [21.052827, 5.663938], [21.055276, 5.660552000000166], [21.05749500000013, 5.657217], [21.058045, 5.65055400000017], [21.056659, 5.642498000000103], [21.05277400000017, 5.633325000000127], [21.048887, 5.628327000000127], [21.041386000000102, 5.621108], [21.036661, 5.617496000000131], [21.030547000000126, 5.612493], [21.02721700000012, 5.609163], [21.022772, 5.603054], [21.020828000000165, 5.599997], [21.021388000000115, 5.592496], [21.02332500000017, 5.586106000000143], [21.024437000000148, 5.583332000000155], [21.025827, 5.576102], [21.028047, 5.566658], [21.028605, 5.559715], [21.026379, 5.551937], [21.023053, 5.548048000000165], [21.016106, 5.543881000000169], [21.006383, 5.540552], [20.997214000000156, 5.536938], [20.984721, 5.535832000000141], [20.975828, 5.535553000000164], [20.958608, 5.534999000000141], [20.948887000000127, 5.531938], [20.943324, 5.529717000000119], [20.940554, 5.526658000000111], [20.939159, 5.523604], [20.93833100000012, 5.518051000000128], [20.938886, 5.512493000000177], [20.941108, 5.507494], [20.945551000000137, 5.502770000000169], [20.953050000000133, 5.49833000000018], [20.960278, 5.495549], [20.96805000000012, 5.493330000000185], [20.973885, 5.491381], [20.979162, 5.487495], [20.982497000000137, 5.479714000000172], [20.983045000000175, 5.474436], [20.982216000000165, 5.464159000000109], [20.981386, 5.453882000000135], [20.982219, 5.446387], [20.984158, 5.43916], [20.987491000000148, 5.42943600000018], [20.989163000000133, 5.424164], [20.988886, 5.419713], [20.988331, 5.417217000000107], [20.98194100000012, 5.411107000000129], [20.974997, 5.406110000000183], [20.966937, 5.400826000000166], [20.95860400000015, 5.392495], [20.953328, 5.380830000000174], [20.953497, 5.379748000000177], [20.95666, 5.358885], [20.961664, 5.333325000000116], [20.96388100000013, 5.314721], [20.960547000000133, 5.294713000000115], [20.960278, 5.268602000000101], [20.960276, 5.245826], [20.95860400000015, 5.231381000000113], [20.9541660000001, 5.213885], [20.946936000000164, 5.195272000000102], [20.940826000000186, 5.184999], [20.926659, 5.174999000000128], [20.916109, 5.163048000000174], [20.90916, 5.15027], [20.903052, 5.136108], [20.90054600000019, 5.121380000000102], [20.901939, 5.110829], [20.905828, 5.099436], [20.914991, 5.080830000000162], [20.927215, 5.060271000000114], [20.93638, 5.041937000000189], [20.93860800000016, 5.031388000000106], [20.938609, 5.02166], [20.934592, 5.012179], [20.929165, 5.003333000000168], [20.922776000000113, 4.99333], [20.910549, 4.976666000000137], [20.90582700000016, 4.971381000000179], [20.904649, 4.969114], [20.896105, 4.952775], [20.893609, 4.939442], [20.895273, 4.924713000000111], [20.899998000000153, 4.904997], [20.904437, 4.8844390000001], [20.907215, 4.862491], [20.907777, 4.850832000000139], [20.906358, 4.85095200000012], [20.90011200000015, 4.847972000000141], [20.891206000000125, 4.850980000000163], [20.878568, 4.851583000000119], [20.867372, 4.844645000000185], [20.860578, 4.843891000000156], [20.850244, 4.838150000000155], [20.842528000000186, 4.838226], [20.827884, 4.846163], [20.814853, 4.84702], [20.81318800000014, 4.844743000000108], [20.812097000000108, 4.841838000000109], [20.81163800000013, 4.840585], [20.807216, 4.835005000000137], [20.801186, 4.831303000000105], [20.79768300000012, 4.829822], [20.797167, 4.82931], [20.793147, 4.825608000000159], [20.786258, 4.81896300000011], [20.78082, 4.811124], [20.771738, 4.80116], [20.750938000000133, 4.793425], [20.738378, 4.789873000000171], [20.728328, 4.75694], [20.719715, 4.754995], [20.71110700000014, 4.751385000000141], [20.698326000000122, 4.738887], [20.687769, 4.719717], [20.674436000000185, 4.698885000000189], [20.658332, 4.679163000000131], [20.635551000000135, 4.653606], [20.611664000000133, 4.628603000000112], [20.578654, 4.594546], [20.577157647000092, 4.592997488000151], [20.561055000000124, 4.580666000000178], [20.558372519000102, 4.578626522000036], [20.553657794, 4.575207890000115], [20.547298371000068, 4.571392322000065], [20.532016899000098, 4.562785189000181], [20.510647943000038, 4.551498757000161], [20.500277, 4.546104], [20.478049000000112, 4.537772000000132], [20.45833288000017, 4.520738959000084], [20.460649096000168, 4.514562385999966], [20.477807769000094, 4.496717366000155], [20.485686417000068, 4.492962326000168], [20.493564985000035, 4.489207201000056], [20.501443472000062, 4.485451990000115], [20.506834344000083, 4.480970992999971], [20.512225150000063, 4.476489955000147], [20.51761589000006, 4.472008877000064], [20.52001812200001, 4.46651810600008], [20.522420319000105, 4.461027327000068], [20.532715522000103, 4.448673082000084], [20.538663928, 4.444555049000144], [20.54461226800015, 4.440436968000029], [20.550560542000085, 4.436318838000034], [20.555365021000114, 4.432429570000068], [20.560169449000114, 4.428540271000088], [20.564973827000074, 4.424650940000049], [20.584877888000165, 4.414355737000051], [20.590711826000074, 4.415728453000156], [20.596545785000046, 4.417101124000112], [20.600663880000184, 4.414698922000127], [20.60478194799998, 4.412296696000169], [20.617822539000144, 4.412983043], [20.623358982000184, 4.41375199200013], [20.642531028000178, 4.416414777000114], [20.649222864000023, 4.418130735000148], [20.65591473100011, 4.41984663300002], [20.662606629000095, 4.42156247000014], [20.66929855799998, 4.423278247000098], [20.67616204300009, 4.421562411000025], [20.68302549600014, 4.419846512000106], [20.690232105, 4.423278282000183], [20.69743878100013, 4.426709981000158], [20.7049885830001, 4.427396405000081], [20.71253839900004, 4.428082752000137], [20.720088229000112, 4.428769022000097], [20.727180516000146, 4.426938832000189], [20.734272767000107, 4.425108573000159], [20.741364984000086, 4.423278247000098], [20.767446166000184, 4.419846512000106], [20.78460483900011, 4.420532859000105], [20.804160234000165, 4.423647317000075], [20.810466688000076, 4.427935913000169], [20.816773214000136, 4.432224455000096], [20.823079813000163, 4.436512942999968], [20.829386485000043, 4.440801375999968], [20.83569323000006, 4.44508975499997], [20.84316835000004, 4.445642527000075], [20.85064348000003, 4.446195223000132], [20.858118622000177, 4.446747844000129], [20.865593775000036, 4.447300388000031], [20.872285690000126, 4.446099372000106], [20.87897758300005, 4.444898296000019], [20.88566945400015, 4.443697158000134], [20.892361304000133, 4.442495960000031], [20.900597508000033, 4.440665794000154], [20.90883367100014, 4.438835535000123], [20.917069793, 4.437005185000032], [20.924840793000158, 4.436757044000046], [20.932611788000145, 4.436508821000189], [20.940382777000025, 4.436260516000175], [20.948491403000162, 4.434098521000067], [20.956599982000057, 4.431936436000115], [20.96470851300012, 4.429774263000013], [20.972816998000155, 4.427612], [20.980925435000017, 4.42544964800004], [20.98903382600008, 4.423287208000033], [20.997142169000142, 4.421124678000126], [20.998165133000043, 4.420783706000179], [21.003764157000035, 4.41891745700002], [21.010386106, 4.416710177000027], [21.017008014999988, 4.414502838000089], [21.02362988600015, 4.412295439000161], [21.030434598000056, 4.411380791000113], [21.037239293000084, 4.410466081000095], [21.04404397200011, 4.409551308], [21.051136267000118, 4.407263553000178], [21.058228518000078, 4.40497573000016], [21.06532072599998, 4.402687839000123], [21.072870577, 4.399256143000059], [21.080420358000026, 4.395824370000071], [21.08591117100002, 4.390676789], [21.091401909000126, 4.385529165999969], [21.09757903100018, 4.379352044000143], [21.099752341000055, 4.375560686000142], [21.10183171600005, 4.371933204000186], [21.104354398000055, 4.365626614000121], [21.106877037000174, 4.359320015000094], [21.10939963500016, 4.353013406000059], [21.125719255000035, 4.341602964000117], [21.131210067000154, 4.339086399000166], [21.136700842000153, 4.336569793000137], [21.142191581000134, 4.33405314800018], [21.148025564000136, 4.329591916000027], [21.153859478000015, 4.325130638000189], [21.158892740000113, 4.321241373000021], [21.163925951000067, 4.317352074000155], [21.16895911000006, 4.313462741000137], [21.176508926000167, 4.307971965000036], [21.18337239500005, 4.308658312000091], [21.190922210999986, 4.312090047000083], [21.196069850000015, 4.306599289000133], [21.201217415000087, 4.301108496000154], [21.21357166000007, 4.293558680000046], [21.224553210000067, 4.293558680000046], [21.233475720000058, 4.300422149000099], [21.24171188300005, 4.309344659000089], [21.240339198000072, 4.314492263000034], [21.238966495000057, 4.31963986300002], [21.241025521999973, 4.324787468000011], [21.243084577000104, 4.329935066000132], [21.246859466000046, 4.333709984000052], [21.25063439300004, 4.337484882000069], [21.25506554000009, 4.338311898000143], [21.2594966960001, 4.33913888800015], [21.267793065999967, 4.340230270000063], [21.272597483000027, 4.341946152999981], [21.27740192200008, 4.343662005000056], [21.28220635499997, 4.342975673000069], [21.287010779000127, 4.342289311000172], [21.29318790100018, 4.336112189000119], [21.29776361100005, 4.330850224000017], [21.302339257000085, 4.325588231000097], [21.306914840000047, 4.320326210000019], [21.32201447200009, 4.30591292500003], [21.340545838000025, 4.291499639000108], [21.356331817000125, 4.283949823], [21.36856111300017, 4.280892499000174], [21.37554953100016, 4.279145395000057], [21.39476724400015, 4.276400007000063], [21.419475733000013, 4.275713660000065], [21.427025519000154, 4.278802259000088], [21.434575365000057, 4.281890783000165], [21.440981292000117, 4.280518143000108], [21.447387197000182, 4.279145449000055], [21.45379307900015, 4.277772701000174], [21.46065656900015, 4.275370518000102], [21.467520017000083, 4.272968273000174], [21.471981294000045, 4.269193378000011], [21.47644252700013, 4.265418457000067], [21.48811042500006, 4.261300375000019], [21.495573401000115, 4.261179342000048], [21.503036374000033, 4.261058236000167], [21.51049934500014, 4.260937058000081], [21.518697944, 4.259045122000032], [21.526896503000046, 4.257153098000174], [21.533203137000157, 4.255050950000168], [21.539509736000184, 4.252948750000144], [21.545816301000173, 4.250846498999977], [21.56599741800011, 4.253369138999972], [21.580767258000037, 4.266104804000122], [21.585995494000088, 4.272350188000132], [21.591223815000035, 4.278595536000125], [21.596889545000067, 4.281524252000111], [21.602555318000157, 4.284452925999972], [21.608221134000132, 4.287381558], [21.62675250100017, 4.2997358020001], [21.632243244, 4.304197076999969], [21.637734051, 4.308658312000091], [21.642538470999966, 4.310031021000043], [21.64734290800004, 4.311403700000028], [21.652490523999973, 4.309344676000023], [21.657638112000086, 4.307285618000037], [21.665423902000043, 4.303031176000047], [21.67320960500001, 4.298776653000061], [21.685822803, 4.301299293000056], [21.692641804000175, 4.306599271000152], [21.69778942900018, 4.30316755399997], [21.70293700800005, 4.2997358020001], [21.709114108000108, 4.302481215000114], [21.715291253000032, 4.305226577999974], [21.723260753000034, 4.308308256999965], [21.731230317000097, 4.311389852000161], [21.736301403000084, 4.307278712000141], [21.741372435000073, 4.303167537000093], [21.755785720000063, 4.295617721000156], [21.763106857000025, 4.293444465000107], [21.770427953000024, 4.291271138000127], [21.777749008000114, 4.289097742000081], [21.785070021000024, 4.286924274000171], [21.792390993000026, 4.284750737000024], [21.799711923000018, 4.282577129000117], [21.806556692000186, 4.279059183000186], [21.8134013990001, 4.275541176000161], [21.82024604300011, 4.272023107000109], [21.827090625000153, 4.268504977000021], [21.834343365, 4.263144472000135], [21.841596004000166, 4.257783897000081], [21.848848543000088, 4.252423253000075], [21.856100981999987, 4.247062540000172], [21.864969175000056, 4.248004387000037], [21.873837389000187, 4.248946131000139], [21.881387225000083, 4.24688712700015], [21.888937021, 4.244828049000091], [21.902663960000098, 4.242769009000085], [21.911243296000123, 4.242769057000089], [21.919822632000148, 4.242769009000085], [21.926228548000097, 4.242082715000151], [21.932634453000162, 4.241396368000153], [21.939040346000183, 4.240709967999976], [21.942128921000062, 4.23727824000008], [21.945217468000067, 4.233846499000094], [21.954826325000113, 4.232473805000041], [21.965630762000103, 4.237876023000069], [21.965807875999985, 4.237964580000039], [21.97267131500007, 4.241396345000055], [21.979534814000147, 4.244828049000091], [21.987770962000013, 4.246200787000021], [21.996007140000074, 4.247573437000085], [22.00126917299997, 4.24459930300003], [22.00653116600006, 4.241625133000127], [22.011793119000174, 4.238650927000094], [22.016597609000144, 4.233617746999983], [22.02140203800019, 4.228584536000028], [22.026206404000163, 4.22355129500005], [22.032612320000112, 4.222865001000116], [22.037116535000052, 4.222382406000065], [22.03666600000014, 4.229997], [22.038326, 4.235549], [22.039157, 4.241387], [22.038050000000112, 4.247494000000188], [22.037498, 4.253605], [22.038323000000105, 4.259713], [22.040829, 4.263883000000135], [22.044437, 4.26721700000013], [22.04916, 4.269158000000118], [22.053332000000125, 4.271661000000108], [22.05776800000018, 4.273604], [22.061937000000114, 4.276663], [22.06610400000011, 4.279444000000126], [22.069444, 4.282771], [22.07221900000019, 4.286938], [22.074442, 4.29138], [22.074716, 4.297770000000128], [22.07416200000017, 4.303603000000123], [22.07222, 4.308326000000136], [22.070554, 4.313881], [22.069443, 4.319441000000154], [22.06805, 4.32443700000016], [22.066939000000104, 4.329996], [22.065274, 4.335552], [22.063883, 4.340827], [22.062769, 4.346108000000186], [22.06277200000011, 4.353049], [22.063886, 4.358327], [22.066106000000104, 4.363325], [22.06804700000015, 4.368048], [22.070829000000117, 4.371936], [22.074161000000117, 4.375272], [22.077215, 4.379436000000112], [22.080828000000167, 4.382221000000186], [22.084437, 4.385553000000186], [22.08722, 4.389441], [22.089719, 4.393610000000137], [22.092493, 4.397498000000155], [22.09527000000014, 4.40166500000015], [22.096387, 4.407221000000106], [22.096665, 4.41388], [22.097774, 4.419436], [22.099993000000154, 4.424164], [22.103325000000154, 4.427499000000182], [22.10666600000019, 4.430824], [22.109999, 4.434159], [22.113609000000167, 4.437491], [22.116386, 4.441665], [22.118886000000145, 4.445825000000184], [22.12166000000019, 4.449721000000125], [22.12443800000017, 4.453887000000179], [22.126944, 4.457777], [22.129999, 4.46194], [22.133331, 4.465274], [22.135274, 4.469995], [22.13527, 4.476935], [22.134995, 4.483608000000117], [22.137220000000127, 4.488048000000163], [22.139998000000105, 4.492213000000163], [22.143883000000187, 4.495272000000114], [22.148049000000128, 4.497771000000114], [22.150827000000106, 4.501936000000114], [22.151379000000134, 4.508054], [22.149991, 4.513328000000172], [22.148052000000177, 4.518051000000128], [22.145552, 4.522215], [22.142219000000182, 4.525273000000141], [22.138605, 4.528882000000124], [22.134714, 4.531659], [22.130553, 4.53416], [22.126662000000124, 4.536937000000137], [22.121665, 4.539159], [22.1155490000001, 4.539435], [22.10861, 4.539720000000159], [22.102495, 4.539161], [22.096104, 4.538883], [22.090553000000114, 4.537492], [22.086387, 4.54055000000011], [22.083067045000064, 4.541718484000171], [22.081662, 4.542213], [22.07555100000019, 4.543054000000154], [22.066107, 4.541666], [22.063329, 4.537491000000102], [22.05916, 4.534713000000124], [22.053048, 4.535554000000104], [22.047494, 4.536659], [22.04166, 4.537497], [22.036934000000144, 4.535550000000114], [22.031941000000188, 4.533606], [22.028326, 4.53083], [22.024157, 4.528052], [22.019996, 4.525272], [22.015829, 4.522772000000145], [22.011937, 4.519999], [22.006943, 4.518054], [22.001383, 4.516662000000167], [21.995554, 4.517213], [21.98944200000011, 4.518053000000123], [21.984158, 4.51944200000014], [21.978603000000135, 4.520547], [21.973053000000107, 4.522217], [21.967775, 4.523328000000163], [21.962214000000188, 4.52472]]]}}]}