{"type": "FeatureCollection", "features": [{"type": "Feature", "properties": {"entity_id": "cf-p-nana-mambere-v1", "name_fr": "Nana-Mambéré"}, "geometry": {"type": "Polygon", "coordinates": [[[15.694436, 5.016936000000157], [15.687067000000184, 5.079091000000176], [15.695379679000041, 5.078171334999979], [15.745791000000168, 5.075649000000112], [15.825884, 5.075637], [15.840046071000188, 5.086464812000088], [15.84805200000011, 5.09243], [15.86641, 5.099863], [15.880667, 5.106767], [15.893564, 5.128422000000114], [15.901401, 5.14278], [15.917135703000099, 5.162288773000171], [15.918949000000111, 5.164537000000109], [15.92059130000007, 5.168692361000069], [15.924113000000148, 5.177603], [15.93458100000015, 5.211442], [15.954061, 5.221809000000178], [15.975512614000024, 5.209690881000029], [15.984862000000192, 5.20375300000012], [15.979252292000183, 5.147064263000061], [15.976792, 5.12405], [15.990089032000128, 5.106818668000187], [16.011255, 5.078858], [16.016003000000183, 5.081536000000142], [16.019224, 5.07714], [16.027013, 5.075735000000122], [16.026575790000095, 5.073569478000024], [16.026225, 5.071832000000143], [16.02913952400013, 5.070953139000153], [16.032752, 5.069377], [16.036230000000103, 5.0689], [16.079871, 5.070856], [16.079897000000187, 5.071557], [16.161841, 5.106682], [16.26277000000016, 5.168602], [16.344714, 5.198055000000124], [16.421938, 5.2241590000001], [16.47472100000016, 5.248049], [16.514793000000168, 5.269695000000127], [16.515610323000033, 5.270116069000039], [16.524818, 5.274177903000066], [16.52388500000012, 5.299165], [16.518881, 5.326102], [16.51221700000019, 5.346105], [16.502213, 5.365276], [16.493882000000156, 5.378881], [16.489437, 5.391381], [16.489717000000155, 5.402776000000188], [16.493881, 5.419163], [16.509992000000125, 5.478324], [16.518609, 5.51361], [16.520269, 5.530825000000107], [16.519721, 5.542493], [16.514715, 5.568327000000124], [16.505552, 5.58916], [16.492221, 5.603610000000174], [16.481665, 5.612491], [16.470553, 5.623327000000131], [16.463884, 5.634993000000122], [16.461938000000146, 5.643607], [16.460552, 5.659999], [16.459163, 5.667491000000155], [16.45777800000019, 5.67332800000014], [16.4533330000001, 5.678883], [16.442491, 5.69027], [16.422219, 5.703054000000122], [16.401105, 5.715831], [16.389441, 5.723602000000142], [16.38388600000019, 5.730272], [16.381385, 5.737495000000138], [16.377495, 5.745554], [16.371102, 5.749441], [16.354716, 5.754165000000114], [16.331386, 5.762495000000115], [16.31722200000013, 5.772215000000188], [16.294437000000187, 5.802495], [16.270553000000177, 5.831384000000185], [16.261383000000137, 5.845831], [16.257214, 5.855274000000122], [16.261107, 5.871663], [16.259719000000132, 5.89693700000015], [16.253883, 5.904440000000136], [16.237493, 5.909994], [16.219161, 5.911662], [16.203889000000174, 5.912772], [16.192492, 5.90916], [16.187217, 5.900832], [16.181663, 5.883885], [16.174994, 5.860825], [16.169163, 5.844999000000143], [16.158883000000117, 5.831109], [16.143325000000175, 5.818885], [16.1252750000001, 5.806936000000121], [16.104996000000142, 5.795552], [16.083608, 5.789162], [16.066661000000124, 5.786661000000151], [16.053328, 5.789716000000112], [16.042772000000127, 5.795272000000125], [16.03443600000014, 5.799991], [16.021939, 5.80110800000017], [16.01249900000016, 5.79944200000017], [15.997775000000104, 5.797777], [15.996936000000176, 5.79833], [15.983889000000147, 5.80527300000017], [15.972773000000188, 5.822217], [15.95915900000017, 5.841661], [15.953439967000065, 5.847125178], [15.953341, 5.847210000000132], [15.953307782000081, 5.847251473000085], [15.94907772, 5.851293032000058], [15.94644713100007, 5.851590044000147], [15.942738488000089, 5.851660622000111], [15.942399700000124, 5.851640149000104], [15.94053085100012, 5.851363802000094], [15.937639, 5.850860000000125], [15.933037, 5.85020900000012], [15.931024187000105, 5.849958053000023], [15.928853000000117, 5.849637], [15.909663841, 5.854795514000159], [15.90791906200019, 5.855259055000033], [15.906158191000031, 5.855160808], [15.901254, 5.854752000000133], [15.901197, 5.854884], [15.894704000000104, 5.869672], [15.894583, 5.872177], [15.8957860000001, 5.876947000000143], [15.903088000000139, 5.889511], [15.902164, 5.9023380000001], [15.895698, 5.913333], [15.875373, 5.922496], [15.849506000000133, 5.922496], [15.842116000000146, 5.927993], [15.81902, 5.947235], [15.820867, 6.002210000000105], [15.815324, 6.008624], [15.806086, 6.007707], [15.803315000000111, 6.014121000000102], [15.810705000000155, 6.052604], [15.806742, 6.073971], [15.807010000000162, 6.091086000000132], [15.8088580000001, 6.118574], [15.792492, 6.150825000000111], [15.782217000000117, 6.175825], [15.769161, 6.197491000000184], [15.746666, 6.224164000000144], [15.728047000000174, 6.244435000000124], [15.719162, 6.251386], [15.706384, 6.261381], [15.70166, 6.27027100000015], [15.703884000000187, 6.277495000000158], [15.708046000000138, 6.286663], [15.713602, 6.29722100000015], [15.729435, 6.313048000000151], [15.754716, 6.334442], [15.77555400000017, 6.352213], [15.789437, 6.367769], [15.794999, 6.380552], [15.792221, 6.390832000000103], [15.786665, 6.399443], [15.77805300000017, 6.408602000000144], [15.75304, 6.425157000000127], [15.753331000000173, 6.426107], [15.751384, 6.424716], [15.747772000000111, 6.421664000000135], [15.74527, 6.416937000000189], [15.743327, 6.411937], [15.739164000000187, 6.409437], [15.734721, 6.406938], [15.729718, 6.404991000000109], [15.725546000000179, 6.402491], [15.722214000000179, 6.399158000000114], [15.718331, 6.396106], [15.715549, 6.391940000000147], [15.712217, 6.388606000000152], [15.707774, 6.386107000000152], [15.701381, 6.385546], [15.69582800000012, 6.38444], [15.691665000000114, 6.38166], [15.687494000000129, 6.37944], [15.682491, 6.377221000000134], [15.676938000000177, 6.376387], [15.669995, 6.376659000000188], [15.663882000000115, 6.376106000000107], [15.657498, 6.375825], [15.653326000000163, 6.373053], [15.649995, 6.369999000000178], [15.645552000000123, 6.367219], [15.64055000000019, 6.365551], [15.634438, 6.364998], [15.628885, 6.363883], [15.62416300000018, 6.36193500000013], [15.620552, 6.358881], [15.616940000000113, 6.355276], [15.612742074000039, 6.353029067000023], [15.608607, 6.350275000000124], [15.603604000000189, 6.348055000000102], [15.598749466000129, 6.346435851000024], [15.598603, 6.346387000000107], [15.597550487000149, 6.346035390000168], [15.595131773000048, 6.345227375000036], [15.589439, 6.341938], [15.584158, 6.341103], [15.578605000000152, 6.339716], [15.572213, 6.339442000000133], [15.566660000000184, 6.338055000000168], [15.561659, 6.336387000000173], [15.557497000000183, 6.333605], [15.554717, 6.3299990000001], [15.552217, 6.324999000000105], [15.550277000000165, 6.320270000000164], [15.547772, 6.311380000000156], [15.545272000000125, 6.306941], [15.540551000000107, 6.304992], [15.534161, 6.306102], [15.529162000000156, 6.30722], [15.523604, 6.309161], [15.518046, 6.310551000000146], [15.513329, 6.312772], [15.506938, 6.31361], [15.500826, 6.313327000000129], [15.494715000000156, 6.314436], [15.490269000000183, 6.316386000000136], [15.486104000000182, 6.319438], [15.481106000000182, 6.321659000000125], [15.474443, 6.321937], [15.468882, 6.320549000000142], [15.463881000000129, 6.318888000000186], [15.459160000000168, 6.316939], [15.455270000000155, 6.313884], [15.451939, 6.310269], [15.448329000000172, 6.306943], [15.444719, 6.303888], [15.440549, 6.301105000000177], [15.43638, 6.298883], [15.432219, 6.296109000000172], [15.42582700000014, 6.295825], [15.421109, 6.297774], [15.416383000000167, 6.300275], [15.412769, 6.303607], [15.409164, 6.306387], [15.405551, 6.310271], [15.401666000000148, 6.313051], [15.397771, 6.316103000000169], [15.39305300000018, 6.318051], [15.38944, 6.321663000000115], [15.385826000000122, 6.324715], [15.383053, 6.328887], [15.380551000000139, 6.33277], [15.378611, 6.337774], [15.376942000000156, 6.342769], [15.374160000000188, 6.346942], [15.370555000000138, 6.350554000000102], [15.367493, 6.354166], [15.364159, 6.357497000000137], [15.359993, 6.36027700000011], [15.356107, 6.363329], [15.353325, 6.367492], [15.352497, 6.373047], [15.352492, 6.379995000000179], [15.352777000000174, 6.386943], [15.351660000000152, 6.392218], [15.349719000000107, 6.396941], [15.347217, 6.401665], [15.343883, 6.404997], [15.341110000000128, 6.40916], [15.339637, 6.418696], [15.335848000000112, 6.427991000000134], [15.336646, 6.434122000000116], [15.332658000000151, 6.446779], [15.326831151000079, 6.450872588000152], [15.323113938000063, 6.453484075000119], [15.321590330000106, 6.458022385999982], [15.321104, 6.459471000000121], [15.32141818000008, 6.470411408000132], [15.321447, 6.471415], [15.320072, 6.480287], [15.320455465000123, 6.484471111000175], [15.320831000000169, 6.487218], [15.320743603000153, 6.488176227000167], [15.320274, 6.493325], [15.319998000000169, 6.499721000000136], [15.318608, 6.505276], [15.31777, 6.510551], [15.316381, 6.516107], [15.315986362000103, 6.518183386000032], [15.315580240000031, 6.520320198000093], [15.315272000000107, 6.521942], [15.314996, 6.528049], [15.314439000000107, 6.534165], [15.313882, 6.540552], [15.313800000000185, 6.573567], [15.28583, 6.614163], [15.28277700000018, 6.621384000000148], [15.268047, 6.633885], [15.228885000000162, 6.657498], [15.207775, 6.671937000000128], [15.196108, 6.681658], [15.191659, 6.687214], [15.187499000000116, 6.694444], [15.185828, 6.701383], [15.187216000000149, 6.710275], [15.188883, 6.717214000000183], [15.190551, 6.724161000000151], [15.192221, 6.736101], [15.193048, 6.744994000000133], [15.192217, 6.750277], [15.187776000000156, 6.754992000000129], [15.183325, 6.75749100000013], [15.176665, 6.757213], [15.169161, 6.753054], [15.152491, 6.745271000000116], [15.110275000000115, 6.731658000000152], [15.096385000000168, 6.73138], [15.080269, 6.727493000000152], [15.062041, 6.721846], [15.048598, 6.71835], [15.047635007000054, 6.71835], [15.032513117000121, 6.718346733000033], [15.008171, 6.710300000000132], [14.993462146000184, 6.710633683000083], [14.988117, 6.710615], [14.974438828000189, 6.704534165999974], [14.96881800000017, 6.701812000000189], [14.947774, 6.700531], [14.946140000000128, 6.701645], [14.941742722000129, 6.703775605000033], [14.9404, 6.700240000000122], [14.936916691000022, 6.692238722000184], [14.933433496000077, 6.684237417000077], [14.929950414000189, 6.676236085000085], [14.926467445000014, 6.668234726000037], [14.922984590000056, 6.660233339000115], [14.919501847000106, 6.652231925000137], [14.916019216000166, 6.644230485000151], [14.912536698000167, 6.636229017000176], [14.909054293000054, 6.628227522000088], [14.908905458000106, 6.627893475000064], [14.908378411000115, 6.626710555000045], [14.902272285000038, 6.613005786000031], [14.898972665000088, 6.605785548000028], [14.895673141000088, 6.598565286], [14.892373713000154, 6.591345001000093], [14.889074380000068, 6.584124691000056], [14.885775142000114, 6.576904357000046], [14.882476000000167, 6.569684000000109], [14.87900735800008, 6.561561593000135], [14.875538828000117, 6.55343915900005], [14.872070410000049, 6.545316699000182], [14.868602104000104, 6.537194212000031], [14.865133911000157, 6.529071699000042], [14.86166582900006, 6.520949159000168], [14.858197859000029, 6.512826593000113], [14.85473, 6.504704000000118], [14.830562, 6.45514], [14.82626489800009, 6.447455972000057], [14.821967926000013, 6.439771906000033], [14.81767108300005, 6.432087802000183], [14.813374369000144, 6.424403659000063], [14.80907778400018, 6.416719478000118], [14.80478132800016, 6.409035258000074], [14.800485, 6.401351], [14.802806929000099, 6.394206825000026], [14.805128793000051, 6.387062637000099], [14.807450593000112, 6.379918437000129], [14.809772329, 6.372774225], [14.812094000000172, 6.365630000000181], [14.807494671000029, 6.358430694999981], [14.802895469000191, 6.351231347000123], [14.798296396000069, 6.344031956000151], [14.793697450000025, 6.336832523000169], [14.789098631000115, 6.329633047000073], [14.78449993999999, 6.32243352800009], [14.779901376, 6.315233966], [14.775302939000142, 6.308034362000114], [14.770704628999965, 6.300834715000121], [14.766106446000094, 6.293635026000118], [14.761508389000085, 6.286435294000171], [14.756910459000153, 6.2792355200001], [14.752312655000026, 6.272035703000086], [14.747714978000033, 6.264835844000061], [14.743117426000083, 6.257635943000025], [14.73852, 6.250436], [14.730104655000162, 6.247398474000022], [14.721689408000145, 6.244360813000128], [14.71327425700008, 6.24132301800006], [14.704859203000183, 6.238285087000122], [14.69644424600017, 6.23524702200001], [14.68802938600004, 6.232208822000189], [14.679614623000077, 6.229170488000136], [14.67119995700017, 6.226132019000033], [14.662785387000099, 6.22309341600004], [14.65437091400014, 6.220054678000167], [14.645956538000064, 6.217015806000063], [14.637542258, 6.213976799000079], [14.62912807500004, 6.210937658000034], [14.620713988000148, 6.207898384000089], [14.612299997000036, 6.204858975000036], [14.603886104000082, 6.201819432000036], [14.59547230600009, 6.198779755000146], [14.587058604999982, 6.195739944000081], [14.578645000000108, 6.1927], [14.574383, 6.193471000000102], [14.573642, 6.193738000000167], [14.572614, 6.194194], [14.570009, 6.195551], [14.566434000000129, 6.196468], [14.562169, 6.194398], [14.556469, 6.191096], [14.551262000000179, 6.1873930000001], [14.547255, 6.183927], [14.544571, 6.181256000000133], [14.540781, 6.176718], [14.535138, 6.173489000000188], [14.531210000000158, 6.171807000000115], [14.530388000000187, 6.17137], [14.529954000000146, 6.170889], [14.529448, 6.170196], [14.527539, 6.165986], [14.525456000000133, 6.161587], [14.525126, 6.160985000000153], [14.524621000000138, 6.160384], [14.524329000000137, 6.160085000000151], [14.523462000000166, 6.159814], [14.518879, 6.155828000000156], [14.515979, 6.152106], [14.512641000000144, 6.150065], [14.509945000000187, 6.147969], [14.509495, 6.146723000000179], [14.508585, 6.142658], [14.50647, 6.138714], [14.506480000000181, 6.133960000000172], [14.50526200000013, 6.132328000000143], [14.503983000000176, 6.13106], [14.501888, 6.130125000000135], [14.499650000000145, 6.128548], [14.496947, 6.125919000000124], [14.495976, 6.124586000000136], [14.488654000000167, 6.117926000000125], [14.487413000000174, 6.119975000000181], [14.485938000000147, 6.120760000000132], [14.483679000000109, 6.116088000000104], [14.482362, 6.113009], [14.481774, 6.112103], [14.48085200000014, 6.111082000000124], [14.47997800000013, 6.110209], [14.479738000000168, 6.11002800000017], [14.479448000000161, 6.109865000000184], [14.478635, 6.109440000000177], [14.47429, 6.106293], [14.471295, 6.103773], [14.470121, 6.100981000000161], [14.469906, 6.099733], [14.467718, 6.097924], [14.465461000000175, 6.097036], [14.460083000000168, 6.094927], [14.454793000000166, 6.095025000000135], [14.447603000000129, 6.093629], [14.445069000000103, 6.090662], [14.440332, 6.087613], [14.434739, 6.084996], [14.432253000000173, 6.084157], [14.430935, 6.084185000000105], [14.4297, 6.084239000000139], [14.42852, 6.084545], [14.42507, 6.085349000000122], [14.424927000000139, 6.085369000000185], [14.423847000000137, 6.085379000000103], [14.423107000000186, 6.084811], [14.422648, 6.084321000000159], [14.421949, 6.083327000000168], [14.421435, 6.082459], [14.421317, 6.081709], [14.421479, 6.080128000000116], [14.423651, 6.077072], [14.425877, 6.07538], [14.426871, 6.073406000000148], [14.425959, 6.071686000000113], [14.424888, 6.069552000000101], [14.423823, 6.067259], [14.422328, 6.062895], [14.422249, 6.06246], [14.422251, 6.061986000000104], [14.422292, 6.061552], [14.420869, 6.055541], [14.419512, 6.05314], [14.416714, 6.048041000000183], [14.415884949000088, 6.044044836000126], [14.415613, 6.042734], [14.415722000000187, 6.040113], [14.416196000000184, 6.036207000000161], [14.417285, 6.032043000000101], [14.420242, 6.027578000000119], [14.424447, 6.026574], [14.426013, 6.021447], [14.425869, 6.016733], [14.427469000000144, 6.012659], [14.43098, 6.007711], [14.430727, 6.005411], [14.432072000000119, 6.000871000000188], [14.432895, 5.999045], [14.434268, 5.997084], [14.434875, 5.996817000000135], [14.435615, 5.996749], [14.44114900000011, 5.99348300000014], [14.447545000000162, 5.986694], [14.455754, 5.979366], [14.463345, 5.972758], [14.464200000000119, 5.969886], [14.464941000000124, 5.966949000000113], [14.465482000000122, 5.964347], [14.466429000000119, 5.959946000000116], [14.470843000000116, 5.952245000000119], [14.473804, 5.946387000000186], [14.477009000000123, 5.941139], [14.478414, 5.94041], [14.481229, 5.9392840000001], [14.481768000000102, 5.939018], [14.482306, 5.93862], [14.482842000000119, 5.938088], [14.483110000000124, 5.937423000000138], [14.484828000000164, 5.932632000000183], [14.483562, 5.930239], [14.483298, 5.928509000000133], [14.48323500000015, 5.926244000000111], [14.484173000000112, 5.924446], [14.487462000000107, 5.917243], [14.488933000000145, 5.914985], [14.489198, 5.914719000000105], [14.490462, 5.914055], [14.491792, 5.91346], [14.493934, 5.912403], [14.496787, 5.910285], [14.496978000000183, 5.908502000000112], [14.496897, 5.90729], [14.49708, 5.906252000000109], [14.497691, 5.905458000000124], [14.501111, 5.90246500000012], [14.503615, 5.901854000000185], [14.504776, 5.901488], [14.506241000000102, 5.900755], [14.507402, 5.900083], [14.510334, 5.897274000000152], [14.510761000000173, 5.895747], [14.515403, 5.895503000000133], [14.532473898000092, 5.899200735000136], [14.54055142400017, 5.900957926000103], [14.548629, 5.902715], [14.551039000000173, 5.902849000000117], [14.555607007000049, 5.90200401900006], [14.560175, 5.901159], [14.56026, 5.901159], [14.567952000000162, 5.904015000000129], [14.568888000000129, 5.904440000000136], [14.570247000000165, 5.905627], [14.572791000000166, 5.908421], [14.573213, 5.909182], [14.576445000000149, 5.913256], [14.583054, 5.92045000000013], [14.586882, 5.922913], [14.587649, 5.923169], [14.591142000000104, 5.923685000000148], [14.594887000000142, 5.923693], [14.597609000000148, 5.923276], [14.599228000000153, 5.922601000000157], [14.602473, 5.921164], [14.605221, 5.917515000000151], [14.607954, 5.913281], [14.611826000000121, 5.90498], [14.613882000000103, 5.900314000000151], [14.616194, 5.896496], [14.618162, 5.893527], [14.619158, 5.889539000000184], [14.619502, 5.887753], [14.619506000000172, 5.885031], [14.61908000000011, 5.884265], [14.618654, 5.883415], [14.618400000000179, 5.882567000000108], [14.61823, 5.881716], [14.61823, 5.88086], [14.618750000000148, 5.877293000000179], [14.617648, 5.873479], [14.616373000000124, 5.869704000000183], [14.616032000000132, 5.868417], [14.615544000000114, 5.862126], [14.61546, 5.86119], [14.614782000000105, 5.857784000000152], [14.613757, 5.856330000000128], [14.6131630000001, 5.853518000000122], [14.614707000000124, 5.847388], [14.61506, 5.844848], [14.616449, 5.834465], [14.6191290000001, 5.827406], [14.62063000000012, 5.8229520000001], [14.620932, 5.821393], [14.621008000000131, 5.82065], [14.621010000000126, 5.819832], [14.621012, 5.818940000000168], [14.621013000000175, 5.81827200000015], [14.62064, 5.817455], [14.619893, 5.817231000000163], [14.619151000000102, 5.814410000000123], [14.620952000000102, 5.810837000000106], [14.622604, 5.807415000000105], [14.623136000000159, 5.804726], [14.623061000000178, 5.801512], [14.622992000000124, 5.79876], [14.622628, 5.795551000000103], [14.620986, 5.79221], [14.619573, 5.788777], [14.621073, 5.786124], [14.622350000000154, 5.783372000000156], [14.622507000000155, 5.780835], [14.621922, 5.771984], [14.620586, 5.766654000000131], [14.621188, 5.76374], [14.622914, 5.76091300000013], [14.623222000000169, 5.757633000000169], [14.62337900000017, 5.754205], [14.62233700000013, 5.750999000000149], [14.622052000000167, 5.742526], [14.623028, 5.73992], [14.624158, 5.73627], [14.624165, 5.73217000000011], [14.625454000000104, 5.723058], [14.62658800000014, 5.71665], [14.626858, 5.710372], [14.626862, 5.708733000000166], [14.626864, 5.707764000000111], [14.626865000000123, 5.707168], [14.626567, 5.706496000000186], [14.624855, 5.702688], [14.623137, 5.699181000000124], [14.622167000000104, 5.694715], [14.619315, 5.690225], [14.617520000000184, 5.68776], [14.616249, 5.684998], [14.615428000000122, 5.68276], [14.615429000000177, 5.681938], [14.614759000000163, 5.67851], [14.613492000000122, 5.67481], [14.61259500000017, 5.672572000000116], [14.609557000000166, 5.66437800000017], [14.606492, 5.659448000000111], [14.606277, 5.655263], [14.606984, 5.649369000000149], [14.607363000000191, 5.647802000000183], [14.607513000000154, 5.646231], [14.605346000000111, 5.640852000000166], [14.602435000000128, 5.635322], [14.598093, 5.627398], [14.597869000000117, 5.62665], [14.597198, 5.624255], [14.596976000000154, 5.622243], [14.597353, 5.621568], [14.59758, 5.620523000000162], [14.597209, 5.617752], [14.594099000000142, 5.611296], [14.593724, 5.610544000000118], [14.593348000000162, 5.609792], [14.592823, 5.609191], [14.592224000000101, 5.608671], [14.590953, 5.605304], [14.590669, 5.596931], [14.590072000000191, 5.5943860000001], [14.590004, 5.589598], [14.59121800000014, 5.583239], [14.591369, 5.582563000000107], [14.594759, 5.576138000000128], [14.595287, 5.575466000000176], [14.595813, 5.574869000000149], [14.596413, 5.574347000000103], [14.597984, 5.574274000000116], [14.598586000000125, 5.574873000000139], [14.599414, 5.575473], [14.602466, 5.570069], [14.602466, 5.569994000000179], [14.60390400000017, 5.56454900000017], [14.605409000000122, 5.5623], [14.607072, 5.559702], [14.60745, 5.55903], [14.607526000000178, 5.558206], [14.607377, 5.557606], [14.605652000000191, 5.553858], [14.605508000000157, 5.550942], [14.608839000000103, 5.539425], [14.61266, 5.530941], [14.613117, 5.530186000000185], [14.613647000000185, 5.529658], [14.61605, 5.527501], [14.620487, 5.523701], [14.621616000000131, 5.52273], [14.624853, 5.519073000000105], [14.628322, 5.513542], [14.627787, 5.509760000000142], [14.623370000000136, 5.505046], [14.61932, 5.500175], [14.618117, 5.498601], [14.616918000000112, 5.496653000000151], [14.616467000000114, 5.495155000000182], [14.616092000000151, 5.493659], [14.61324500000012, 5.489764], [14.614908, 5.484602000000109], [14.617170000000158, 5.481542], [14.617695, 5.479439000000127], [14.617399, 5.478622], [14.616726, 5.478253], [14.615826, 5.478182], [14.614996, 5.4780990000001], [14.614394000000175, 5.477796], [14.612824000000103, 5.473983], [14.612975000000176, 5.473231], [14.612003, 5.470762], [14.60868, 5.466864000000101], [14.6047, 5.464763000000175], [14.602293, 5.463558], [14.600645000000156, 5.461387], [14.60034800000011, 5.459215000000142], [14.600951, 5.458842000000175], [14.602461000000119, 5.457197000000122], [14.604447000000107, 5.453005000000189], [14.604753, 5.451513], [14.603106, 5.448897000000102], [14.600487, 5.440652], [14.597487000000172, 5.433072], [14.598171, 5.430524000000162], [14.599005, 5.42805], [14.599763000000166, 5.425049000000115], [14.600154, 5.417846000000111], [14.598874, 5.41452], [14.59390000000019, 5.408877000000132], [14.592775000000188, 5.408652000000188], [14.590738, 5.408949], [14.588325, 5.409472], [14.586364000000174, 5.409318], [14.583656, 5.408336000000133], [14.580404000000158, 5.406301], [14.57740500000017, 5.403893], [14.575718, 5.402168000000188], [14.572259, 5.397132], [14.571603, 5.393690000000163], [14.572292, 5.387969], [14.572564, 5.38591], [14.572575, 5.381546], [14.57159300000012, 5.380414], [14.568879, 5.378757], [14.564505, 5.373857], [14.559664, 5.368722], [14.559545000000185, 5.366155000000106], [14.560236000000145, 5.36300000000017], [14.561298, 5.361643000000186], [14.562218, 5.35795800000011], [14.562672, 5.355694], [14.562158000000181, 5.353894], [14.560641, 5.351474], [14.559806, 5.350564], [14.557466, 5.345584000000144], [14.557242, 5.342418], [14.555732, 5.339778], [14.55513, 5.339250000000106], [14.554303, 5.339324], [14.550673, 5.336151], [14.550138, 5.334438], [14.550919, 5.333084], [14.55273000000011, 5.329884000000163], [14.552448, 5.3275000000001], [14.551968000000102, 5.325989000000106], [14.54470300000014, 5.319283], [14.544162000000142, 5.319340000000125], [14.543742, 5.31886], [14.543023, 5.317180000000121], [14.54326500000019, 5.316337], [14.549707000000126, 5.310784], [14.55036900000016, 5.310487], [14.550732, 5.310130000000129], [14.550615000000107, 5.309532], [14.549303, 5.305462], [14.548639, 5.304499], [14.547619000000168, 5.303899000000115], [14.545277, 5.302638], [14.543772, 5.302454], [14.542629000000147, 5.302152000000149], [14.540166000000113, 5.300892000000147], [14.53801, 5.298134], [14.537188, 5.296951], [14.531067, 5.29067700000013], [14.527887, 5.287661000000185], [14.52628285500009, 5.284050589000174], [14.525669000000164, 5.282669000000169], [14.527073, 5.275735], [14.528246, 5.273025000000132], [14.533503000000167, 5.267519], [14.540209000000118, 5.263086], [14.544256, 5.260107000000119], [14.548935, 5.255767], [14.555062000000135, 5.250934], [14.559134, 5.247942], [14.561850000000106, 5.246304], [14.564351000000102, 5.243224000000168], [14.566727, 5.240025000000173], [14.569462, 5.236447], [14.573377000000107, 5.233789], [14.577946000000168, 5.233109], [14.579012, 5.233304], [14.580273000000147, 5.233208000000104], [14.586476, 5.231867], [14.588415, 5.231107000000179], [14.591520000000116, 5.229663], [14.5922, 5.229086000000109], [14.592784, 5.228218], [14.593368, 5.226190000000145], [14.594825000000185, 5.224359000000163], [14.59704900000014, 5.224167], [14.600132000000144, 5.224361000000158], [14.603899, 5.224751], [14.608675, 5.221100000000149], [14.613127000000134, 5.220433], [14.615256000000102, 5.220629], [14.617865000000108, 5.222655], [14.620376, 5.223332], [14.624053000000174, 5.221414], [14.63071500000018, 5.220752000000118], [14.632555, 5.218925000000127], [14.63546, 5.216812000000118], [14.638844, 5.215569], [14.641455000000121, 5.215861], [14.644646, 5.216635], [14.647548, 5.21635], [14.650260000000173, 5.214524000000154], [14.652280000000133, 5.211796], [14.651804, 5.208330000000103], [14.653355, 5.205062000000112], [14.655677, 5.202950000000158], [14.658579000000145, 5.201607], [14.662248000000147, 5.200554000000125], [14.66410500000012, 5.19985400000013], [14.66653767500003, 5.19169764600008], [14.66897028800014, 5.183541280999975], [14.671402839000052, 5.175384904000055], [14.673835327000063, 5.167228516000023], [14.676267752000172, 5.159072116000175], [14.67870011600013, 5.150915705000045], [14.681132418000118, 5.142759282000156], [14.683564658000137, 5.134602849000032], [14.685996836000129, 5.126446403000159], [14.688428952000095, 5.118289947000108], [14.690861007000137, 5.110133479000126], [14.693293, 5.101977000000147], [14.693176000000108, 5.099259000000131], [14.692959, 5.099043], [14.692092000000116, 5.09915100000012], [14.68873200000013, 5.097742], [14.689274000000182, 5.094490000000121], [14.68873200000013, 5.09319], [14.68819000000019, 5.092539000000158], [14.683963, 5.089938], [14.682228, 5.088962], [14.680711, 5.088637], [14.679194000000166, 5.088746000000185], [14.677676000000133, 5.088746000000185], [14.674132, 5.087679], [14.672621, 5.084778000000142], [14.673478000000102, 5.080818], [14.673004000000105, 5.078267], [14.672150000000158, 5.074197], [14.673965, 5.070785], [14.676159, 5.067660000000103], [14.67883, 5.06465900000012], [14.680074000000161, 5.061814], [14.681223, 5.058401000000117], [14.680749, 5.056215000000122], [14.680373, 5.053466000000185], [14.680002, 5.047961000000157], [14.680003000000113, 5.046823000000131], [14.680198, 5.044734000000176], [14.680486000000144, 5.04369], [14.680965000000128, 5.042931000000181], [14.682112000000188, 5.042172000000107], [14.68287800000013, 5.041318000000103], [14.683166, 5.040272], [14.683648000000119, 5.038318], [14.683271000000161, 5.036419000000137], [14.683275000000151, 5.034518], [14.683563000000163, 5.033376], [14.684333, 5.030334], [14.684908, 5.029574], [14.685671000000127, 5.029003000000102], [14.686814, 5.028433000000177], [14.68729000000019, 5.027577], [14.687676000000124, 5.02368], [14.687581, 5.021591], [14.686820000000182, 5.020828000000108], [14.681193000000178, 5.020153], [14.676898000000108, 5.02014], [14.676233000000138, 5.018525000000182], [14.679309000000103, 5.013841], [14.679665152000041, 5.013374172000169], [14.679790262000097, 5.013256283999965], [14.679995724000037, 5.013052891000143], [14.680190609000135, 5.012849672000073], [14.680374917999984, 5.012646625000059], [14.680548651000095, 5.012443752000081], [14.680711804000168, 5.012241057000097], [14.680772588000025, 5.012160375000178], [14.680932549000033, 5.011961918], [14.681094932000065, 5.01177411000009], [14.681259738, 5.011596951000115], [14.681426967000107, 5.011430442000062], [14.681550232000063, 5.011317198000143], [14.683827000000178, 5.012090000000114], [14.721659000000102, 5.014713], [14.758610000000147, 5.010548], [14.789995, 5.004995000000179], [14.818882000000144, 4.997494000000188], [14.844159000000104, 4.991665000000182], [14.86666600000018, 4.991109], [14.882497000000114, 4.993049], [14.895549, 4.99527600000016], [14.902495000000101, 4.998055], [14.909720000000164, 5.001666], [14.917805704000045, 5.006219022000039], [14.919063000000108, 5.006927000000132], [14.920264567000174, 5.007324537000102], [14.922492, 5.008326], [14.929385876000026, 5.010342311000045], [14.93154, 5.011055000000113], [14.936646151000048, 5.010824366], [14.939993000000129, 5.010825], [14.944999, 5.009161], [14.947769000000108, 5.007496000000174], [14.956384, 5.001942000000156], [14.96249100000017, 4.996107], [14.970277000000124, 4.987214000000165], [14.98693800000018, 4.965546000000188], [14.998051, 4.954165], [15.006386000000134, 4.946384000000137], [15.012772, 4.942775], [15.016659000000118, 4.94111], [15.022216000000185, 4.939716000000146], [15.031109, 4.941109], [15.036936, 4.944438], [15.043052, 4.949713], [15.060833, 4.970547], [15.078886, 4.998609000000101], [15.099715, 4.999719], [15.199718, 4.999995000000183], [15.299721, 4.999993000000188], [15.313604000000112, 4.999996], [15.314995000000124, 5.003605000000107], [15.318606000000102, 5.008326], [15.322216, 5.013327000000174], [15.325547000000142, 5.016663000000108], [15.332773, 5.01722100000012], [15.338330000000155, 5.01777], [15.344165000000146, 5.01555], [15.35277600000012, 5.008326], [15.35861000000017, 5.004161], [15.37443700000017, 4.996381], [15.384992, 4.998049], [15.405551, 4.999719], [15.405846454000027, 4.999770722999983], [15.416467000000182, 5.00163], [15.416665, 5.001666], [15.425833000000125, 5.006102000000112], [15.435273000000109, 5.013605], [15.450975, 5.026467], [15.459152156000016, 5.032487360000118], [15.470599000000163, 5.040915], [15.481665, 5.04805], [15.487617748, 5.050666103000083], [15.492299805000073, 5.053157771000031], [15.49373, 5.053564000000108], [15.49426860300008, 5.053738245000091], [15.494434342000034, 5.053791864000175], [15.495555516000081, 5.054154579000055], [15.497304000000156, 5.054923000000144], [15.497615309000082, 5.054659319000052], [15.504435, 5.048883], [15.511937000000103, 5.044716000000108], [15.516102000000103, 5.041944], [15.520548, 5.039996], [15.525273, 5.037775], [15.530829, 5.036387000000161], [15.534994, 5.033606], [15.53944, 5.031666], [15.543605, 5.028885000000116], [15.548331, 5.026936000000148], [15.552496, 5.024165], [15.557492, 5.022776], [15.563888000000134, 5.023332], [15.569437, 5.024720000000116], [15.57471500000014, 5.025548], [15.580551, 5.024991000000171], [15.586937000000148, 5.024162000000103], [15.591662, 5.022221000000116], [15.596386000000166, 5.019992], [15.600832000000139, 5.018051], [15.606387, 5.016662], [15.613333000000125, 5.016665000000103], [15.618882, 5.017772], [15.62333000000018, 5.019713], [15.628888000000188, 5.02111], [15.635546, 5.021104], [15.64111000000014, 5.019714], [15.644995, 5.016942000000142], [15.65111000000013, 5.016104], [15.658603000000141, 5.021940000000143], [15.662773000000186, 5.024722000000111], [15.668880000000115, 5.025277000000187], [15.674165, 5.023887000000116], [15.678881, 5.021937], [15.68305400000014, 5.019165], [15.688609, 5.017775000000142], [15.694436, 5.016936000000157]]]}}]}